Name,ID,Zip,County,Address,Latitude,Longitude
120831,ec3cbnx5,35094,Jefferson County,"8732 Parkway Dr, Leeds, AL 35094, USA",33.54463,-86.522565
Sheetrock® EcoSmart Panels Firecode® X (Eastern US),ec37y3zm,35740,Jackson,"100 D.J. Nootens Drive, Bridgeport, AL 35740",34.96334,-85.72804
Broadloom Carpet,ec3epmm0,36571,Mobile,"716 Bill Myles Drive, Saraland, AL 36571",30.80588,-88.06804
Safety barriers,ec3wxc3n,36505,Mobile,"Highway 43 North, Axis, AL 36505",30.95283,-88.02622
MBA Metal Framing,ec32sjj6,,,,,
Stainless Steel Reinforcing Bar (secondary production route - scrap),ec35x29m,36560,Mobile,"1 Steel Drive, Mount Vernon, AL 36560",31.15079,-87.99179
Merchant Bar (at Mill),ec3k2dwr,35212,Jefferson,"101 50th Street South, Birmingham, AL 35212",33.53431,-86.75711
Floor Tile - Florence AL,ec3g87fq,35630,Lauderdale County,"4351 Bryson Blvd, Florence, AL 35630, USA",34.7998125,-87.6773125
Floor Tile - Florence AL,ec3d7nf2,,Lauderdale County,"Florence, AL, USA",34.79981,-87.677251
4000042,ec32upsq,35630,Lauderdale County,"3214 Roberson Rd, Florence, AL 35630, USA",34.8640178,-87.6686351
Modular Carpet Family,ec3xf4hw,36571,Mobile,"716 Bill Myles Drive, Saraland, AL 36571",30.80588,-88.06804
Light structural shapes,ec3hjgzx,35212,Jefferson,"101 50th Street South, Birmingham, AL 35212",33.53431,-86.75711
S-P-05431 Safety barriers,ec3c5r55,36505,Mobile,"Highway 43 North, Axis, AL 36505",30.95283,-88.02622
372031,ec343qr0,35094,Jefferson County,"8732 Parkway Dr, Leeds, AL 35094, USA",33.54463,-86.522565
Atmosphere Duct Wrap and KN Series,ec3hfhk8,,,,,
"Orion™ 75 5/8""",ec34dgk1,,,,,
"Orion™ 85 5/8""",ec3k6c1d,,,,,
Rubber Floor Tile,ec381y0s,35674,Colbert,"1401 East 6th Street, Tuscumbia, AL 35674",34.73076,-87.68155
211155,ec361tta,36303,Houston County,"645 Twitchell Rd, Dothan, AL 36303, USA",31.2500881,-85.3999996
211145,ec3nrbcn,36303,Houston County,"645 Twitchell Rd, Dothan, AL 36303, USA",31.2500881,-85.3999996
"1/2"" Leveling A/B C/D",ec3u2wen,36303,Houston County,"645 Twitchell Rd, Dothan, AL 36303, USA",31.2500881,-85.3999996
"1"" Binder A/B C/D E",ec382enc,36303,Houston County,"645 Twitchell Rd, Dothan, AL 36303, USA",31.2500881,-85.3999996
"1"" Binder",ec38j6f2,35217,Jefferson County,"2201 Pinson Valley Pkwy, Birmingham, AL 35217, USA",33.5911562,-86.76290279999999
211135,ec3frdg5,36303,Houston County,"645 Twitchell Rd, Dothan, AL 36303, USA",31.2500881,-85.3999996
Spray-applied Fire-Resistive Materials (SFRMs) - Standard Density,ec3cxgnn,35210,Jefferson,"2601 Commerce Boulevard, Irondale, AL 35210",33.54442,-86.69506
Spray-applied Fire-Resistive Materials (SFRMs) - Medium Density,ec3p2yaj,35210,Jefferson,"2601 Commerce Boulevard, Irondale, AL 35210",33.54442,-86.69506
Spray-applied Fire-Resistive Materials (SFRMs) - High & Ultra High Density,ec3j9gqk,35210,Jefferson,"2601 Commerce Boulevard, Irondale, AL 35210",33.54442,-86.69506
ALLEY WRAP™ B,ec363ghy,,,,,
Light Structural Shapes (at Mill),ec3yswcq,35212,Jefferson,"101 50th Street South, Birmingham, AL 35212",33.53431,-86.75711
Merchant Bar,ec3yg1td,,,,,
4000048,ec35055w,35630,Lauderdale County,"3214 Roberson Rd, Florence, AL 35630, USA",34.8640178,-87.6686351
Steel Reinforcing Bar and Merchant Bar Products (Unfabricated),ec3d3z2w,35234,Jefferson,"F.L. Shuttlesworth Drive, Birmingham, AL 35234",33.54748,-86.80924
Steel Reinforcing Bar and Merchant Bar Products (Fabricated) v1,ec3dem42,35234,Jefferson,"F.L. Shuttlesworth Drive, Birmingham, AL 35234",33.54748,-86.80924
Mix 1526550,ec3k29jq,35749,Madison,"5679 Highway 53, Harvest, AL 35749",34.8403,-86.70974
Mix 1588851,ec3xpjca,35749,Madison,"5679 Highway 53, Harvest, AL 35749",34.8403,-86.70974
Mix 1588848,ec3db6qc,35749,Madison,"5679 Highway 53, Harvest, AL 35749",34.8403,-86.70974
Mix 1588850,ec34kmtg,35749,Madison,"5679 Highway 53, Harvest, AL 35749",34.8403,-86.70974
Mix 1588852,ec302f99,35749,Madison,"5679 Highway 53, Harvest, AL 35749",34.8403,-86.70974
Mix 1589805,ec3ba6pt,35749,Madison,"5679 Highway 53, Harvest, AL 35749",34.8403,-86.70974
Mix 1589806,ec3dxyht,35749,Madison,"5679 Highway 53, Harvest, AL 35749",34.8403,-86.70974
Mix 1590324,ec3neq65,35749,Madison,"5679 Highway 53, Harvest, AL 35749",34.8403,-86.70974
Mix 1590323,ec34cmd6,35749,Madison,"5679 Highway 53, Harvest, AL 35749",34.8403,-86.70974
Mix 1589804,ec3bz3p5,35749,Madison,"5679 Highway 53, Harvest, AL 35749",34.8403,-86.70974
Mix 1603417,ec3xd2pm,35749,Madison,"5679 Highway 53, Harvest, AL 35749",34.8403,-86.70974
Mix 1589047,ec3g1hxe,35749,Madison,"5679 Highway 53, Harvest, AL 35749",34.8403,-86.70974
Mix 1589046,ec3grtuh,35749,Madison,"5679 Highway 53, Harvest, AL 35749",34.8403,-86.70974
Mix 1591385,ec3jp1nb,35749,Madison,"5679 Highway 53, Harvest, AL 35749",34.8403,-86.70974
Mix 1605443,ec3s12ku,35749,Madison,"5679 Highway 53, Harvest, AL 35749",34.8403,-86.70974
1590022,ec3a23ag,35749,Madison,"5679 Highway 53, Harvest, AL 35749",34.8403,-86.70974
1526650,ec3bfjhn,35749,Madison,"5679 Highway 53, Harvest, AL 35749",34.8403,-86.70974
1589397,ec3x8aww,35749,Madison,"5679 Highway 53, Harvest, AL 35749",34.8403,-86.70974
1617328,ec3z3x11,35749,Madison,"5679 Highway 53, Harvest, AL 35749",34.8403,-86.70974
1562206,ec397khd,35749,Madison,"5679 Highway 53, Harvest, AL 35749",34.8403,-86.70974
1599337,ec3uhhgy,35749,Madison,"5679 Highway 53, Harvest, AL 35749",34.8403,-86.70974
USG Structural Panel Concrete Subfloor,ec340c6j,,,,,
Mix 4000306,ec3gnmeb,35749,Madison,"5679 Highway 53, Harvest, AL 35749",34.8403,-86.70974
Cross Laminated Timber,ec3hrx1j,,Houston County,"Dothan, AL, USA",31.2232313,-85.3904888
"USG Ceilings: Radar ClimaPlus High-Durability, Radar ClimaPlus High-CAC",ec3ppuaq,,,,,
#name_is_not_extracted,ec3uc81n,,,,,
Fabricated Concrete Reinforcing Bar and Merchant Bar,ec3dnp40,35234,Jefferson,"F.L. Shuttlesworth Drive, Birmingham, AL 35234",33.54748,-86.80924
Concrete Reinforcing Bar and Merchant Bar Mill Product,ec3u183a,35234,Jefferson,"F.L. Shuttlesworth Drive, Birmingham, AL 35234",33.54748,-86.80924
630627R20,ec3gahft,35094,Jefferson County,"8732 Parkway Dr, Leeds, AL 35094, USA",33.54463,-86.522565
4000049,ec3etygj,35630,Lauderdale County,"3214 Roberson Rd, Florence, AL 35630, USA",34.8640178,-87.6686351
Mix 4003591,ec3745be,36110,Montgomery County,"4435 Northern Blvd, Montgomery, AL 36110, USA",32.4221519,-86.2316988
EVOBRPRO3,ec3crery,,Jefferson County,"Birmingham, AL, USA",33.5185892,-86.8103567
EVOBRPRO3X,ec34ky6e,35094,Jefferson County,"8732 Parkway Dr, Leeds, AL 35094, USA",33.54463,-86.522565
EVOBRPRO4,ec340rc2,35094,Jefferson County,"8732 Parkway Dr, Leeds, AL 35094, USA",33.54463,-86.522565
4000050,ec3j76xk,35630,Lauderdale County,"3214 Roberson Rd, Florence, AL 35630, USA",34.8640178,-87.6686351
EVOBRPRO4,ec3e3myg,,Jefferson County,"Birmingham, AL, USA",33.5185892,-86.8103567
EVOBRPRO4X,ec31cg9y,35094,Jefferson County,"8732 Parkway Dr, Leeds, AL 35094, USA",33.54463,-86.522565
1181053,ec3eds6k,36535,Baldwin County,"21551 Doc McDuffie Rd, Foley, AL 36535, USA",30.390202,-87.656869
1519499,ec33mgww,36535,Baldwin County,"21551 Doc McDuffie Rd, Foley, AL 36535, USA",30.390202,-87.656869
M3250614,ec37eqmd,36582,Mobile County,"3151 Hamilton Blvd, Theodore, AL 36582, USA",30.54916059999999,-88.11330269999999
M4750614,ec3mnweg,36582,Mobile County,"3151 Hamilton Blvd, Theodore, AL 36582, USA",30.54916059999999,-88.11330269999999
M46B0014,ec34en48,36582,Mobile County,"3151 Hamilton Blvd, Theodore, AL 36582, USA",30.54916059999999,-88.11330269999999
M46B0014,ec30psb8,36582,Mobile County,"3151 Hamilton Blvd, Theodore, AL 36582, USA",30.54916059999999,-88.11330269999999
M5250614,ec3tapty,36582,Mobile County,"3151 Hamilton Blvd, Theodore, AL 36582, USA",30.54916059999999,-88.11330269999999
M4150014,ec3sp0az,36582,Mobile County,"3151 Hamilton Blvd, Theodore, AL 36582, USA",30.54916059999999,-88.11330269999999
M4670613,ec3nazs7,36582,Mobile County,"3151 Hamilton Blvd, Theodore, AL 36582, USA",30.54916059999999,-88.11330269999999
M5270613,ec3ykr3q,36582,Mobile County,"3151 Hamilton Blvd, Theodore, AL 36582, USA",30.54916059999999,-88.11330269999999
M3270613,ec3tcj4g,36582,Mobile County,"3151 Hamilton Blvd, Theodore, AL 36582, USA",30.54916059999999,-88.11330269999999
M47B0013,ec3r8zc9,36582,Mobile County,"3151 Hamilton Blvd, Theodore, AL 36582, USA",30.54916059999999,-88.11330269999999
M44B0613,ec309tgc,36582,Mobile County,"3151 Hamilton Blvd, Theodore, AL 36582, USA",30.54916059999999,-88.11330269999999
M4750614,ec3wdgg4,36582,Mobile County,"3151 Hamilton Blvd, Theodore, AL 36582, USA",30.54916059999999,-88.11330269999999
M4250614,ec39xw77,36582,Mobile County,"3151 Hamilton Blvd, Theodore, AL 36582, USA",30.54916059999999,-88.11330269999999
M4150014,ec38x2yw,36582,Mobile County,"3151 Hamilton Blvd, Theodore, AL 36582, USA",30.54916059999999,-88.11330269999999
M4270013,ec3mpp6u,36582,Mobile County,"3151 Hamilton Blvd, Theodore, AL 36582, USA",30.54916059999999,-88.11330269999999
M4270013,ec3ytm3e,36582,Mobile County,"3151 Hamilton Blvd, Theodore, AL 36582, USA",30.54916059999999,-88.11330269999999
4000051,ec3ebdde,35630,Lauderdale County,"3214 Roberson Rd, Florence, AL 35630, USA",34.8640178,-87.6686351
950733R20GBlend,ec3g470z,,Jefferson County,"Birmingham, AL, USA",33.5185892,-86.8103567
950733GBlend,ec3yw10n,,Jefferson County,"Birmingham, AL, USA",33.5185892,-86.8103567
950733R20OaksT&L,ec33ffm4,,Jefferson County,"Birmingham, AL, USA",33.5185892,-86.8103567
950733TL Staff,ec3e9bnr,,Jefferson County,"Birmingham, AL, USA",33.5185892,-86.8103567
950733R20Oaks,ec3g06c5,,Jefferson County,"Birmingham, AL, USA",33.5185892,-86.8103567
630733R20,ec36gj1m,,Jefferson County,"Birmingham, AL, USA",33.5185892,-86.8103567
950433R20Grav,ec38a95p,,Jefferson County,"Birmingham, AL, USA",33.5185892,-86.8103567
1557665,ec32hb0s,36535,Baldwin County,"21551 Doc McDuffie Rd, Foley, AL 36535, USA",30.390202,-87.656869
1526060,ec3q0gwf,35007,Shelby County,"2486 Simmsville Rd, Alabaster, AL 35007, USA",33.266777,-86.78945759999999
1526137,ec3axgwe,35007,Shelby County,"2486 Simmsville Rd, Alabaster, AL 35007, USA",33.266777,-86.78945759999999
1526226,ec3zw2ej,35007,Shelby County,"2486 Simmsville Rd, Alabaster, AL 35007, USA",33.266777,-86.78945759999999
1526185,ec32h59y,35007,Shelby County,"2486 Simmsville Rd, Alabaster, AL 35007, USA",33.266777,-86.78945759999999
1526520,ec3um1kj,35007,Shelby County,"2486 Simmsville Rd, Alabaster, AL 35007, USA",33.266777,-86.78945759999999
1526664,ec3grzfh,35007,Shelby County,"2486 Simmsville Rd, Alabaster, AL 35007, USA",33.266777,-86.78945759999999
1530965,ec3s0gj7,35007,Shelby County,"2486 Simmsville Rd, Alabaster, AL 35007, USA",33.266777,-86.78945759999999
1572528,ec3fpunn,35007,Shelby County,"2486 Simmsville Rd, Alabaster, AL 35007, USA",33.266777,-86.78945759999999
1615388,ec3e0x4s,35007,Shelby County,"2486 Simmsville Rd, Alabaster, AL 35007, USA",33.266777,-86.78945759999999
1620193,ec39yhhx,35007,Shelby County,"2486 Simmsville Rd, Alabaster, AL 35007, USA",33.266777,-86.78945759999999
1620900,ec3mpc3q,35007,Shelby County,"2486 Simmsville Rd, Alabaster, AL 35007, USA",33.266777,-86.78945759999999
1621528,ec39xxyk,35007,Shelby County,"2486 Simmsville Rd, Alabaster, AL 35007, USA",33.266777,-86.78945759999999
1622930,ec3tmf00,35007,Shelby County,"2486 Simmsville Rd, Alabaster, AL 35007, USA",33.266777,-86.78945759999999
1621789,ec3x0d2e,35007,Shelby County,"2486 Simmsville Rd, Alabaster, AL 35007, USA",33.266777,-86.78945759999999
1526060,ec371w74,35210,Jefferson County,"2653 Ruffner Rd, Birmingham, AL 35210, USA",33.5790464,-86.6676012
1526059,ec3bkga8,35210,Jefferson County,"2653 Ruffner Rd, Birmingham, AL 35210, USA",33.5790464,-86.6676012
1526137,ec3dnmp0,35210,Jefferson County,"2653 Ruffner Rd, Birmingham, AL 35210, USA",33.5790464,-86.6676012
1526226,ec3tc5mw,35210,Jefferson County,"2653 Ruffner Rd, Birmingham, AL 35210, USA",33.5790464,-86.6676012
1526203,ec3gsnsc,35210,Jefferson County,"2653 Ruffner Rd, Birmingham, AL 35210, USA",33.5790464,-86.6676012
1572528,ec3605e5,35210,Jefferson County,"2653 Ruffner Rd, Birmingham, AL 35210, USA",33.5790464,-86.6676012
1586987,ec36ah8u,35210,Jefferson County,"2653 Ruffner Rd, Birmingham, AL 35210, USA",33.5790464,-86.6676012
1615388,ec3rykj6,35210,Jefferson County,"2653 Ruffner Rd, Birmingham, AL 35210, USA",33.5790464,-86.6676012
1526142,ec355t26,35210,Jefferson County,"2653 Ruffner Rd, Birmingham, AL 35210, USA",33.5790464,-86.6676012
1526143,ec3jmcmc,35210,Jefferson County,"2653 Ruffner Rd, Birmingham, AL 35210, USA",33.5790464,-86.6676012
1621789,ec3rmadm,35210,Jefferson County,"2653 Ruffner Rd, Birmingham, AL 35210, USA",33.5790464,-86.6676012
1530965,ec3c1y21,35210,Jefferson County,"2653 Ruffner Rd, Birmingham, AL 35210, USA",33.5790464,-86.6676012
1560567,ec3rwexz,35210,Jefferson County,"2653 Ruffner Rd, Birmingham, AL 35210, USA",33.5790464,-86.6676012
1620330,ec3jjywz,35210,Jefferson County,"2653 Ruffner Rd, Birmingham, AL 35210, USA",33.5790464,-86.6676012
1622932,ec3w4b1z,35210,Jefferson County,"2653 Ruffner Rd, Birmingham, AL 35210, USA",33.5790464,-86.6676012
1526157,ec3w7xzu,35221,Jefferson County,"911 Wenonah Rd, Birmingham, AL 35221, USA",33.4330148,-86.9042697
1526142,ec3k07dx,35221,Jefferson County,"911 Wenonah Rd, Birmingham, AL 35221, USA",33.4330148,-86.9042697
1526140,ec3f9fq7,35221,Jefferson County,"911 Wenonah Rd, Birmingham, AL 35221, USA",33.4330148,-86.9042697
1526185,ec38uqt6,35221,Jefferson County,"911 Wenonah Rd, Birmingham, AL 35221, USA",33.4330148,-86.9042697
1526240,ec3mgu8c,35221,Jefferson County,"911 Wenonah Rd, Birmingham, AL 35221, USA",33.4330148,-86.9042697
1526520,ec38zxpy,35221,Jefferson County,"911 Wenonah Rd, Birmingham, AL 35221, USA",33.4330148,-86.9042697
1526226,ec3876e5,35221,Jefferson County,"911 Wenonah Rd, Birmingham, AL 35221, USA",33.4330148,-86.9042697
1526060,ec33y6d0,35221,Jefferson County,"911 Wenonah Rd, Birmingham, AL 35221, USA",33.4330148,-86.9042697
1560567,ec37u1c1,35221,Jefferson County,"911 Wenonah Rd, Birmingham, AL 35221, USA",33.4330148,-86.9042697
1586987,ec3gu3y4,35221,Jefferson County,"911 Wenonah Rd, Birmingham, AL 35221, USA",33.4330148,-86.9042697
1530965,ec3pgsqm,35221,Jefferson County,"911 Wenonah Rd, Birmingham, AL 35221, USA",33.4330148,-86.9042697
1620193,ec3b36f1,35221,Jefferson County,"911 Wenonah Rd, Birmingham, AL 35221, USA",33.4330148,-86.9042697
1572527,ec3xc3at,35221,Jefferson County,"911 Wenonah Rd, Birmingham, AL 35221, USA",33.4330148,-86.9042697
1620194,ec343j82,35221,Jefferson County,"911 Wenonah Rd, Birmingham, AL 35221, USA",33.4330148,-86.9042697
1622930,ec3x3nr8,35221,Jefferson County,"911 Wenonah Rd, Birmingham, AL 35221, USA",33.4330148,-86.9042697
1526157,ec3tmdxa,35207,Jefferson County,"4590 F L Shuttlesworth Dr, Birmingham, AL 35207, USA",33.5696959,-86.7893782
1526142,ec32193g,35207,Jefferson County,"4590 F L Shuttlesworth Dr, Birmingham, AL 35207, USA",33.5696959,-86.7893782
1526226,ec3j6842,35207,Jefferson County,"4590 F L Shuttlesworth Dr, Birmingham, AL 35207, USA",33.5696959,-86.7893782
1526140,ec3zdwrc,35207,Jefferson County,"4590 F L Shuttlesworth Dr, Birmingham, AL 35207, USA",33.5696959,-86.7893782
1526137,ec31w8ju,35207,Jefferson County,"4590 F L Shuttlesworth Dr, Birmingham, AL 35207, USA",33.5696959,-86.7893782
1526203,ec30zh4r,35207,Jefferson County,"4590 F L Shuttlesworth Dr, Birmingham, AL 35207, USA",33.5696959,-86.7893782
1560567,ec37qm8p,35207,Jefferson County,"4590 F L Shuttlesworth Dr, Birmingham, AL 35207, USA",33.5696959,-86.7893782
1526664,ec3kcy5k,35207,Jefferson County,"4590 F L Shuttlesworth Dr, Birmingham, AL 35207, USA",33.5696959,-86.7893782
1620193,ec3h7zag,35207,Jefferson County,"4590 F L Shuttlesworth Dr, Birmingham, AL 35207, USA",33.5696959,-86.7893782
1586987,ec34260s,35207,Jefferson County,"4590 F L Shuttlesworth Dr, Birmingham, AL 35207, USA",33.5696959,-86.7893782
1572528,ec301n6j,35207,Jefferson County,"4590 F L Shuttlesworth Dr, Birmingham, AL 35207, USA",33.5696959,-86.7893782
1621528,ec3sugb9,35207,Jefferson County,"4590 F L Shuttlesworth Dr, Birmingham, AL 35207, USA",33.5696959,-86.7893782
1620330,ec3g0xzy,35207,Jefferson County,"4590 F L Shuttlesworth Dr, Birmingham, AL 35207, USA",33.5696959,-86.7893782
1622930,ec3ubb5t,35207,Jefferson County,"4590 F L Shuttlesworth Dr, Birmingham, AL 35207, USA",33.5696959,-86.7893782
1615388,ec301mxj,35207,Jefferson County,"4590 F L Shuttlesworth Dr, Birmingham, AL 35207, USA",33.5696959,-86.7893782
1622932,ec3uw5f4,35207,Jefferson County,"4590 F L Shuttlesworth Dr, Birmingham, AL 35207, USA",33.5696959,-86.7893782
1526186,ec3a41c7,35007,Shelby County,"2486 Simmsville Rd, Alabaster, AL 35007, USA",33.266777,-86.78945759999999
1152539,ec3k9b83,36117,Montgomery County,"11400 Wares Ferry Rd, Montgomery, AL 36117, USA",32.3974956,-86.10835540000001
1526146,ec3jwusn,36117,Montgomery County,"11400 Wares Ferry Rd, Montgomery, AL 36117, USA",32.3974956,-86.10835540000001
1526520,ec3p8wq3,36117,Montgomery County,"11400 Wares Ferry Rd, Montgomery, AL 36117, USA",32.3974956,-86.10835540000001
1531830,ec34ufuy,36117,Montgomery County,"11400 Wares Ferry Rd, Montgomery, AL 36117, USA",32.3974956,-86.10835540000001
1528269,ec35f73u,36117,Montgomery County,"11400 Wares Ferry Rd, Montgomery, AL 36117, USA",32.3974956,-86.10835540000001
1531860,ec3yc32t,36117,Montgomery County,"11400 Wares Ferry Rd, Montgomery, AL 36117, USA",32.3974956,-86.10835540000001
1531863,ec3hyhnq,36117,Montgomery County,"11400 Wares Ferry Rd, Montgomery, AL 36117, USA",32.3974956,-86.10835540000001
1531864,ec3xnyth,36117,Montgomery County,"11400 Wares Ferry Rd, Montgomery, AL 36117, USA",32.3974956,-86.10835540000001
1531866,ec3h9qgt,36117,Montgomery County,"11400 Wares Ferry Rd, Montgomery, AL 36117, USA",32.3974956,-86.10835540000001
1531875,ec3y4n6g,36117,Montgomery County,"11400 Wares Ferry Rd, Montgomery, AL 36117, USA",32.3974956,-86.10835540000001
1531923,ec375rk9,36117,Montgomery County,"11400 Wares Ferry Rd, Montgomery, AL 36117, USA",32.3974956,-86.10835540000001
1620546,ec3hntud,36117,Montgomery County,"11400 Wares Ferry Rd, Montgomery, AL 36117, USA",32.3974956,-86.10835540000001
1531974,ec3pp9wg,36117,Montgomery County,"11400 Wares Ferry Rd, Montgomery, AL 36117, USA",32.3974956,-86.10835540000001
4000052,ec3p911q,35630,Lauderdale County,"3214 Roberson Rd, Florence, AL 35630, USA",34.8640178,-87.6686351
1531865,ec3s5pq6,36804,Lee County,"2101 Poplar St, Opelika, AL 36804, USA",32.6270395,-85.37598799999999
1531866,ec3yqw2n,36804,Lee County,"2101 Poplar St, Opelika, AL 36804, USA",32.6270395,-85.37598799999999
1531992,ec3pu5s6,36804,Lee County,"2101 Poplar St, Opelika, AL 36804, USA",32.6270395,-85.37598799999999
1532238,ec3yemm3,36804,Lee County,"2101 Poplar St, Opelika, AL 36804, USA",32.6270395,-85.37598799999999
1568007,ec3ybaga,36804,Lee County,"2101 Poplar St, Opelika, AL 36804, USA",32.6270395,-85.37598799999999
1596110,ec30rfsh,36804,Lee County,"2101 Poplar St, Opelika, AL 36804, USA",32.6270395,-85.37598799999999
1618782,ec37mc02,36804,Lee County,"2101 Poplar St, Opelika, AL 36804, USA",32.6270395,-85.37598799999999
1531876,ec3cwxt4,36804,Lee County,"2101 Poplar St, Opelika, AL 36804, USA",32.6270395,-85.37598799999999
1617565,ec3n7n2r,36804,Lee County,"2101 Poplar St, Opelika, AL 36804, USA",32.6270395,-85.37598799999999
1531974,ec3cf8cs,36804,Lee County,"2101 Poplar St, Opelika, AL 36804, USA",32.6270395,-85.37598799999999
1532021,ec3cqt7t,36804,Lee County,"2101 Poplar St, Opelika, AL 36804, USA",32.6270395,-85.37598799999999
1528269,ec3901z1,36804,Lee County,"2101 Poplar St, Opelika, AL 36804, USA",32.6270395,-85.37598799999999
1531875,ec3rw9qw,36804,Lee County,"2101 Poplar St, Opelika, AL 36804, USA",32.6270395,-85.37598799999999
1526062,ec3mgh4u,35401,Tuscaloosa County,"3150 15th St, Tuscaloosa, AL 35401, USA",33.2014752,-87.5760985
Hot-Rolled Sheet,ec30d2qj,,,,,
1526136,ec3wf7nw,35401,Tuscaloosa County,"3150 15th St, Tuscaloosa, AL 35401, USA",33.2014752,-87.5760985
1526142,ec31y7zm,35401,Tuscaloosa County,"3150 15th St, Tuscaloosa, AL 35401, USA",33.2014752,-87.5760985
1526188,ec3r1k5h,35401,Tuscaloosa County,"3150 15th St, Tuscaloosa, AL 35401, USA",33.2014752,-87.5760985
1527837,ec3szwjp,35401,Tuscaloosa County,"3150 15th St, Tuscaloosa, AL 35401, USA",33.2014752,-87.5760985
1528288,ec3f78j4,35802,Madison County,"2020 Vermont Rd SW, Huntsville, AL 35802, USA",34.672278,-86.5931972
1597255,ec3yrjnz,35401,Tuscaloosa County,"3150 15th St, Tuscaloosa, AL 35401, USA",33.2014752,-87.5760985
1620193,ec321pz9,35401,Tuscaloosa County,"3150 15th St, Tuscaloosa, AL 35401, USA",33.2014752,-87.5760985
1526060,ec3ux0w6,35401,Tuscaloosa County,"3150 15th St, Tuscaloosa, AL 35401, USA",33.2014752,-87.5760985
1620561,ec3cr9wt,35802,Madison County,"2020 Vermont Rd SW, Huntsville, AL 35802, USA",34.672278,-86.5931972
1621583,ec3m1ny2,35401,Tuscaloosa County,"3150 15th St, Tuscaloosa, AL 35401, USA",33.2014752,-87.5760985
1620330,ec3yb22x,35802,Madison County,"2020 Vermont Rd SW, Huntsville, AL 35802, USA",34.672278,-86.5931972
1620194,ec3x0hyc,35401,Tuscaloosa County,"3150 15th St, Tuscaloosa, AL 35401, USA",33.2014752,-87.5760985
1622930,ec3rk9pk,35401,Tuscaloosa County,"3150 15th St, Tuscaloosa, AL 35401, USA",33.2014752,-87.5760985
1526287,ec3fdup9,35756,Limestone County,"4547 Pryor Rd, Madison, AL 35756, USA",34.6189329,-86.8553996
1527816,ec3jhqk2,35756,Limestone County,"4547 Pryor Rd, Madison, AL 35756, USA",34.6189329,-86.8553996
1588855,ec361z2j,35756,Limestone County,"4547 Pryor Rd, Madison, AL 35756, USA",34.6189329,-86.8553996
1588890,ec3huw82,35756,Limestone County,"4547 Pryor Rd, Madison, AL 35756, USA",34.6189329,-86.8553996
1588854,ec3gakca,35756,Limestone County,"4547 Pryor Rd, Madison, AL 35756, USA",34.6189329,-86.8553996
1589047,ec3wzp41,35756,Limestone County,"4547 Pryor Rd, Madison, AL 35756, USA",34.6189329,-86.8553996
1589201,ec3qp0rm,35756,Limestone County,"4547 Pryor Rd, Madison, AL 35756, USA",34.6189329,-86.8553996
1589400,ec32tp2b,35756,Limestone County,"4547 Pryor Rd, Madison, AL 35756, USA",34.6189329,-86.8553996
1589805,ec3ze6nm,35756,Limestone County,"4547 Pryor Rd, Madison, AL 35756, USA",34.6189329,-86.8553996
1589215,ec31grmu,35756,Limestone County,"4547 Pryor Rd, Madison, AL 35756, USA",34.6189329,-86.8553996
1589213,ec3s9b1w,35756,Limestone County,"4547 Pryor Rd, Madison, AL 35756, USA",34.6189329,-86.8553996
1590202,ec3wtf7p,35756,Limestone County,"4547 Pryor Rd, Madison, AL 35756, USA",34.6189329,-86.8553996
1594678,ec3gge84,35756,Limestone County,"4547 Pryor Rd, Madison, AL 35756, USA",34.6189329,-86.8553996
1599629,ec3h7yzt,35756,Limestone County,"4547 Pryor Rd, Madison, AL 35756, USA",34.6189329,-86.8553996
1620176,ec3p2xxe,35756,Limestone County,"4547 Pryor Rd, Madison, AL 35756, USA",34.6189329,-86.8553996
1621699,ec3up613,35756,Limestone County,"4547 Pryor Rd, Madison, AL 35756, USA",34.6189329,-86.8553996
1527816,ec31ca4u,35749,Madison County,"5679 AL-53, Harvest, AL 35749, USA",34.8402605,-86.70974439999999
1540313,ec34d7f8,35749,Madison County,"5679 AL-53, Harvest, AL 35749, USA",34.8402605,-86.70974439999999
1558435,ec3u71cy,35749,Madison County,"5679 AL-53, Harvest, AL 35749, USA",34.8402605,-86.70974439999999
1568558,ec3bq1hb,35749,Madison County,"5679 AL-53, Harvest, AL 35749, USA",34.8402605,-86.70974439999999
1588852,ec3s9k9c,35749,Madison County,"5679 AL-53, Harvest, AL 35749, USA",34.8402605,-86.70974439999999
1588892,ec3txmzd,35749,Madison County,"5679 AL-53, Harvest, AL 35749, USA",34.8402605,-86.70974439999999
1589047,ec3gttcm,35749,Madison County,"5679 AL-53, Harvest, AL 35749, USA",34.8402605,-86.70974439999999
1589202,ec3e3ys5,35749,Madison County,"5679 AL-53, Harvest, AL 35749, USA",34.8402605,-86.70974439999999
1589046,ec344464,35749,Madison County,"5679 AL-53, Harvest, AL 35749, USA",34.8402605,-86.70974439999999
1589806,ec30xpt1,35749,Madison County,"5679 AL-53, Harvest, AL 35749, USA",34.8402605,-86.70974439999999
1589213,ec3ef8ft,35749,Madison County,"5679 AL-53, Harvest, AL 35749, USA",34.8402605,-86.70974439999999
1591385,ec3ktpyd,35749,Madison County,"5679 AL-53, Harvest, AL 35749, USA",34.8402605,-86.70974439999999
1595394,ec3jytpg,35749,Madison County,"5679 AL-53, Harvest, AL 35749, USA",34.8402605,-86.70974439999999
1594343,ec362ezn,35749,Madison County,"5679 AL-53, Harvest, AL 35749, USA",34.8402605,-86.70974439999999
1589396,ec3cqeyw,35749,Madison County,"5679 AL-53, Harvest, AL 35749, USA",34.8402605,-86.70974439999999
1598245,ec3jmpq8,35749,Madison County,"5679 AL-53, Harvest, AL 35749, USA",34.8402605,-86.70974439999999
1594678,ec3dnybc,35749,Madison County,"5679 AL-53, Harvest, AL 35749, USA",34.8402605,-86.70974439999999
1598941,ec3t118f,35749,Madison County,"5679 AL-53, Harvest, AL 35749, USA",34.8402605,-86.70974439999999
1588854,ec32kzkd,35749,Madison County,"5679 AL-53, Harvest, AL 35749, USA",34.8402605,-86.70974439999999
1616578,ec3n304e,35749,Madison County,"5679 AL-53, Harvest, AL 35749, USA",34.8402605,-86.70974439999999
1619781,ec3t1fp5,35749,Madison County,"5679 AL-53, Harvest, AL 35749, USA",34.8402605,-86.70974439999999
1589400,ec36fmjh,35749,Madison County,"5679 AL-53, Harvest, AL 35749, USA",34.8402605,-86.70974439999999
1531296,ec3gzw2h,35802,Madison County,"2020 Vermont Rd SW, Huntsville, AL 35802, USA",34.672278,-86.5931972
1594473,ec3728ca,35749,Madison County,"5679 AL-53, Harvest, AL 35749, USA",34.8402605,-86.70974439999999
1589046,ec39w8d0,35802,Madison County,"2020 Vermont Rd SW, Huntsville, AL 35802, USA",34.672278,-86.5931972
1588854,ec3fr8y5,35802,Madison County,"2020 Vermont Rd SW, Huntsville, AL 35802, USA",34.672278,-86.5931972
1558435,ec3gsd0n,35802,Madison County,"2020 Vermont Rd SW, Huntsville, AL 35802, USA",34.672278,-86.5931972
1589396,ec3xn6jk,35802,Madison County,"2020 Vermont Rd SW, Huntsville, AL 35802, USA",34.672278,-86.5931972
1589213,ec39sxna,35802,Madison County,"2020 Vermont Rd SW, Huntsville, AL 35802, USA",34.672278,-86.5931972
1589397,ec3nucrg,35802,Madison County,"2020 Vermont Rd SW, Huntsville, AL 35802, USA",34.672278,-86.5931972
1589805,ec3axynh,35802,Madison County,"2020 Vermont Rd SW, Huntsville, AL 35802, USA",34.672278,-86.5931972
1591385,ec31aumk,35802,Madison County,"2020 Vermont Rd SW, Huntsville, AL 35802, USA",34.672278,-86.5931972
1589806,ec34jna9,35802,Madison County,"2020 Vermont Rd SW, Huntsville, AL 35802, USA",34.672278,-86.5931972
1594678,ec35pmkm,35802,Madison County,"2020 Vermont Rd SW, Huntsville, AL 35802, USA",34.672278,-86.5931972
1590323,ec3m6f3x,35802,Madison County,"2020 Vermont Rd SW, Huntsville, AL 35802, USA",34.672278,-86.5931972
1618896,ec3rxp1e,35802,Madison County,"2020 Vermont Rd SW, Huntsville, AL 35802, USA",34.672278,-86.5931972
1616578,ec3wggas,35802,Madison County,"2020 Vermont Rd SW, Huntsville, AL 35802, USA",34.672278,-86.5931972
1595394,ec3kmg05,35802,Madison County,"2020 Vermont Rd SW, Huntsville, AL 35802, USA",34.672278,-86.5931972
1589805,ec3a8cr3,35749,Madison County,"5679 AL-53, Harvest, AL 35749, USA",34.8402605,-86.70974439999999
"424 1/2"" Surface PG76-22 GH-0213-23 W- Anova 1815",ec3cwx7h,36303,Houston County,"645 Twitchell Rd, Dothan, AL 36303, USA",31.2500881,-85.3999996
"424 1/2"" Surface PG76-22 GH-0210-23 W- Evotherm",ec31q9uj,36303,Houston County,"645 Twitchell Rd, Dothan, AL 36303, USA",31.2500881,-85.3999996
4000054,ec3rp6ud,35630,Lauderdale County,"3214 Roberson Rd, Florence, AL 35630, USA",34.8640178,-87.6686351
1584962,ec3uzsxz,36535,Baldwin County,"21551 Doc McDuffie Rd, Foley, AL 36535, USA",30.390202,-87.656869
1584470,ec3sz9ac,36535,Baldwin County,"21551 Doc McDuffie Rd, Foley, AL 36535, USA",30.390202,-87.656869
4000056,ec34xk26,35630,Lauderdale County,"3214 Roberson Rd, Florence, AL 35630, USA",34.8640178,-87.6686351
1608684,ec3ccy06,36535,Baldwin County,"21551 Doc McDuffie Rd, Foley, AL 36535, USA",30.390202,-87.656869
4000061,ec3cm38n,35630,Lauderdale County,"3214 Roberson Rd, Florence, AL 35630, USA",34.8640178,-87.6686351
4000062,ec3w6qxx,35630,Lauderdale County,"3214 Roberson Rd, Florence, AL 35630, USA",34.8640178,-87.6686351
402601,ec3jdfxj,35210,Jefferson County,"2590 Alton Rd, Irondale, AL 35210, USA",33.5772111,-86.6426187
4000065,ec37czc4,35630,Lauderdale County,"3214 Roberson Rd, Florence, AL 35630, USA",34.8640178,-87.6686351
305601,ec3rd8td,35210,Jefferson County,"2590 Alton Rd, Irondale, AL 35210, USA",33.5772111,-86.6426187
303641HR,ec3ckhm5,35221,Jefferson County,"911 Wenonah Rd SW, Birmingham, AL 35221, USA",33.433904,-86.898479
30C601HR,ec36g8cz,35221,Jefferson County,"911 Wenonah Rd SW, Birmingham, AL 35221, USA",33.433904,-86.898479
359201HR,ec3z0w8n,35221,Jefferson County,"911 Wenonah Rd SW, Birmingham, AL 35221, USA",33.433904,-86.898479
454641HR,ec3q86u9,35221,Jefferson County,"911 Wenonah Rd SW, Birmingham, AL 35221, USA",33.433904,-86.898479
502601HR,ec3zfemx,35221,Jefferson County,"911 Wenonah Rd SW, Birmingham, AL 35221, USA",33.433904,-86.898479
502600HE,ec30ywrk,35221,Jefferson County,"911 Wenonah Rd SW, Birmingham, AL 35221, USA",33.433904,-86.898479
Fabricated steel roof and floor deck,ec3g1b0r,,Dekalb County,"Fort Payne, AL, USA",34.4442547,-85.7196893
Steel Concrete Reinforcing Bar and Merchant Bar Products (average),ec34dq8h,,,,,
Johns Manville Mineral Wool Insulation Light Density Board Product,ec372uwh,,Russell County,"Phenix City, AL, USA",32.4709761,-85.0007653
Johns Manville Mineral Wool Insulation Heavy Density Board Product,ec342dmf,,Russell County,"Phenix City, AL, USA",32.4709761,-85.0007653
4000067,ec3hhrca,35630,Lauderdale County,"3214 Roberson Rd, Florence, AL 35630, USA",34.8640178,-87.6686351
4000070,ec34unh1,35630,Lauderdale County,"3214 Roberson Rd, Florence, AL 35630, USA",34.8640178,-87.6686351
4000072,ec3yjbtn,35630,Lauderdale County,"3214 Roberson Rd, Florence, AL 35630, USA",34.8640178,-87.6686351
4000074,ec396sg5,35630,Lauderdale County,"3214 Roberson Rd, Florence, AL 35630, USA",34.8640178,-87.6686351
4000077,ec33teb3,35630,Lauderdale County,"3214 Roberson Rd, Florence, AL 35630, USA",34.8640178,-87.6686351
"Fabricated Hollow Structural Sections (HSS) - Birmingham, AL - Average Steel Supply Mix",ec3tcxy6,35217,Jefferson County,"171 Cleage Dr, Birmingham, AL 35217, USA",33.6280724,-86.73928
Fabricated Concrete Reinforcing Bar and Merchant Bar,ec3mfbpd,,,,,
370433R20Oaks,ec3uh65p,,Jefferson County,"Birmingham, AL, USA",33.5185892,-86.8103567
370433R30Oaks,ec3zafrj,,Jefferson County,"Birmingham, AL, USA",33.5185892,-86.8103567
370433R20,ec3xp1fk,,Jefferson County,"Birmingham, AL, USA",33.5185892,-86.8103567
191527,ec3tr7ne,35094,Jefferson County,"8732 Parkway Dr, Leeds, AL 35094, USA",33.54463,-86.522565
370433Oaks,ec3jnrx8,,Jefferson County,"Birmingham, AL, USA",33.5185892,-86.8103567
1620176,ec33k246,35749,Madison,"5679 Highway 53, Harvest, AL 35749",34.8403,-86.70974
4000080,ec3n2njx,35630,Lauderdale County,"3214 Roberson Rd, Florence, AL 35630, USA",34.8640178,-87.6686351
4000081,ec353mjg,35630,Lauderdale County,"3214 Roberson Rd, Florence, AL 35630, USA",34.8640178,-87.6686351
1152539,ec30t20d,36081,Pike County,"212 Montgomery St, Troy, AL 36081, USA",31.8064464,-85.9922422
1526062,ec3xbfsg,36081,Pike County,"212 Montgomery St, Troy, AL 36081, USA",31.8064464,-85.9922422
1526146,ec3ttt5w,36081,Pike County,"212 Montgomery St, Troy, AL 36081, USA",31.8064464,-85.9922422
1526291,ec3ttqyh,36081,Pike County,"212 Montgomery St, Troy, AL 36081, USA",31.8064464,-85.9922422
1526531,ec3k5jj3,36081,Pike County,"212 Montgomery St, Troy, AL 36081, USA",31.8064464,-85.9922422
1527837,ec35txz2,36081,Pike County,"212 Montgomery St, Troy, AL 36081, USA",31.8064464,-85.9922422
1526661,ec3b4da8,36081,Pike County,"212 Montgomery St, Troy, AL 36081, USA",31.8064464,-85.9922422
1528269,ec37cafk,36081,Pike County,"212 Montgomery St, Troy, AL 36081, USA",31.8064464,-85.9922422
1528270,ec3wfya3,36081,Pike County,"212 Montgomery St, Troy, AL 36081, USA",31.8064464,-85.9922422
1528743,ec3jh8rf,36081,Pike County,"212 Montgomery St, Troy, AL 36081, USA",31.8064464,-85.9922422
1528815,ec36j0s9,36081,Pike County,"212 Montgomery St, Troy, AL 36081, USA",31.8064464,-85.9922422
1531490,ec39bg9a,36081,Pike County,"212 Montgomery St, Troy, AL 36081, USA",31.8064464,-85.9922422
1531492,ec3a756m,36081,Pike County,"212 Montgomery St, Troy, AL 36081, USA",31.8064464,-85.9922422
Mix 1588852,ec3fj3f1,35749,Madison,"5679 Highway 53, Harvest, AL 35749",34.8403,-86.70974
5/8 in. (15.9 mm) Sheetrock® Brand Mold Tough® Panels Firecode® X,ec3dgphj,,,,,
Mix 5000664,ec34seun,35210,Jefferson County,"2653 Ruffner Rd, Birmingham, AL 35210, USA",33.5790464,-86.6676012
1531496,ec3dhjah,36081,Pike County,"212 Montgomery St, Troy, AL 36081, USA",31.8064464,-85.9922422
Steel Plate (Mill product),ec3re9ms,35404,Tuscaloosa,"1700 Holt Road Northeast, Tuscaloosa, AL 35404",33.23752,-87.50597
Fabricated Steel Plate,ec3csg9f,35404,Tuscaloosa,"1700 Holt Road Northeast, Tuscaloosa, AL 35404",33.23752,-87.50597
Mix 1562206,ec3cms13,35749,Madison,"5679 Highway 53, Harvest, AL 35749",34.8403,-86.70974
Mix 1590022,ec3rnzxt,35749,Madison,"5679 Highway 53, Harvest, AL 35749",34.8403,-86.70974
Mix 1589397,ec3k3e4r,35749,Madison,"5679 Highway 53, Harvest, AL 35749",34.8403,-86.70974
Mix 1526550,ec3e9kqx,35749,Madison,"5679 Highway 53, Harvest, AL 35749",34.8403,-86.70974
Mix 1617328,ec3x1tzf,35749,Madison,"5679 Highway 53, Harvest, AL 35749",34.8403,-86.70974
Mix 1599337,ec3nuyyu,35749,Madison,"5679 Highway 53, Harvest, AL 35749",34.8403,-86.70974
Mix 1605443,ec35830p,35749,Madison,"5679 Highway 53, Harvest, AL 35749",34.8403,-86.70974
Mix 1590323,ec3fspk1,35749,Madison,"5679 Highway 53, Harvest, AL 35749",34.8403,-86.70974
Mix 1589804,ec3znaca,35749,Madison,"5679 Highway 53, Harvest, AL 35749",34.8403,-86.70974
Mix 1589046,ec3puawx,35749,Madison,"5679 Highway 53, Harvest, AL 35749",34.8403,-86.70974
Mix 1591385,ec3qmx4c,35749,Madison,"5679 Highway 53, Harvest, AL 35749",34.8403,-86.70974
Mix 1603417,ec39ta1g,35749,Madison,"5679 Highway 53, Harvest, AL 35749",34.8403,-86.70974
Mix 1526650,ec3jxexh,35749,Madison,"5679 Highway 53, Harvest, AL 35749",34.8403,-86.70974
Mix 1589047,ec3ghz84,35749,Madison,"5679 Highway 53, Harvest, AL 35749",34.8403,-86.70974
Mix 1588848,ec31cyzz,35749,Madison,"5679 Highway 53, Harvest, AL 35749",34.8403,-86.70974
Mix 1588852,ec3k696z,35749,Madison,"5679 Highway 53, Harvest, AL 35749",34.8403,-86.70974
Mix 1588851,ec3meswy,35749,Madison,"5679 Highway 53, Harvest, AL 35749",34.8403,-86.70974
Mix 1588850,ec31af9p,35749,Madison,"5679 Highway 53, Harvest, AL 35749",34.8403,-86.70974
Mix 1590324,ec35asdg,35749,Madison,"5679 Highway 53, Harvest, AL 35749",34.8403,-86.70974
Mix 1589806,ec3sj50a,35749,Madison,"5679 Highway 53, Harvest, AL 35749",34.8403,-86.70974
Mix 1589805,ec3s9zns,35749,Madison,"5679 Highway 53, Harvest, AL 35749",34.8403,-86.70974
Quarry Tile - Fayette AL,ec3h5u2b,35555,Fayette County,"1470 County Rd 21 S, Fayette, AL 35555, USA",33.6982972,-87.87492139999999
5000659,ec34rxcp,35210,Jefferson County,"2653 Ruffner Rd, Birmingham, AL 35210, USA",33.5790464,-86.6676012
5000161,ec3t8hg0,35802,Madison County,"2020 Vermont Rd SW, Huntsville, AL 35802, USA",34.672278,-86.5931972
5000602,ec3zb87t,35210,Jefferson County,"2653 Ruffner Rd, Birmingham, AL 35210, USA",33.5790464,-86.6676012
5001425,ec368u56,35802,Madison County,"2020 Vermont Rd SW, Huntsville, AL 35802, USA",34.672278,-86.5931972
5000213,ec3n4dj4,36830,Lee County,"140 Lewis Ln, Auburn, AL 36830, USA",32.5397015,-85.5328406
5000042,ec3fruu5,36830,Lee County,"140 Lewis Ln, Auburn, AL 36830, USA",32.5397015,-85.5328406
5000883,ec3db1ed,36830,Lee County,"140 Lewis Ln, Auburn, AL 36830, USA",32.5397015,-85.5328406
5000848,ec3t6ntg,36830,Lee County,"140 Lewis Ln, Auburn, AL 36830, USA",32.5397015,-85.5328406
5001490,ec33bzdd,36830,Lee County,"140 Lewis Ln, Auburn, AL 36830, USA",32.5397015,-85.5328406
5001573,ec3m136j,36830,Lee County,"140 Lewis Ln, Auburn, AL 36830, USA",32.5397015,-85.5328406
5003360,ec334gah,36830,Lee County,"140 Lewis Ln, Auburn, AL 36830, USA",32.5397015,-85.5328406
5000620,ec3sa21z,36830,Lee County,"140 Lewis Ln, Auburn, AL 36830, USA",32.5397015,-85.5328406
5000849,ec3ezytu,36830,Lee County,"140 Lewis Ln, Auburn, AL 36830, USA",32.5397015,-85.5328406
Fabricated Steel Hollow Structural Sections,ec3pdhmu,35222,Jefferson County,"3525 Richard Arrington Jr Blvd N, Birmingham, AL 35222, USA",33.5351408,-86.7890384
Fabricated Steel Hollow Structural Sections,ec3ebamy,35673,Morgan,"Iverson Boulevard, Trinity, AL 35673",34.63177,-87.09501
Fabricated Steel Hollow Structural Sections,ec3mw25d,35673,Lawrence County,"2000 Cooperage Way, Trinity, AL 35673, USA",34.6167478,-87.1167001
Unfabricated Steel Hollow Structural Sections,ec3y0jpq,35222,Jefferson County,"3525 Richard Arrington Jr Blvd N, Birmingham, AL 35222, USA",33.5351408,-86.7890384
Unfabricated Steel Hollow Structural Sections,ec3guhzu,35673,Morgan,"Iverson Boulevard, Trinity, AL 35673",34.63177,-87.09501
1531497,ec33szy4,36081,Pike County,"212 Montgomery St, Troy, AL 36081, USA",31.8064464,-85.9922422
1560549,ec3qz6j2,36081,Pike County,"212 Montgomery St, Troy, AL 36081, USA",31.8064464,-85.9922422
1560884,ec3ew5dn,36081,Pike County,"212 Montgomery St, Troy, AL 36081, USA",31.8064464,-85.9922422
1572059,ec3km3c6,36081,Pike County,"212 Montgomery St, Troy, AL 36081, USA",31.8064464,-85.9922422
1572693,ec3smc50,36081,Pike County,"212 Montgomery St, Troy, AL 36081, USA",31.8064464,-85.9922422
1572723,ec38kaa1,36081,Pike County,"212 Montgomery St, Troy, AL 36081, USA",31.8064464,-85.9922422
1572724,ec3j9pwt,36081,Pike County,"212 Montgomery St, Troy, AL 36081, USA",31.8064464,-85.9922422
1575011,ec39jpfg,36081,Pike County,"212 Montgomery St, Troy, AL 36081, USA",31.8064464,-85.9922422
1583033,ec33s8u1,36081,Pike County,"212 Montgomery St, Troy, AL 36081, USA",31.8064464,-85.9922422
1616230,ec37ppxb,36081,Pike County,"212 Montgomery St, Troy, AL 36081, USA",31.8064464,-85.9922422
1616610,ec343b1w,36081,Pike County,"212 Montgomery St, Troy, AL 36081, USA",31.8064464,-85.9922422
Steel Concrete Reinforcing Bar and Merchant Bar Products-Birmingham (AL) Fabricated,ec3wstbx,35234,Jefferson,"F.L. Shuttlesworth Drive, Birmingham, AL 35234",33.54748,-86.80924
Mix 1526284,ec3tmn1g,36303,Houston County,"269 Twitchell Rd, Dothan, AL 36303, USA",31.2446095,-85.3982731
Mix 1527907,ec3ucdqr,36303,Houston County,"269 Twitchell Rd, Dothan, AL 36303, USA",31.2446095,-85.3982731
Mix 1528274,ec33hf9q,36303,Houston County,"269 Twitchell Rd, Dothan, AL 36303, USA",31.2446095,-85.3982731
Mix 5000576,ec352s63,35210,Jefferson County,"2653 Ruffner Rd, Birmingham, AL 35210, USA",33.5790464,-86.6676012
Mix 5000544,ec301jce,35210,Jefferson County,"2653 Ruffner Rd, Birmingham, AL 35210, USA",33.5790464,-86.6676012
Mix 5000896,ec3stn76,36117,Montgomery County,"11400 Wares Ferry Rd, Montgomery, AL 36117, USA",32.3974956,-86.10835540000001
Mix 5000879,ec3c37zw,36117,Montgomery County,"11400 Wares Ferry Rd, Montgomery, AL 36117, USA",32.3974956,-86.10835540000001
Mix 5000866,ec3ppw7q,36117,Montgomery County,"11400 Wares Ferry Rd, Montgomery, AL 36117, USA",32.3974956,-86.10835540000001
Mix 5000891,ec3wh72f,36117,Montgomery County,"11400 Wares Ferry Rd, Montgomery, AL 36117, USA",32.3974956,-86.10835540000001
Mix 5000945,ec3f6f2p,36117,Montgomery County,"11400 Wares Ferry Rd, Montgomery, AL 36117, USA",32.3974956,-86.10835540000001
Mix 5000898,ec33jt41,36117,Montgomery County,"11400 Wares Ferry Rd, Montgomery, AL 36117, USA",32.3974956,-86.10835540000001
Mix 5000971,ec3d2yjj,36117,Montgomery County,"11400 Wares Ferry Rd, Montgomery, AL 36117, USA",32.3974956,-86.10835540000001
Mix 5000936,ec3xaetn,36117,Montgomery County,"11400 Wares Ferry Rd, Montgomery, AL 36117, USA",32.3974956,-86.10835540000001
Mix 5000137,ec3jukhe,36117,Montgomery County,"11400 Wares Ferry Rd, Montgomery, AL 36117, USA",32.3974956,-86.10835540000001
Mix 5000903,ec3jf98t,36117,Montgomery County,"11400 Wares Ferry Rd, Montgomery, AL 36117, USA",32.3974956,-86.10835540000001
Mix 5000241,ec33dcsc,35674,Colbert County,"1176 US-72, Tuscumbia, AL 35674, USA",34.7116639,-87.7152701
4000083,ec3g9jya,35630,Lauderdale County,"3214 Roberson Rd, Florence, AL 35630, USA",34.8640178,-87.6686351
#67,ec31tp1r,35749,Madison,"5679 Highway 53, Harvest, AL 35749",34.8403,-86.70974
#67,ec365kx2,35749,Madison,"5679 Highway 53, Harvest, AL 35749",34.8403,-86.70974
#67,ec3aqa3f,35749,Madison,"5679 Highway 53, Harvest, AL 35749",34.8403,-86.70974
#67,ec37nprd,35749,Madison,"5679 Highway 53, Harvest, AL 35749",34.8403,-86.70974
#67,ec38zdtx,35749,Madison,"5679 Highway 53, Harvest, AL 35749",34.8403,-86.70974
#78,ec3pjafb,35749,Madison,"5679 Highway 53, Harvest, AL 35749",34.8403,-86.70974
#67,ec3b7nr8,35749,Madison,"5679 Highway 53, Harvest, AL 35749",34.8403,-86.70974
1590022,ec3a9z6k,35749,Madison,"5679 Highway 53, Harvest, AL 35749",34.8403,-86.70974
Quarry Tile - Fayette AL,ec3crkkq,35555,Fayette County,"Fayette, AL 35555, USA",33.6845539,-87.8308522
1526522,ec353ket,36330,Coffee County,"Dale County 1, Enterprise, AL 36330, USA",31.2056681,-85.7914653
4000084,ec3283yk,35630,Lauderdale County,"3214 Roberson Rd, Florence, AL 35630, USA",34.8640178,-87.6686351
4000085,ec3de8zy,35630,Lauderdale County,"3214 Roberson Rd, Florence, AL 35630, USA",34.8640178,-87.6686351
4000086,ec3weucr,35630,Lauderdale County,"3214 Roberson Rd, Florence, AL 35630, USA",34.8640178,-87.6686351
4000088,ec3rw1zr,35630,Lauderdale County,"3214 Roberson Rd, Florence, AL 35630, USA",34.8640178,-87.6686351
370433R30,ec3x4ptu,,Jefferson County,"Birmingham, AL, USA",33.5185892,-86.8103567
FSK-faced ALLEY WRAP™ B,ec3zm2xx,,Chambers,"Lanett, AL",32.8595,-85.19071
FSK-faced Performance+™ Duct Wrap,ec3npd42,36863,Chambers County,"Lanett, AL 36863, USA",32.86873910000001,-85.1904971
4000090,ec3x8791,35630,Lauderdale County,"3214 Roberson Rd, Florence, AL 35630, USA",34.8640178,-87.6686351
Mix 5003393,ec3g91r2,36830,Lee County,"140 Lewis Ln, Auburn, AL 36830, USA",32.5397015,-85.5328406
Mix 5003377,ec3p6gme,36830,Lee County,"140 Lewis Ln, Auburn, AL 36830, USA",32.5397015,-85.5328406
Mix 5003401,ec3xtntc,36830,Lee County,"140 Lewis Ln, Auburn, AL 36830, USA",32.5397015,-85.5328406
4000091,ec3u2mpm,35630,Lauderdale County,"3214 Roberson Rd, Florence, AL 35630, USA",34.8640178,-87.6686351
4000099,ec3q9d3e,35630,Lauderdale County,"3214 Roberson Rd, Florence, AL 35630, USA",34.8640178,-87.6686351
5/8 in. (15.9 mm) Sheetrock® Brand EcoSmart Panels Firecode® X,ec35x08r,,,,,
1530979,ec3rmtq7,36732,Marengo County,"302 Maria Ave, Demopolis, AL 36732, USA",32.5130692,-87.8556646
4000109,ec30n6ex,35630,Lauderdale County,"3214 Roberson Rd, Florence, AL 35630, USA",34.8640178,-87.6686351
1528464,ec3cd2ha,36526,Baldwin County,"25640 Co Rd 13, Daphne, AL 36526, USA",30.5987899,-87.8684399
4000123,ec3xrtpa,35630,Lauderdale County,"3214 Roberson Rd, Florence, AL 35630, USA",34.8640178,-87.6686351
4000132,ec3fhxtb,35630,Lauderdale County,"3214 Roberson Rd, Florence, AL 35630, USA",34.8640178,-87.6686351
4000140,ec30dft1,35630,Lauderdale County,"3214 Roberson Rd, Florence, AL 35630, USA",34.8640178,-87.6686351
4000141,ec3b9fhq,35630,Lauderdale County,"3214 Roberson Rd, Florence, AL 35630, USA",34.8640178,-87.6686351
4000148,ec3g5bm5,35630,Lauderdale County,"3214 Roberson Rd, Florence, AL 35630, USA",34.8640178,-87.6686351
4000149,ec3hjps6,35630,Lauderdale County,"3214 Roberson Rd, Florence, AL 35630, USA",34.8640178,-87.6686351
4000155,ec3ybydj,35630,Lauderdale County,"3214 Roberson Rd, Florence, AL 35630, USA",34.8640178,-87.6686351
4000156,ec3xfwg4,35630,Lauderdale County,"3214 Roberson Rd, Florence, AL 35630, USA",34.8640178,-87.6686351
4000167,ec3y705u,35630,Lauderdale County,"3214 Roberson Rd, Florence, AL 35630, USA",34.8640178,-87.6686351
4000168,ec31ecd9,35630,Lauderdale County,"3214 Roberson Rd, Florence, AL 35630, USA",34.8640178,-87.6686351
4000176,ec37bpa7,35630,Lauderdale County,"3214 Roberson Rd, Florence, AL 35630, USA",34.8640178,-87.6686351
4000178,ec3psrhy,35630,Lauderdale County,"3214 Roberson Rd, Florence, AL 35630, USA",34.8640178,-87.6686351
4000181,ec3zwngw,35630,Lauderdale County,"3214 Roberson Rd, Florence, AL 35630, USA",34.8640178,-87.6686351
1152536,ec3fjs9k,36117,Montgomery County,"11400 Wares Ferry Rd, Montgomery, AL 36117, USA",32.3974956,-86.10835540000001
1152539,ec3hr09a,36117,Montgomery County,"11400 Wares Ferry Rd, Montgomery, AL 36117, USA",32.3974956,-86.10835540000001
1526499,ec3sx1an,36117,Montgomery County,"11400 Wares Ferry Rd, Montgomery, AL 36117, USA",32.3974956,-86.10835540000001
1526500,ec3p7f8m,36117,Montgomery County,"11400 Wares Ferry Rd, Montgomery, AL 36117, USA",32.3974956,-86.10835540000001
1526520,ec384p55,36117,Montgomery County,"11400 Wares Ferry Rd, Montgomery, AL 36117, USA",32.3974956,-86.10835540000001
1526522,ec31bbd1,36117,Montgomery County,"11400 Wares Ferry Rd, Montgomery, AL 36117, USA",32.3974956,-86.10835540000001
1526665,ec3pb8q3,36117,Montgomery County,"11400 Wares Ferry Rd, Montgomery, AL 36117, USA",32.3974956,-86.10835540000001
1528269,ec3bkgzf,36117,Montgomery County,"11400 Wares Ferry Rd, Montgomery, AL 36117, USA",32.3974956,-86.10835540000001
1531497,ec3bkzxx,36117,Montgomery County,"11400 Wares Ferry Rd, Montgomery, AL 36117, USA",32.3974956,-86.10835540000001
1531823,ec3ksfyh,36117,Montgomery County,"11400 Wares Ferry Rd, Montgomery, AL 36117, USA",32.3974956,-86.10835540000001
1531863,ec3uaw8k,36117,Montgomery County,"11400 Wares Ferry Rd, Montgomery, AL 36117, USA",32.3974956,-86.10835540000001
4000041,ec3tjc7j,35630,Lauderdale County,"3214 Roberson Rd, Florence, AL 35630, USA",34.8640178,-87.6686351
1531864,ec3wgg7t,36117,Montgomery County,"11400 Wares Ferry Rd, Montgomery, AL 36117, USA",32.3974956,-86.10835540000001
1531865,ec3e7bt0,36117,Montgomery County,"11400 Wares Ferry Rd, Montgomery, AL 36117, USA",32.3974956,-86.10835540000001
1531866,ec3uthg6,36117,Montgomery County,"11400 Wares Ferry Rd, Montgomery, AL 36117, USA",32.3974956,-86.10835540000001
1531870,ec3fry7u,36117,Montgomery County,"11400 Wares Ferry Rd, Montgomery, AL 36117, USA",32.3974956,-86.10835540000001
1531872,ec3smuys,36117,Montgomery County,"11400 Wares Ferry Rd, Montgomery, AL 36117, USA",32.3974956,-86.10835540000001
1531873,ec3gd1c2,36117,Montgomery County,"11400 Wares Ferry Rd, Montgomery, AL 36117, USA",32.3974956,-86.10835540000001
1531875,ec383dy8,36117,Montgomery County,"11400 Wares Ferry Rd, Montgomery, AL 36117, USA",32.3974956,-86.10835540000001
1531876,ec3pz2cf,36117,Montgomery County,"11400 Wares Ferry Rd, Montgomery, AL 36117, USA",32.3974956,-86.10835540000001
1531899,ec3d7hd1,36117,Montgomery County,"11400 Wares Ferry Rd, Montgomery, AL 36117, USA",32.3974956,-86.10835540000001
1528269,ec31tymq,36330,Coffee County,"Dale County 1, Enterprise, AL 36330, USA",31.2056681,-85.7914653
1528270,ec38a2z2,36330,Coffee County,"Dale County 1, Enterprise, AL 36330, USA",31.2056681,-85.7914653
1526142,ec33zr9k,35207,Jefferson County,"4590 F L Shuttlesworth Dr, Birmingham, AL 35207, USA",33.5696959,-86.7893782
1526159,ec35yp8h,35207,Jefferson County,"4590 F L Shuttlesworth Dr, Birmingham, AL 35207, USA",33.5696959,-86.7893782
1531904,ec3jtanp,36117,Montgomery County,"11400 Wares Ferry Rd, Montgomery, AL 36117, USA",32.3974956,-86.10835540000001
1531905,ec3kdk0a,36117,Montgomery County,"11400 Wares Ferry Rd, Montgomery, AL 36117, USA",32.3974956,-86.10835540000001
1531871,ec357n6p,36117,Montgomery County,"11400 Wares Ferry Rd, Montgomery, AL 36117, USA",32.3974956,-86.10835540000001
1531914,ec3fdy00,36117,Montgomery County,"11400 Wares Ferry Rd, Montgomery, AL 36117, USA",32.3974956,-86.10835540000001
1526238,ec3u60y9,35207,Jefferson County,"4590 F L Shuttlesworth Dr, Birmingham, AL 35207, USA",33.5696959,-86.7893782
1615388,ec3jfa1c,35207,Jefferson County,"4590 F L Shuttlesworth Dr, Birmingham, AL 35207, USA",33.5696959,-86.7893782
1531916,ec3x4z60,36117,Montgomery County,"11400 Wares Ferry Rd, Montgomery, AL 36117, USA",32.3974956,-86.10835540000001
1531901,ec3c4qeq,36117,Montgomery County,"11400 Wares Ferry Rd, Montgomery, AL 36117, USA",32.3974956,-86.10835540000001
1531923,ec32a52c,36117,Montgomery County,"11400 Wares Ferry Rd, Montgomery, AL 36117, USA",32.3974956,-86.10835540000001
1531927,ec3rjtn2,36117,Montgomery County,"11400 Wares Ferry Rd, Montgomery, AL 36117, USA",32.3974956,-86.10835540000001
1531924,ec3th9nz,36117,Montgomery County,"11400 Wares Ferry Rd, Montgomery, AL 36117, USA",32.3974956,-86.10835540000001
1531928,ec3p0amc,36117,Montgomery County,"11400 Wares Ferry Rd, Montgomery, AL 36117, USA",32.3974956,-86.10835540000001
1532266,ec3zs90m,36732,Marengo County,"302 Maria Ave, Demopolis, AL 36732, USA",32.5130692,-87.8556646
1531930,ec3skrs7,36117,Montgomery County,"11400 Wares Ferry Rd, Montgomery, AL 36117, USA",32.3974956,-86.10835540000001
1532020,ec32rha4,36117,Montgomery County,"11400 Wares Ferry Rd, Montgomery, AL 36117, USA",32.3974956,-86.10835540000001
1550967,ec3azm91,36117,Montgomery County,"11400 Wares Ferry Rd, Montgomery, AL 36117, USA",32.3974956,-86.10835540000001
1567975,ec3z3h8h,36117,Montgomery County,"11400 Wares Ferry Rd, Montgomery, AL 36117, USA",32.3974956,-86.10835540000001
1606487,ec3shqkz,36117,Montgomery County,"11400 Wares Ferry Rd, Montgomery, AL 36117, USA",32.3974956,-86.10835540000001
1618916,ec3wxk21,36117,Montgomery County,"11400 Wares Ferry Rd, Montgomery, AL 36117, USA",32.3974956,-86.10835540000001
1618918,ec3w4zwb,36117,Montgomery County,"11400 Wares Ferry Rd, Montgomery, AL 36117, USA",32.3974956,-86.10835540000001
1620331,ec3375wx,36117,Montgomery County,"11400 Wares Ferry Rd, Montgomery, AL 36117, USA",32.3974956,-86.10835540000001
1620546,ec3n2802,36117,Montgomery County,"11400 Wares Ferry Rd, Montgomery, AL 36117, USA",32.3974956,-86.10835540000001
1622843,ec3g9uu5,36117,Montgomery County,"11400 Wares Ferry Rd, Montgomery, AL 36117, USA",32.3974956,-86.10835540000001
1625637,ec3tsjnb,36117,Montgomery County,"11400 Wares Ferry Rd, Montgomery, AL 36117, USA",32.3974956,-86.10835540000001
1526238,ec356pk6,35210,Jefferson County,"2653 Ruffner Rd, Birmingham, AL 35210, USA",33.5790464,-86.6676012
1526238,ec34ucfq,35210,Jefferson County,"2653 Ruffner Rd, Birmingham, AL 35210, USA",33.5790464,-86.6676012
1615388,ec3jxf7q,35210,Jefferson County,"2653 Ruffner Rd, Birmingham, AL 35210, USA",33.5790464,-86.6676012
1526281,ec3xut6s,35601,Morgan County,"3788 State Hwy 20, Decatur, AL 35601, USA",34.62174,-87.081895
1526511,ec3f4wx0,35601,Morgan County,"3788 State Hwy 20, Decatur, AL 35601, USA",34.62174,-87.081895
1528500,ec3y34n5,35802,Madison County,"2020 Vermont Rd SW, Huntsville, AL 35802, USA",34.672278,-86.5931972
1528832,ec36dk4x,35802,Madison County,"2020 Vermont Rd SW, Huntsville, AL 35802, USA",34.672278,-86.5931972
1531483,ec39aguk,35802,Madison County,"2020 Vermont Rd SW, Huntsville, AL 35802, USA",34.672278,-86.5931972
1570870,ec30g29p,35802,Madison County,"2020 Vermont Rd SW, Huntsville, AL 35802, USA",34.672278,-86.5931972
1579425,ec30guaa,35802,Madison County,"2020 Vermont Rd SW, Huntsville, AL 35802, USA",34.672278,-86.5931972
1613598,ec320p8h,35802,Madison County,"2020 Vermont Rd SW, Huntsville, AL 35802, USA",34.672278,-86.5931972
1618966,ec34exny,35802,Madison County,"2020 Vermont Rd SW, Huntsville, AL 35802, USA",34.672278,-86.5931972
1526544,ec3gqbya,35601,Morgan County,"3788 State Hwy 20, Decatur, AL 35601, USA",34.62174,-87.081895
1526750,ec3wsuza,36526,Baldwin County,"25640 Co Rd 13, Daphne, AL 36526, USA",30.5987899,-87.8684399
1528269,ec3kjkj5,36526,Baldwin County,"25640 Co Rd 13, Daphne, AL 36526, USA",30.5987899,-87.8684399
1528306,ec321fnw,36526,Baldwin County,"25640 Co Rd 13, Daphne, AL 36526, USA",30.5987899,-87.8684399
1528330,ec34udny,36526,Baldwin County,"25640 Co Rd 13, Daphne, AL 36526, USA",30.5987899,-87.8684399
1528374,ec3kgf56,36526,Baldwin County,"25640 Co Rd 13, Daphne, AL 36526, USA",30.5987899,-87.8684399
1528394,ec3wqedu,36526,Baldwin County,"25640 Co Rd 13, Daphne, AL 36526, USA",30.5987899,-87.8684399
1528395,ec351fhm,36526,Baldwin County,"25640 Co Rd 13, Daphne, AL 36526, USA",30.5987899,-87.8684399
1528414,ec31tewc,36526,Baldwin County,"25640 Co Rd 13, Daphne, AL 36526, USA",30.5987899,-87.8684399
1528423,ec30cj9f,36526,Baldwin County,"25640 Co Rd 13, Daphne, AL 36526, USA",30.5987899,-87.8684399
1528429,ec3p2xpn,36526,Baldwin County,"25640 Co Rd 13, Daphne, AL 36526, USA",30.5987899,-87.8684399
1528430,ec3ngq5p,36526,Baldwin County,"25640 Co Rd 13, Daphne, AL 36526, USA",30.5987899,-87.8684399
1528784,ec3pp1sy,36526,Baldwin County,"25640 Co Rd 13, Daphne, AL 36526, USA",30.5987899,-87.8684399
1526636,ec3efff6,35601,Morgan County,"3788 State Hwy 20, Decatur, AL 35601, USA",34.62174,-87.081895
1531483,ec3u6f6a,36526,Baldwin County,"25640 Co Rd 13, Daphne, AL 36526, USA",30.5987899,-87.8684399
1557846,ec3rge3j,36526,Baldwin County,"25640 Co Rd 13, Daphne, AL 36526, USA",30.5987899,-87.8684399
1527815,ec38ys10,35601,Morgan County,"3788 State Hwy 20, Decatur, AL 35601, USA",34.62174,-87.081895
1529168,ec3c3jtn,36526,Baldwin County,"25640 Co Rd 13, Daphne, AL 36526, USA",30.5987899,-87.8684399
1152539,ec3j793p,36303,Houston County,"269 Twitchell Rd, Dothan, AL 36303, USA",31.2446095,-85.3982731
1526062,ec3eryb8,36303,Houston County,"269 Twitchell Rd, Dothan, AL 36303, USA",31.2446095,-85.3982731
1526284,ec3219ux,36303,Houston County,"269 Twitchell Rd, Dothan, AL 36303, USA",31.2446095,-85.3982731
1526591,ec36rx5s,36303,Houston County,"269 Twitchell Rd, Dothan, AL 36303, USA",31.2446095,-85.3982731
1527837,ec3r4wm2,36303,Houston County,"269 Twitchell Rd, Dothan, AL 36303, USA",31.2446095,-85.3982731
1528269,ec3gypjf,36303,Houston County,"269 Twitchell Rd, Dothan, AL 36303, USA",31.2446095,-85.3982731
1528270,ec39f8g7,36303,Houston County,"269 Twitchell Rd, Dothan, AL 36303, USA",31.2446095,-85.3982731
1528271,ec3mq6e1,36303,Houston County,"269 Twitchell Rd, Dothan, AL 36303, USA",31.2446095,-85.3982731
1528815,ec3jpem1,36303,Houston County,"269 Twitchell Rd, Dothan, AL 36303, USA",31.2446095,-85.3982731
1528826,ec3z17py,36303,Houston County,"269 Twitchell Rd, Dothan, AL 36303, USA",31.2446095,-85.3982731
1531457,ec37196j,36303,Houston County,"269 Twitchell Rd, Dothan, AL 36303, USA",31.2446095,-85.3982731
1531460,ec3w2ftf,36303,Houston County,"269 Twitchell Rd, Dothan, AL 36303, USA",31.2446095,-85.3982731
1531462,ec34xaja,36303,Houston County,"269 Twitchell Rd, Dothan, AL 36303, USA",31.2446095,-85.3982731
1531491,ec3r0hr0,36303,Houston County,"269 Twitchell Rd, Dothan, AL 36303, USA",31.2446095,-85.3982731
1531497,ec32uny6,36303,Houston County,"269 Twitchell Rd, Dothan, AL 36303, USA",31.2446095,-85.3982731
1531503,ec3e6wnp,36303,Houston County,"269 Twitchell Rd, Dothan, AL 36303, USA",31.2446095,-85.3982731
1535568,ec3th0ag,36303,Houston County,"269 Twitchell Rd, Dothan, AL 36303, USA",31.2446095,-85.3982731
1562674,ec3zdddd,36303,Houston County,"269 Twitchell Rd, Dothan, AL 36303, USA",31.2446095,-85.3982731
1572693,ec3p1qw9,36303,Houston County,"269 Twitchell Rd, Dothan, AL 36303, USA",31.2446095,-85.3982731
1572724,ec3jns3r,36303,Houston County,"269 Twitchell Rd, Dothan, AL 36303, USA",31.2446095,-85.3982731
1527816,ec3qsb3r,35601,Morgan County,"3788 State Hwy 20, Decatur, AL 35601, USA",34.62174,-87.081895
1527818,ec3g9ps4,35601,Morgan County,"3788 State Hwy 20, Decatur, AL 35601, USA",34.62174,-87.081895
1527906,ec3azpkx,35601,Morgan County,"3788 State Hwy 20, Decatur, AL 35601, USA",34.62174,-87.081895
1528036,ec3xkacb,35601,Morgan County,"3788 State Hwy 20, Decatur, AL 35601, USA",34.62174,-87.081895
1528271,ec39huxc,36535,Baldwin County,"21551 Doc McDuffie Rd, Foley, AL 36535, USA",30.390202,-87.656869
1528301,ec3r5ny8,36535,Baldwin County,"21551 Doc McDuffie Rd, Foley, AL 36535, USA",30.390202,-87.656869
1528305,ec3hppat,36535,Baldwin County,"21551 Doc McDuffie Rd, Foley, AL 36535, USA",30.390202,-87.656869
1528306,ec3aagq1,36535,Baldwin County,"21551 Doc McDuffie Rd, Foley, AL 36535, USA",30.390202,-87.656869
1528794,ec3wzqn4,35601,Morgan County,"3788 State Hwy 20, Decatur, AL 35601, USA",34.62174,-87.081895
1528314,ec3t50zj,36535,Baldwin County,"21551 Doc McDuffie Rd, Foley, AL 36535, USA",30.390202,-87.656869
1528324,ec3685sx,36535,Baldwin County,"21551 Doc McDuffie Rd, Foley, AL 36535, USA",30.390202,-87.656869
1528374,ec3ct0u4,36535,Baldwin County,"21551 Doc McDuffie Rd, Foley, AL 36535, USA",30.390202,-87.656869
1528376,ec3a50eu,36535,Baldwin County,"21551 Doc McDuffie Rd, Foley, AL 36535, USA",30.390202,-87.656869
1528400,ec31zsxr,36535,Baldwin County,"21551 Doc McDuffie Rd, Foley, AL 36535, USA",30.390202,-87.656869
1528415,ec3j7kxt,36535,Baldwin County,"21551 Doc McDuffie Rd, Foley, AL 36535, USA",30.390202,-87.656869
1528421,ec3jdae1,36535,Baldwin County,"21551 Doc McDuffie Rd, Foley, AL 36535, USA",30.390202,-87.656869
1528435,ec3nthp0,36535,Baldwin County,"21551 Doc McDuffie Rd, Foley, AL 36535, USA",30.390202,-87.656869
1528460,ec3dc0tq,36535,Baldwin County,"21551 Doc McDuffie Rd, Foley, AL 36535, USA",30.390202,-87.656869
1528636,ec38au4f,36535,Baldwin County,"21551 Doc McDuffie Rd, Foley, AL 36535, USA",30.390202,-87.656869
1528634,ec33n50u,36535,Baldwin County,"21551 Doc McDuffie Rd, Foley, AL 36535, USA",30.390202,-87.656869
1526284,ec3jpc0a,36535,Baldwin County,"21551 Doc McDuffie Rd, Foley, AL 36535, USA",30.390202,-87.656869
1528646,ec3fh9za,36535,Baldwin County,"21551 Doc McDuffie Rd, Foley, AL 36535, USA",30.390202,-87.656869
1528677,ec3pw68k,36535,Baldwin County,"21551 Doc McDuffie Rd, Foley, AL 36535, USA",30.390202,-87.656869
1531483,ec3upppu,36535,Baldwin County,"21551 Doc McDuffie Rd, Foley, AL 36535, USA",30.390202,-87.656869
1551239,ec3zp94f,36535,Baldwin County,"21551 Doc McDuffie Rd, Foley, AL 36535, USA",30.390202,-87.656869
1570870,ec3nqbhn,36535,Baldwin County,"21551 Doc McDuffie Rd, Foley, AL 36535, USA",30.390202,-87.656869
1581130,ec3k5y4s,36535,Baldwin County,"21551 Doc McDuffie Rd, Foley, AL 36535, USA",30.390202,-87.656869
1529090,ec3bag0a,35601,Morgan County,"3788 State Hwy 20, Decatur, AL 35601, USA",34.62174,-87.081895
1588848,ec3cxqx4,35601,Morgan County,"3788 State Hwy 20, Decatur, AL 35601, USA",34.62174,-87.081895
1588850,ec3pg9xt,35601,Morgan County,"3788 State Hwy 20, Decatur, AL 35601, USA",34.62174,-87.081895
1588851,ec3bbn10,35601,Morgan County,"3788 State Hwy 20, Decatur, AL 35601, USA",34.62174,-87.081895
1588852,ec3wqssx,35601,Morgan County,"3788 State Hwy 20, Decatur, AL 35601, USA",34.62174,-87.081895
1588854,ec315g3n,35601,Morgan County,"3788 State Hwy 20, Decatur, AL 35601, USA",34.62174,-87.081895
1588855,ec3u9wky,35601,Morgan County,"3788 State Hwy 20, Decatur, AL 35601, USA",34.62174,-87.081895
1526060,ec3epsya,35210,Jefferson County,"2653 Ruffner Rd, Birmingham, AL 35210, USA",33.5790464,-86.6676012
1588926,ec3e51tm,35601,Morgan County,"3788 State Hwy 20, Decatur, AL 35601, USA",34.62174,-87.081895
1589046,ec35ew1q,35601,Morgan County,"3788 State Hwy 20, Decatur, AL 35601, USA",34.62174,-87.081895
1589047,ec3k18z4,35601,Morgan County,"3788 State Hwy 20, Decatur, AL 35601, USA",34.62174,-87.081895
1592578,ec3w0zt0,35207,Jefferson County,"4590 F L Shuttlesworth Dr, Birmingham, AL 35207, USA",33.5696959,-86.7893782
1589198,ec3xybsd,35601,Morgan County,"3788 State Hwy 20, Decatur, AL 35601, USA",34.62174,-87.081895
950733OaksT&L,ec3750wn,,Jefferson County,"Birmingham, AL, USA",33.5185892,-86.8103567
952927,ec3pfag0,35094,Jefferson County,"8732 Parkway Dr, Leeds, AL 35094, USA",33.54463,-86.522565
1589200,ec3dkg04,35601,Morgan County,"3788 State Hwy 20, Decatur, AL 35601, USA",34.62174,-87.081895
1589201,ec3cqxbm,35601,Morgan County,"3788 State Hwy 20, Decatur, AL 35601, USA",34.62174,-87.081895
1589202,ec36fneg,35601,Morgan County,"3788 State Hwy 20, Decatur, AL 35601, USA",34.62174,-87.081895
1589209,ec3e694a,35601,Morgan County,"3788 State Hwy 20, Decatur, AL 35601, USA",34.62174,-87.081895
1589212,ec39a2cc,35601,Morgan County,"3788 State Hwy 20, Decatur, AL 35601, USA",34.62174,-87.081895
1589213,ec3pmy3r,35601,Morgan County,"3788 State Hwy 20, Decatur, AL 35601, USA",34.62174,-87.081895
1589215,ec3umxw9,35601,Morgan County,"3788 State Hwy 20, Decatur, AL 35601, USA",34.62174,-87.081895
1589397,ec35dd91,35601,Morgan County,"3788 State Hwy 20, Decatur, AL 35601, USA",34.62174,-87.081895
1589804,ec3aumju,35601,Morgan County,"3788 State Hwy 20, Decatur, AL 35601, USA",34.62174,-87.081895
1560549,ec3g6z7n,36732,Marengo County,"302 Maria Ave, Demopolis, AL 36732, USA",32.5130692,-87.8556646
1526168,ec3d8f8k,36732,Marengo County,"302 Maria Ave, Demopolis, AL 36732, USA",32.5130692,-87.8556646
1620192,ec3pcsdr,36732,Marengo County,"302 Maria Ave, Demopolis, AL 36732, USA",32.5130692,-87.8556646
1620190,ec3beasn,36732,Marengo County,"302 Maria Ave, Demopolis, AL 36732, USA",32.5130692,-87.8556646
1528826,ec3dke5w,36330,Coffee County,"Dale County 1, Enterprise, AL 36330, USA",31.2056681,-85.7914653
1529499,ec3m39rd,36330,Coffee County,"Dale County 1, Enterprise, AL 36330, USA",31.2056681,-85.7914653
1531452,ec3n72pm,36330,Coffee County,"Dale County 1, Enterprise, AL 36330, USA",31.2056681,-85.7914653
1531454,ec3ndtqq,36330,Coffee County,"Dale County 1, Enterprise, AL 36330, USA",31.2056681,-85.7914653
1620921,ec3t2a9j,36732,Marengo County,"302 Maria Ave, Demopolis, AL 36732, USA",32.5130692,-87.8556646
4000014,ec3ge0r9,35630,Lauderdale County,"3214 Roberson Rd, Florence, AL 35630, USA",34.8640178,-87.6686351
4000016,ec3s206e,35630,Lauderdale County,"3214 Roberson Rd, Florence, AL 35630, USA",34.8640178,-87.6686351
4000037,ec3e6422,35630,Lauderdale County,"3214 Roberson Rd, Florence, AL 35630, USA",34.8640178,-87.6686351
1589805,ec3rydwz,35601,Morgan County,"3788 State Hwy 20, Decatur, AL 35601, USA",34.62174,-87.081895
1589806,ec3shcck,35601,Morgan County,"3788 State Hwy 20, Decatur, AL 35601, USA",34.62174,-87.081895
1590202,ec3cjruj,35601,Morgan County,"3788 State Hwy 20, Decatur, AL 35601, USA",34.62174,-87.081895
1590323,ec37ug3e,35601,Morgan County,"3788 State Hwy 20, Decatur, AL 35601, USA",34.62174,-87.081895
1590324,ec3k594h,35601,Morgan County,"3788 State Hwy 20, Decatur, AL 35601, USA",34.62174,-87.081895
1595502,ec3g01bk,35601,Morgan County,"3788 State Hwy 20, Decatur, AL 35601, USA",34.62174,-87.081895
1596306,ec3sj4d2,35601,Morgan County,"3788 State Hwy 20, Decatur, AL 35601, USA",34.62174,-87.081895
1599337,ec30murm,35601,Morgan County,"3788 State Hwy 20, Decatur, AL 35601, USA",34.62174,-87.081895
1603417,ec3mhtyb,35601,Morgan County,"3788 State Hwy 20, Decatur, AL 35601, USA",34.62174,-87.081895
1610574,ec3fnwf1,35601,Morgan County,"3788 State Hwy 20, Decatur, AL 35601, USA",34.62174,-87.081895
1624509,ec36mmhj,35601,Morgan County,"3788 State Hwy 20, Decatur, AL 35601, USA",34.62174,-87.081895
1534518,ec3ajr2r,36732,Marengo County,"302 Maria Ave, Demopolis, AL 36732, USA",32.5130692,-87.8556646
1591770,ec320mcs,36732,Marengo County,"302 Maria Ave, Demopolis, AL 36732, USA",32.5130692,-87.8556646
1596525,ec37d1tr,36732,Marengo County,"302 Maria Ave, Demopolis, AL 36732, USA",32.5130692,-87.8556646
1618517,ec3rhq0d,36732,Marengo County,"302 Maria Ave, Demopolis, AL 36732, USA",32.5130692,-87.8556646
1526351,ec355y83,36732,Marengo County,"302 Maria Ave, Demopolis, AL 36732, USA",32.5130692,-87.8556646
1526059,ec377f05,35210,Jefferson County,"2653 Ruffner Rd, Birmingham, AL 35210, USA",33.5790464,-86.6676012
1620191,ec3q9ycq,36732,Marengo County,"302 Maria Ave, Demopolis, AL 36732, USA",32.5130692,-87.8556646
1546442,ec35z9pq,36732,Marengo County,"302 Maria Ave, Demopolis, AL 36732, USA",32.5130692,-87.8556646
1531461,ec3zzdr1,36330,Coffee County,"Dale County 1, Enterprise, AL 36330, USA",31.2056681,-85.7914653
1527907,ec3te0jc,36330,Coffee County,"Dale County 1, Enterprise, AL 36330, USA",31.2056681,-85.7914653
1526138,ec3b452n,36732,Marengo County,"302 Maria Ave, Demopolis, AL 36732, USA",32.5130692,-87.8556646
1526284,ec3gu5jb,36732,Marengo County,"302 Maria Ave, Demopolis, AL 36732, USA",32.5130692,-87.8556646
1526740,ec3qq95s,36732,Marengo County,"302 Maria Ave, Demopolis, AL 36732, USA",32.5130692,-87.8556646
1530981,ec3xs5h7,36732,Marengo County,"302 Maria Ave, Demopolis, AL 36732, USA",32.5130692,-87.8556646
1531489,ec3z3zas,36330,Coffee County,"Dale County 1, Enterprise, AL 36330, USA",31.2056681,-85.7914653
1531491,ec3m03qq,36330,Coffee County,"Dale County 1, Enterprise, AL 36330, USA",31.2056681,-85.7914653
1531490,ec3esrmu,36330,Coffee County,"Dale County 1, Enterprise, AL 36330, USA",31.2056681,-85.7914653
1531492,ec3p1m2w,36330,Coffee County,"Dale County 1, Enterprise, AL 36330, USA",31.2056681,-85.7914653
1527837,ec3tj0kd,36330,Coffee County,"Dale County 1, Enterprise, AL 36330, USA",31.2056681,-85.7914653
1573676,ec32ggcr,36330,Coffee County,"Dale County 1, Enterprise, AL 36330, USA",31.2056681,-85.7914653
1531502,ec370uan,36330,Coffee County,"Dale County 1, Enterprise, AL 36330, USA",31.2056681,-85.7914653
1549807,ec3rrmah,36732,Marengo County,"302 Maria Ave, Demopolis, AL 36732, USA",32.5130692,-87.8556646
1550169,ec3dfbjy,36732,Marengo County,"302 Maria Ave, Demopolis, AL 36732, USA",32.5130692,-87.8556646
1611156,ec31xs9g,35055,Cullman County,"81 Walnut St NW, Cullman, AL 35055, USA",34.1990883,-86.8486732
1550170,ec3jzbeh,36732,Marengo County,"302 Maria Ave, Demopolis, AL 36732, USA",32.5130692,-87.8556646
"Kraft-faced EcoBatt® and EcoRoll Insulation produced in Lanett, AL",ec30juaj,36863,Chambers County,"Lanett, AL 36863, USA",32.86873910000001,-85.1904971
"Unfaced EcoBatt® and EcoRoll Insulation produced in Lanett, AL",ec3b2h70,36863,Chambers County,"Lanett, AL 36863, USA",32.86873910000001,-85.1904971
"FSK-faced EcoBatt® and EcoRoll Insulation produced in Lanett, AL",ec3x7z33,36863,Chambers County,"Lanett, AL 36863, USA",32.86873910000001,-85.1904971
"Foil-faced EcoBatt® and EcoRoll Insulation produced in Lanett, AL",ec3x6rap,36863,Chambers County,"Lanett, AL 36863, USA",32.86873910000001,-85.1904971
1526146,ec38we6d,35055,Cullman County,"81 Walnut St NW, Cullman, AL 35055, USA",34.1990883,-86.8486732
1526186,ec3z1fn4,35055,Cullman County,"81 Walnut St NW, Cullman, AL 35055, USA",34.1990883,-86.8486732
1526209,ec3stnef,35055,Cullman County,"81 Walnut St NW, Cullman, AL 35055, USA",34.1990883,-86.8486732
1526210,ec3kuad6,35055,Cullman County,"81 Walnut St NW, Cullman, AL 35055, USA",34.1990883,-86.8486732
1526284,ec3ybwqu,35055,Cullman County,"81 Walnut St NW, Cullman, AL 35055, USA",34.1990883,-86.8486732
1526285,ec3msese,35055,Cullman County,"81 Walnut St NW, Cullman, AL 35055, USA",34.1990883,-86.8486732
1526291,ec33jpp8,35055,Cullman County,"81 Walnut St NW, Cullman, AL 35055, USA",34.1990883,-86.8486732
1526292,ec3wxa7z,35055,Cullman County,"81 Walnut St NW, Cullman, AL 35055, USA",34.1990883,-86.8486732
1526298,ec3xz1w3,35055,Cullman County,"81 Walnut St NW, Cullman, AL 35055, USA",34.1990883,-86.8486732
1526299,ec3wx6k2,35055,Cullman County,"81 Walnut St NW, Cullman, AL 35055, USA",34.1990883,-86.8486732
1526310,ec39c24u,35055,Cullman County,"81 Walnut St NW, Cullman, AL 35055, USA",34.1990883,-86.8486732
1526499,ec3pgxbh,35055,Cullman County,"81 Walnut St NW, Cullman, AL 35055, USA",34.1990883,-86.8486732
1526500,ec3egz2t,35055,Cullman County,"81 Walnut St NW, Cullman, AL 35055, USA",34.1990883,-86.8486732
1526511,ec3hfagr,35055,Cullman County,"81 Walnut St NW, Cullman, AL 35055, USA",34.1990883,-86.8486732
1530977,ec3cuzrf,36732,Marengo County,"302 Maria Ave, Demopolis, AL 36732, USA",32.5130692,-87.8556646
1620546,ec3fwazm,36732,Marengo County,"302 Maria Ave, Demopolis, AL 36732, USA",32.5130692,-87.8556646
1622386,ec3r6334,36732,Marengo County,"302 Maria Ave, Demopolis, AL 36732, USA",32.5130692,-87.8556646
1526520,ec3scsmf,35055,Cullman County,"81 Walnut St NW, Cullman, AL 35055, USA",34.1990883,-86.8486732
1526522,ec3gz0c8,35055,Cullman County,"81 Walnut St NW, Cullman, AL 35055, USA",34.1990883,-86.8486732
1526750,ec3z88cg,35055,Cullman County,"81 Walnut St NW, Cullman, AL 35055, USA",34.1990883,-86.8486732
1526772,ec32q10s,35055,Cullman County,"81 Walnut St NW, Cullman, AL 35055, USA",34.1990883,-86.8486732
1527143,ec3409cc,35055,Cullman County,"81 Walnut St NW, Cullman, AL 35055, USA",34.1990883,-86.8486732
1527814,ec3dfhr5,35055,Cullman County,"81 Walnut St NW, Cullman, AL 35055, USA",34.1990883,-86.8486732
1527816,ec3g8zb3,35055,Cullman County,"81 Walnut St NW, Cullman, AL 35055, USA",34.1990883,-86.8486732
1527817,ec3jkpyt,35055,Cullman County,"81 Walnut St NW, Cullman, AL 35055, USA",34.1990883,-86.8486732
1527818,ec3msw14,35055,Cullman County,"81 Walnut St NW, Cullman, AL 35055, USA",34.1990883,-86.8486732
1527906,ec3dmyx0,35055,Cullman County,"81 Walnut St NW, Cullman, AL 35055, USA",34.1990883,-86.8486732
1528037,ec3fcwxy,35055,Cullman County,"81 Walnut St NW, Cullman, AL 35055, USA",34.1990883,-86.8486732
1528815,ec3saekm,35055,Cullman County,"81 Walnut St NW, Cullman, AL 35055, USA",34.1990883,-86.8486732
1529090,ec3d6mb7,35055,Cullman County,"81 Walnut St NW, Cullman, AL 35055, USA",34.1990883,-86.8486732
1530273,ec3gdh76,35055,Cullman County,"81 Walnut St NW, Cullman, AL 35055, USA",34.1990883,-86.8486732
1531296,ec35u943,35055,Cullman County,"81 Walnut St NW, Cullman, AL 35055, USA",34.1990883,-86.8486732
1535497,ec3xe608,35055,Cullman County,"81 Walnut St NW, Cullman, AL 35055, USA",34.1990883,-86.8486732
1572529,ec35a3n8,35055,Cullman County,"81 Walnut St NW, Cullman, AL 35055, USA",34.1990883,-86.8486732
1583576,ec3fjcaj,35055,Cullman County,"81 Walnut St NW, Cullman, AL 35055, USA",34.1990883,-86.8486732
1588850,ec3kzky0,35055,Cullman County,"81 Walnut St NW, Cullman, AL 35055, USA",34.1990883,-86.8486732
1588852,ec3ttnfa,35055,Cullman County,"81 Walnut St NW, Cullman, AL 35055, USA",34.1990883,-86.8486732
1588854,ec3gmx06,35055,Cullman County,"81 Walnut St NW, Cullman, AL 35055, USA",34.1990883,-86.8486732
1588888,ec3hb003,35055,Cullman County,"81 Walnut St NW, Cullman, AL 35055, USA",34.1990883,-86.8486732
1588889,ec31ct11,35055,Cullman County,"81 Walnut St NW, Cullman, AL 35055, USA",34.1990883,-86.8486732
1588890,ec3k7ecx,35055,Cullman County,"81 Walnut St NW, Cullman, AL 35055, USA",34.1990883,-86.8486732
1588892,ec3xempp,35055,Cullman County,"81 Walnut St NW, Cullman, AL 35055, USA",34.1990883,-86.8486732
1590321,ec3c3hkt,35055,Cullman County,"81 Walnut St NW, Cullman, AL 35055, USA",34.1990883,-86.8486732
1592175,ec3usx22,35055,Cullman County,"81 Walnut St NW, Cullman, AL 35055, USA",34.1990883,-86.8486732
1596308,ec34se9q,35055,Cullman County,"81 Walnut St NW, Cullman, AL 35055, USA",34.1990883,-86.8486732
1526062,ec3c89cc,36732,Marengo County,"302 Maria Ave, Demopolis, AL 36732, USA",32.5130692,-87.8556646
1526146,ec324jpw,36732,Marengo County,"302 Maria Ave, Demopolis, AL 36732, USA",32.5130692,-87.8556646
1526148,ec3gu8ry,36732,Marengo County,"302 Maria Ave, Demopolis, AL 36732, USA",32.5130692,-87.8556646
1526159,ec32fckb,36732,Marengo County,"302 Maria Ave, Demopolis, AL 36732, USA",32.5130692,-87.8556646
1526226,ec3nxpmk,36732,Marengo County,"302 Maria Ave, Demopolis, AL 36732, USA",32.5130692,-87.8556646
1526347,ec3ympgt,36732,Marengo County,"302 Maria Ave, Demopolis, AL 36732, USA",32.5130692,-87.8556646
1526136,ec3hn4je,36732,Marengo County,"302 Maria Ave, Demopolis, AL 36732, USA",32.5130692,-87.8556646
1526348,ec3chy31,36732,Marengo County,"302 Maria Ave, Demopolis, AL 36732, USA",32.5130692,-87.8556646
1526350,ec3x4yn8,36732,Marengo County,"302 Maria Ave, Demopolis, AL 36732, USA",32.5130692,-87.8556646
1526279,ec3mb0b4,36732,Marengo County,"302 Maria Ave, Demopolis, AL 36732, USA",32.5130692,-87.8556646
1526360,ec37ns5n,36732,Marengo County,"302 Maria Ave, Demopolis, AL 36732, USA",32.5130692,-87.8556646
1526365,ec30qnmt,36732,Marengo County,"302 Maria Ave, Demopolis, AL 36732, USA",32.5130692,-87.8556646
1526842,ec3x44nh,36732,Marengo County,"302 Maria Ave, Demopolis, AL 36732, USA",32.5130692,-87.8556646
1528068,ec33jc0e,36732,Marengo County,"302 Maria Ave, Demopolis, AL 36732, USA",32.5130692,-87.8556646
1530976,ec31qs1t,36732,Marengo County,"302 Maria Ave, Demopolis, AL 36732, USA",32.5130692,-87.8556646
1530978,ec30tr82,36732,Marengo County,"302 Maria Ave, Demopolis, AL 36732, USA",32.5130692,-87.8556646
1526146,ec3yk3s0,36330,Coffee County,"Dale County 1, Enterprise, AL 36330, USA",31.2056681,-85.7914653
1526143,ec3f263k,35210,Jefferson County,"2653 Ruffner Rd, Birmingham, AL 35210, USA",33.5790464,-86.6676012
1622932,ec3qg5j1,35210,Jefferson County,"2653 Ruffner Rd, Birmingham, AL 35210, USA",33.5790464,-86.6676012
1620330,ec34ggen,35210,Jefferson County,"2653 Ruffner Rd, Birmingham, AL 35210, USA",33.5790464,-86.6676012
Fabricated Steel Plate,ec3yfsqb,,,,,
1526284,ec3dbmzd,36330,Coffee County,"Dale County 1, Enterprise, AL 36330, USA",31.2056681,-85.7914653
1526500,ec3a95ny,36330,Coffee County,"Dale County 1, Enterprise, AL 36330, USA",31.2056681,-85.7914653
1526520,ec3paard,36330,Coffee County,"Dale County 1, Enterprise, AL 36330, USA",31.2056681,-85.7914653
1526530,ec3wr2se,36330,Coffee County,"Dale County 1, Enterprise, AL 36330, USA",31.2056681,-85.7914653
Fabricated HSS,ec3ywuq6,35217,Jefferson County,"171 Cleage Dr, Birmingham, AL 35217, USA",33.6280724,-86.73928
1526591,ec3g94aj,36330,Coffee County,"Dale County 1, Enterprise, AL 36330, USA",31.2056681,-85.7914653
1528271,ec3b41hu,36330,Coffee County,"Dale County 1, Enterprise, AL 36330, USA",31.2056681,-85.7914653
1152536,ec3bby22,36330,Coffee County,"Dale County 1, Enterprise, AL 36330, USA",31.2056681,-85.7914653
1152539,ec3x4e09,36330,Coffee County,"Dale County 1, Enterprise, AL 36330, USA",31.2056681,-85.7914653
1526291,ec3g3n8s,36330,Coffee County,"Dale County 1, Enterprise, AL 36330, USA",31.2056681,-85.7914653
1531497,ec3f8yfa,36330,Coffee County,"Dale County 1, Enterprise, AL 36330, USA",31.2056681,-85.7914653
1531471,ec35j0bp,36330,Coffee County,"Dale County 1, Enterprise, AL 36330, USA",31.2056681,-85.7914653
1531499,ec35h8e4,36330,Coffee County,"Dale County 1, Enterprise, AL 36330, USA",31.2056681,-85.7914653
1531498,ec392zup,36330,Coffee County,"Dale County 1, Enterprise, AL 36330, USA",31.2056681,-85.7914653
1531500,ec3xc2mg,36330,Coffee County,"Dale County 1, Enterprise, AL 36330, USA",31.2056681,-85.7914653
1529085,ec3qjqfr,36330,Coffee County,"Dale County 1, Enterprise, AL 36330, USA",31.2056681,-85.7914653
1531496,ec3700ew,36330,Coffee County,"Dale County 1, Enterprise, AL 36330, USA",31.2056681,-85.7914653
1546550,ec36n866,36330,Coffee County,"Dale County 1, Enterprise, AL 36330, USA",31.2056681,-85.7914653
1562674,ec3awa7m,36330,Coffee County,"Dale County 1, Enterprise, AL 36330, USA",31.2056681,-85.7914653
1560549,ec3xahj0,36330,Coffee County,"Dale County 1, Enterprise, AL 36330, USA",31.2056681,-85.7914653
1531466,ec3mmx23,36330,Coffee County,"Dale County 1, Enterprise, AL 36330, USA",31.2056681,-85.7914653
1572692,ec3eg1ru,36330,Coffee County,"Dale County 1, Enterprise, AL 36330, USA",31.2056681,-85.7914653
1532828,ec3ggdez,36330,Coffee County,"Dale County 1, Enterprise, AL 36330, USA",31.2056681,-85.7914653
1584099,ec311ua4,36330,Coffee County,"Dale County 1, Enterprise, AL 36330, USA",31.2056681,-85.7914653
1531495,ec3es4gk,36330,Coffee County,"Dale County 1, Enterprise, AL 36330, USA",31.2056681,-85.7914653
1572724,ec3b2kry,36330,Coffee County,"Dale County 1, Enterprise, AL 36330, USA",31.2056681,-85.7914653
1531460,ec3jm987,36330,Coffee County,"Dale County 1, Enterprise, AL 36330, USA",31.2056681,-85.7914653
1526531,ec3h0cn6,36330,Coffee County,"Dale County 1, Enterprise, AL 36330, USA",31.2056681,-85.7914653
1528815,ec3c3phu,36330,Coffee County,"Dale County 1, Enterprise, AL 36330, USA",31.2056681,-85.7914653
1531459,ec3dtqdg,36330,Coffee County,"Dale County 1, Enterprise, AL 36330, USA",31.2056681,-85.7914653
1535141,ec3qj5df,35210,Jefferson County,"2653 Ruffner Rd, Birmingham, AL 35210, USA",33.5790464,-86.6676012
1539122,ec30ya0m,35210,Jefferson County,"2653 Ruffner Rd, Birmingham, AL 35210, USA",33.5790464,-86.6676012
Unfabricated HSS,ec3qbej6,35217,Jefferson County,"171 Cleage Dr, Birmingham, AL 35217, USA",33.6280724,-86.73928
1531872,ec3uykkc,36117,Montgomery County,"11400 Wares Ferry Rd, Montgomery, AL 36117, USA",32.3974956,-86.10835540000001
Steel Plate,ec3xc2tb,35404,Tuscaloosa County,"1700 Holt Rd NE, Tuscaloosa, AL 35404, USA",33.241044,-87.503232
1526142,ec3pf9tc,35210,Jefferson County,"2653 Ruffner Rd, Birmingham, AL 35210, USA",33.5790464,-86.6676012
1526060,ec387137,35210,Jefferson County,"2653 Ruffner Rd, Birmingham, AL 35210, USA",33.5790464,-86.6676012
Mix 1528623,ec3mg3ba,36526,Baldwin County,"25640 Co Rd 13, Daphne, AL 36526, USA",30.5987899,-87.8684399
952927R20,ec36kkjn,35094,Jefferson County,"8732 Parkway Dr, Leeds, AL 35094, USA",33.54463,-86.522565
KN Series Insulation,ec3b3daq,36863,Chambers County,"Lanett, AL 36863, USA",32.86873910000001,-85.1904971
CarbonBuiltCMU,ec3xch6j,35014,Talladega County,"Carr Rd, Alpine, AL 35014, USA",33.4073945,-86.2886821
Mix 1526142,ec38q370,35007,Shelby County,"2486 Simmsville Rd, Alabaster, AL 35007, USA",33.266777,-86.78945759999999
Mix 1526157,ec397ns9,35007,Shelby County,"2486 Simmsville Rd, Alabaster, AL 35007, USA",33.266777,-86.78945759999999
Mix 1526143,ec37nq82,35007,Shelby County,"2486 Simmsville Rd, Alabaster, AL 35007, USA",33.266777,-86.78945759999999
Mix 1526059,ec3q6pqk,35007,Shelby County,"2486 Simmsville Rd, Alabaster, AL 35007, USA",33.266777,-86.78945759999999
121231,ec3wcw34,35094,Jefferson County,"8732 Parkway Dr, Leeds, AL 35094, USA",33.54463,-86.522565
191931,ec3xz7uj,35094,Jefferson County,"8732 Parkway Dr, Leeds, AL 35094, USA",33.54463,-86.522565
Mix 1526140,ec3fmkkn,35007,Shelby County,"2486 Simmsville Rd, Alabaster, AL 35007, USA",33.266777,-86.78945759999999
Mix 1526203,ec30nc41,35007,Shelby County,"2486 Simmsville Rd, Alabaster, AL 35007, USA",33.266777,-86.78945759999999
Mix 1526240,ec3schq2,35007,Shelby County,"2486 Simmsville Rd, Alabaster, AL 35007, USA",33.266777,-86.78945759999999
Mix 1526280,ec31ms7x,35007,Shelby County,"2486 Simmsville Rd, Alabaster, AL 35007, USA",33.266777,-86.78945759999999
Mix 1526228,ec3wsyp1,35007,Shelby County,"2486 Simmsville Rd, Alabaster, AL 35007, USA",33.266777,-86.78945759999999
Mix 1572527,ec3qgpmq,35007,Shelby County,"2486 Simmsville Rd, Alabaster, AL 35007, USA",33.266777,-86.78945759999999
Mix 1616229,ec3h28a3,35007,Shelby County,"2486 Simmsville Rd, Alabaster, AL 35007, USA",33.266777,-86.78945759999999
Mix 1560567,ec35mduc,35007,Shelby County,"2486 Simmsville Rd, Alabaster, AL 35007, USA",33.266777,-86.78945759999999
Mix 1620194,ec39pypr,35007,Shelby County,"2486 Simmsville Rd, Alabaster, AL 35007, USA",33.266777,-86.78945759999999
Mix 1586987,ec3gun8m,35007,Shelby County,"2486 Simmsville Rd, Alabaster, AL 35007, USA",33.266777,-86.78945759999999
Mix 1620330,ec32bwk8,35007,Shelby County,"2486 Simmsville Rd, Alabaster, AL 35007, USA",33.266777,-86.78945759999999
Mix 1620331,ec3wqb4p,35007,Shelby County,"2486 Simmsville Rd, Alabaster, AL 35007, USA",33.266777,-86.78945759999999
Mix 1622932,ec3tkdrg,35007,Shelby County,"2486 Simmsville Rd, Alabaster, AL 35007, USA",33.266777,-86.78945759999999
Mix 1588848,ec37jgqw,35756,Limestone County,"4547 Pryor Rd, Madison, AL 35756, USA",34.6189329,-86.8553996
Mix 1588850,ec3tptr6,35756,Limestone County,"4547 Pryor Rd, Madison, AL 35756, USA",34.6189329,-86.8553996
Mix 1589046,ec3a0kzc,35756,Limestone County,"4547 Pryor Rd, Madison, AL 35756, USA",34.6189329,-86.8553996
Mix 1528037,ec3xh5rm,35756,Limestone County,"4547 Pryor Rd, Madison, AL 35756, USA",34.6189329,-86.8553996
Mix 1526284,ec3pdx3e,35756,Limestone County,"4547 Pryor Rd, Madison, AL 35756, USA",34.6189329,-86.8553996
Mix 1528036,ec37pdk1,35756,Limestone County,"4547 Pryor Rd, Madison, AL 35756, USA",34.6189329,-86.8553996
Mix 1563637,ec3qha2u,35756,Limestone County,"4547 Pryor Rd, Madison, AL 35756, USA",34.6189329,-86.8553996
Mix 1588892,ec32ku2g,35756,Limestone County,"4547 Pryor Rd, Madison, AL 35756, USA",34.6189329,-86.8553996
Mix 1588851,ec3h4hjg,35756,Limestone County,"4547 Pryor Rd, Madison, AL 35756, USA",34.6189329,-86.8553996
Mix 1595394,ec3gt9k2,35756,Limestone County,"4547 Pryor Rd, Madison, AL 35756, USA",34.6189329,-86.8553996
Mix 1588852,ec32e41w,35756,Limestone County,"4547 Pryor Rd, Madison, AL 35756, USA",34.6189329,-86.8553996
Mix 1589198,ec3ya2nk,35756,Limestone County,"4547 Pryor Rd, Madison, AL 35756, USA",34.6189329,-86.8553996
Mix 1618784,ec3zt6x3,35756,Limestone County,"4547 Pryor Rd, Madison, AL 35756, USA",34.6189329,-86.8553996
Mix 1589806,ec3sp4mc,35756,Limestone County,"4547 Pryor Rd, Madison, AL 35756, USA",34.6189329,-86.8553996
Mix 1589209,ec35jfa0,35756,Limestone County,"4547 Pryor Rd, Madison, AL 35756, USA",34.6189329,-86.8553996
Mix 1605139,ec3a7y6f,35756,Limestone County,"4547 Pryor Rd, Madison, AL 35756, USA",34.6189329,-86.8553996
Mix 1596306,ec3jtnyr,35756,Limestone County,"4547 Pryor Rd, Madison, AL 35756, USA",34.6189329,-86.8553996
Mix 1618897,ec32rrc6,35756,Limestone County,"4547 Pryor Rd, Madison, AL 35756, USA",34.6189329,-86.8553996
Mix 1615342,ec3u77qe,35756,Limestone County,"4547 Pryor Rd, Madison, AL 35756, USA",34.6189329,-86.8553996
Mix 1594473,ec30578a,35756,Limestone County,"4547 Pryor Rd, Madison, AL 35756, USA",34.6189329,-86.8553996
Mix 1572692,ec3euqa9,36303,Houston County,"269 Twitchell Rd, Dothan, AL 36303, USA",31.2446095,-85.3982731
Mix 1589122,ec3yccb9,36526,Baldwin County,"25640 Co Rd 13, Daphne, AL 36526, USA",30.5987899,-87.8684399
Mix 1618966,ec3z8a1n,36526,Baldwin County,"25640 Co Rd 13, Daphne, AL 36526, USA",30.5987899,-87.8684399
Mix 1614601,ec3h50na,36526,Baldwin County,"25640 Co Rd 13, Daphne, AL 36526, USA",30.5987899,-87.8684399
Mix 1531496,ec3kfcy0,36303,Houston County,"269 Twitchell Rd, Dothan, AL 36303, USA",31.2446095,-85.3982731
Mix 1618798,ec3rna1a,36526,Baldwin County,"25640 Co Rd 13, Daphne, AL 36526, USA",30.5987899,-87.8684399
Mix 1612387,ec3w8341,36526,Baldwin County,"25640 Co Rd 13, Daphne, AL 36526, USA",30.5987899,-87.8684399
Mix 1550917,ec3s354f,36526,Baldwin County,"25640 Co Rd 13, Daphne, AL 36526, USA",30.5987899,-87.8684399
Mix 1528301,ec3yncnu,36526,Baldwin County,"25640 Co Rd 13, Daphne, AL 36526, USA",30.5987899,-87.8684399
Mix 1528390,ec3ruq1q,36526,Baldwin County,"25640 Co Rd 13, Daphne, AL 36526, USA",30.5987899,-87.8684399
Mix 1528276,ec33q52w,36526,Baldwin County,"25640 Co Rd 13, Daphne, AL 36526, USA",30.5987899,-87.8684399
Mix 1528391,ec3u9z6c,36526,Baldwin County,"25640 Co Rd 13, Daphne, AL 36526, USA",30.5987899,-87.8684399
Mix 1528393,ec33nn6h,36526,Baldwin County,"25640 Co Rd 13, Daphne, AL 36526, USA",30.5987899,-87.8684399
Mix 1528400,ec303t4k,36526,Baldwin County,"25640 Co Rd 13, Daphne, AL 36526, USA",30.5987899,-87.8684399
Mix 1528402,ec3asu2m,36526,Baldwin County,"25640 Co Rd 13, Daphne, AL 36526, USA",30.5987899,-87.8684399
Mix 1528415,ec3csgyr,36526,Baldwin County,"25640 Co Rd 13, Daphne, AL 36526, USA",30.5987899,-87.8684399
Mix 1528467,ec3rxdxy,36526,Baldwin County,"25640 Co Rd 13, Daphne, AL 36526, USA",30.5987899,-87.8684399
Mix 1528397,ec3cc75c,36526,Baldwin County,"25640 Co Rd 13, Daphne, AL 36526, USA",30.5987899,-87.8684399
Mix 1528460,ec3ksf1m,36526,Baldwin County,"25640 Co Rd 13, Daphne, AL 36526, USA",30.5987899,-87.8684399
Mix 1528435,ec3nt48j,36526,Baldwin County,"25640 Co Rd 13, Daphne, AL 36526, USA",30.5987899,-87.8684399
Mix 1531500,ec30jsu1,36303,Houston County,"269 Twitchell Rd, Dothan, AL 36303, USA",31.2446095,-85.3982731
Mix 1532828,ec39h47h,36303,Houston County,"269 Twitchell Rd, Dothan, AL 36303, USA",31.2446095,-85.3982731
Mix 1528305,ec3nbjpr,36526,Baldwin County,"25640 Co Rd 13, Daphne, AL 36526, USA",30.5987899,-87.8684399
Mix 1570870,ec3uxdbm,36526,Baldwin County,"25640 Co Rd 13, Daphne, AL 36526, USA",30.5987899,-87.8684399
Mix 1526500,ec3w57z9,36303,Houston County,"269 Twitchell Rd, Dothan, AL 36303, USA",31.2446095,-85.3982731
Mix 1526291,ec3yf1tr,36303,Houston County,"269 Twitchell Rd, Dothan, AL 36303, USA",31.2446095,-85.3982731
Mix 1526531,ec3ad4y0,36303,Houston County,"269 Twitchell Rd, Dothan, AL 36303, USA",31.2446095,-85.3982731
Mix 1526520,ec3a5ez7,36303,Houston County,"269 Twitchell Rd, Dothan, AL 36303, USA",31.2446095,-85.3982731
Mix 1526522,ec3np3tx,36303,Houston County,"269 Twitchell Rd, Dothan, AL 36303, USA",31.2446095,-85.3982731
Mix 1527907,ec3zwwbs,36303,Houston County,"269 Twitchell Rd, Dothan, AL 36303, USA",31.2446095,-85.3982731
Mix 1526530,ec333s6d,36303,Houston County,"269 Twitchell Rd, Dothan, AL 36303, USA",31.2446095,-85.3982731
Mix 1530984,ec3d5j7a,36303,Houston County,"269 Twitchell Rd, Dothan, AL 36303, USA",31.2446095,-85.3982731
Mix 1531471,ec3cgajz,36303,Houston County,"269 Twitchell Rd, Dothan, AL 36303, USA",31.2446095,-85.3982731
Mix 1529499,ec32tu5b,36303,Houston County,"269 Twitchell Rd, Dothan, AL 36303, USA",31.2446095,-85.3982731
Mix 1531470,ec3dy8su,36303,Houston County,"269 Twitchell Rd, Dothan, AL 36303, USA",31.2446095,-85.3982731
Mix 1531490,ec3qstyt,36303,Houston County,"269 Twitchell Rd, Dothan, AL 36303, USA",31.2446095,-85.3982731
Mix 1531495,ec31tsba,36303,Houston County,"269 Twitchell Rd, Dothan, AL 36303, USA",31.2446095,-85.3982731
Mix 1531467,ec3j1f89,36303,Houston County,"269 Twitchell Rd, Dothan, AL 36303, USA",31.2446095,-85.3982731
Mix 1531499,ec3eywr1,36303,Houston County,"269 Twitchell Rd, Dothan, AL 36303, USA",31.2446095,-85.3982731
Mix 1531498,ec3dh5kj,36303,Houston County,"269 Twitchell Rd, Dothan, AL 36303, USA",31.2446095,-85.3982731
Mix 1589397,ec303s7z,35749,Madison County,"5679 AL-53, Harvest, AL 35749, USA",34.8402605,-86.70974439999999
Mix 1588855,ec3f1h65,35749,Madison County,"5679 AL-53, Harvest, AL 35749, USA",34.8402605,-86.70974439999999
Mix 1588926,ec3yej8b,35749,Madison County,"5679 AL-53, Harvest, AL 35749, USA",34.8402605,-86.70974439999999
Mix 1528036,ec3xmx74,35749,Madison County,"5679 AL-53, Harvest, AL 35749, USA",34.8402605,-86.70974439999999
Mix 1588848,ec33x25q,35749,Madison County,"5679 AL-53, Harvest, AL 35749, USA",34.8402605,-86.70974439999999
Mix 1588850,ec3w79ak,35749,Madison County,"5679 AL-53, Harvest, AL 35749, USA",34.8402605,-86.70974439999999
Mix 1527818,ec33sqzj,35749,Madison County,"5679 AL-53, Harvest, AL 35749, USA",34.8402605,-86.70974439999999
Mix 1588851,ec3xasb2,35749,Madison County,"5679 AL-53, Harvest, AL 35749, USA",34.8402605,-86.70974439999999
Mix 1531296,ec36fsns,35749,Madison County,"5679 AL-53, Harvest, AL 35749, USA",34.8402605,-86.70974439999999
Mix 1590323,ec3b623q,35749,Madison County,"5679 AL-53, Harvest, AL 35749, USA",34.8402605,-86.70974439999999
Mix 1590324,ec32z5qc,35749,Madison County,"5679 AL-53, Harvest, AL 35749, USA",34.8402605,-86.70974439999999
Mix 1615342,ec3xr0b2,35749,Madison County,"5679 AL-53, Harvest, AL 35749, USA",34.8402605,-86.70974439999999
Mix 1604628,ec39ehsp,35749,Madison County,"5679 AL-53, Harvest, AL 35749, USA",34.8402605,-86.70974439999999
Mix 1620176,ec35rtcj,35749,Madison County,"5679 AL-53, Harvest, AL 35749, USA",34.8402605,-86.70974439999999
Mix 1618896,ec37x9td,35749,Madison County,"5679 AL-53, Harvest, AL 35749, USA",34.8402605,-86.70974439999999
Mix 1618897,ec30k17z,35749,Madison County,"5679 AL-53, Harvest, AL 35749, USA",34.8402605,-86.70974439999999
Mix 1540313,ec3emg6y,35802,Madison County,"2020 Vermont Rd SW, Huntsville, AL 35802, USA",34.672278,-86.5931972
Mix 1527818,ec3533x3,35802,Madison County,"2020 Vermont Rd SW, Huntsville, AL 35802, USA",34.672278,-86.5931972
Mix 1528036,ec3zbsc6,35802,Madison County,"2020 Vermont Rd SW, Huntsville, AL 35802, USA",34.672278,-86.5931972
Mix 1588851,ec3zgy0z,35802,Madison County,"2020 Vermont Rd SW, Huntsville, AL 35802, USA",34.672278,-86.5931972
Mix 1588848,ec3ad5h8,35802,Madison County,"2020 Vermont Rd SW, Huntsville, AL 35802, USA",34.672278,-86.5931972
Mix 1527816,ec36531w,35802,Madison County,"2020 Vermont Rd SW, Huntsville, AL 35802, USA",34.672278,-86.5931972
Mix 1588892,ec3z4fxw,35802,Madison County,"2020 Vermont Rd SW, Huntsville, AL 35802, USA",34.672278,-86.5931972
Mix 1589202,ec3nrd8t,35802,Madison County,"2020 Vermont Rd SW, Huntsville, AL 35802, USA",34.672278,-86.5931972
Mix 1588926,ec33wmbe,35802,Madison County,"2020 Vermont Rd SW, Huntsville, AL 35802, USA",34.672278,-86.5931972
Mix 1588850,ec3j4rea,35802,Madison County,"2020 Vermont Rd SW, Huntsville, AL 35802, USA",34.672278,-86.5931972
Mix 1588852,ec3baztb,35802,Madison County,"2020 Vermont Rd SW, Huntsville, AL 35802, USA",34.672278,-86.5931972
Mix 1588855,ec3fbq8x,35802,Madison County,"2020 Vermont Rd SW, Huntsville, AL 35802, USA",34.672278,-86.5931972
Mix 1568558,ec3pnezx,35802,Madison County,"2020 Vermont Rd SW, Huntsville, AL 35802, USA",34.672278,-86.5931972
Mix 1594343,ec3f8tgc,35802,Madison County,"2020 Vermont Rd SW, Huntsville, AL 35802, USA",34.672278,-86.5931972
Mix 1589047,ec3kb1hp,35802,Madison County,"2020 Vermont Rd SW, Huntsville, AL 35802, USA",34.672278,-86.5931972
Mix 1589209,ec3j204p,35802,Madison County,"2020 Vermont Rd SW, Huntsville, AL 35802, USA",34.672278,-86.5931972
Mix 1594473,ec33hgq8,35802,Madison County,"2020 Vermont Rd SW, Huntsville, AL 35802, USA",34.672278,-86.5931972
Mix 1589400,ec3egbhb,35802,Madison County,"2020 Vermont Rd SW, Huntsville, AL 35802, USA",34.672278,-86.5931972
Mix 1598245,ec3hcqz6,35802,Madison County,"2020 Vermont Rd SW, Huntsville, AL 35802, USA",34.672278,-86.5931972
Mix 1590324,ec33hsyw,35802,Madison County,"2020 Vermont Rd SW, Huntsville, AL 35802, USA",34.672278,-86.5931972
Mix 1604628,ec3rf7jt,35802,Madison County,"2020 Vermont Rd SW, Huntsville, AL 35802, USA",34.672278,-86.5931972
Mix 1615342,ec31qscw,35802,Madison County,"2020 Vermont Rd SW, Huntsville, AL 35802, USA",34.672278,-86.5931972
Mix 1598941,ec3599eg,35802,Madison County,"2020 Vermont Rd SW, Huntsville, AL 35802, USA",34.672278,-86.5931972
Mix 1620176,ec39hjw0,35802,Madison County,"2020 Vermont Rd SW, Huntsville, AL 35802, USA",34.672278,-86.5931972
Mix 1619781,ec3gj0ar,35802,Madison County,"2020 Vermont Rd SW, Huntsville, AL 35802, USA",34.672278,-86.5931972
Mix 1618897,ec3d77dx,35802,Madison County,"2020 Vermont Rd SW, Huntsville, AL 35802, USA",34.672278,-86.5931972
Mix 1589209,ec3unuuh,35749,Madison County,"5679 AL-53, Harvest, AL 35749, USA",34.8402605,-86.70974439999999
Mix 1526186,ec39geqb,35210,Jefferson County,"2653 Ruffner Rd, Birmingham, AL 35210, USA",33.5790464,-86.6676012
Mix 1526157,ec374xj6,35210,Jefferson County,"2653 Ruffner Rd, Birmingham, AL 35210, USA",33.5790464,-86.6676012
Mix 1526185,ec3zqf2k,35210,Jefferson County,"2653 Ruffner Rd, Birmingham, AL 35210, USA",33.5790464,-86.6676012
Mix 1526240,ec3jef7a,35210,Jefferson County,"2653 Ruffner Rd, Birmingham, AL 35210, USA",33.5790464,-86.6676012
Mix 1526520,ec3hqk5z,35210,Jefferson County,"2653 Ruffner Rd, Birmingham, AL 35210, USA",33.5790464,-86.6676012
Mix 1572527,ec3g7thh,35210,Jefferson County,"2653 Ruffner Rd, Birmingham, AL 35210, USA",33.5790464,-86.6676012
Mix 1526140,ec30rtmk,35210,Jefferson County,"2653 Ruffner Rd, Birmingham, AL 35210, USA",33.5790464,-86.6676012
Mix 1620193,ec3bafyy,35210,Jefferson County,"2653 Ruffner Rd, Birmingham, AL 35210, USA",33.5790464,-86.6676012
Mix 1526280,ec3fehtq,35210,Jefferson County,"2653 Ruffner Rd, Birmingham, AL 35210, USA",33.5790464,-86.6676012
Mix 1526228,ec3hgeyj,35210,Jefferson County,"2653 Ruffner Rd, Birmingham, AL 35210, USA",33.5790464,-86.6676012
Mix 1620194,ec3kp6cd,35210,Jefferson County,"2653 Ruffner Rd, Birmingham, AL 35210, USA",33.5790464,-86.6676012
Mix 1526664,ec3ct65s,35210,Jefferson County,"2653 Ruffner Rd, Birmingham, AL 35210, USA",33.5790464,-86.6676012
Mix 1616229,ec3ta1pg,35210,Jefferson County,"2653 Ruffner Rd, Birmingham, AL 35210, USA",33.5790464,-86.6676012
Mix 1620331,ec3w9603,35210,Jefferson County,"2653 Ruffner Rd, Birmingham, AL 35210, USA",33.5790464,-86.6676012
Mix 1620900,ec3dwuub,35210,Jefferson County,"2653 Ruffner Rd, Birmingham, AL 35210, USA",33.5790464,-86.6676012
Mix 1622002,ec33x5up,35210,Jefferson County,"2653 Ruffner Rd, Birmingham, AL 35210, USA",33.5790464,-86.6676012
Mix 1621528,ec36gp5b,35210,Jefferson County,"2653 Ruffner Rd, Birmingham, AL 35210, USA",33.5790464,-86.6676012
Mix 1622930,ec3er5jg,35210,Jefferson County,"2653 Ruffner Rd, Birmingham, AL 35210, USA",33.5790464,-86.6676012
Mix 1526137,ec3hf24a,35221,Jefferson County,"911 Wenonah Rd, Birmingham, AL 35221, USA",33.4330148,-86.9042697
Mix 1526186,ec3tcza4,35221,Jefferson County,"911 Wenonah Rd, Birmingham, AL 35221, USA",33.4330148,-86.9042697
Mix 1526059,ec30sp2u,35221,Jefferson County,"911 Wenonah Rd, Birmingham, AL 35221, USA",33.4330148,-86.9042697
Mix 1526143,ec3105xw,35221,Jefferson County,"911 Wenonah Rd, Birmingham, AL 35221, USA",33.4330148,-86.9042697
Mix 1526228,ec35fm08,35221,Jefferson County,"911 Wenonah Rd, Birmingham, AL 35221, USA",33.4330148,-86.9042697
Mix 1526203,ec3qbqsd,35221,Jefferson County,"911 Wenonah Rd, Birmingham, AL 35221, USA",33.4330148,-86.9042697
Mix 1526280,ec3c8mq0,35221,Jefferson County,"911 Wenonah Rd, Birmingham, AL 35221, USA",33.4330148,-86.9042697
Mix 1526664,ec3kyezy,35221,Jefferson County,"911 Wenonah Rd, Birmingham, AL 35221, USA",33.4330148,-86.9042697
Mix 1572528,ec3n3gf9,35221,Jefferson County,"911 Wenonah Rd, Birmingham, AL 35221, USA",33.4330148,-86.9042697
Mix 1615388,ec3mu8up,35221,Jefferson County,"911 Wenonah Rd, Birmingham, AL 35221, USA",33.4330148,-86.9042697
Mix 1620900,ec3m1ztm,35221,Jefferson County,"911 Wenonah Rd, Birmingham, AL 35221, USA",33.4330148,-86.9042697
Mix 1616229,ec39c42g,35221,Jefferson County,"911 Wenonah Rd, Birmingham, AL 35221, USA",33.4330148,-86.9042697
Mix 1620330,ec38csd1,35221,Jefferson County,"911 Wenonah Rd, Birmingham, AL 35221, USA",33.4330148,-86.9042697
Mix 1620331,ec3xqfjf,35221,Jefferson County,"911 Wenonah Rd, Birmingham, AL 35221, USA",33.4330148,-86.9042697
Mix 1621528,ec3wyt85,35221,Jefferson County,"911 Wenonah Rd, Birmingham, AL 35221, USA",33.4330148,-86.9042697
Mix 1621789,ec3yp9c1,35221,Jefferson County,"911 Wenonah Rd, Birmingham, AL 35221, USA",33.4330148,-86.9042697
Mix 1622932,ec377r09,35221,Jefferson County,"911 Wenonah Rd, Birmingham, AL 35221, USA",33.4330148,-86.9042697
Mix 1531870,ec3ccqpe,36117,Montgomery County,"11400 Wares Ferry Rd, Montgomery, AL 36117, USA",32.3974956,-86.10835540000001
Mix 1528273,ec30kmn6,36535,Baldwin County,"21551 Doc McDuffie Rd, Foley, AL 36535, USA",30.390202,-87.656869
Mix 1526750,ec3d8u7a,36535,Baldwin County,"21551 Doc McDuffie Rd, Foley, AL 36535, USA",30.390202,-87.656869
Mix 1526291,ec3fr4de,36535,Baldwin County,"21551 Doc McDuffie Rd, Foley, AL 36535, USA",30.390202,-87.656869
Mix 1528270,ec31nsu3,36535,Baldwin County,"21551 Doc McDuffie Rd, Foley, AL 36535, USA",30.390202,-87.656869
Mix 1528269,ec39dwgq,36535,Baldwin County,"21551 Doc McDuffie Rd, Foley, AL 36535, USA",30.390202,-87.656869
Mix 1528316,ec3x1k3a,36535,Baldwin County,"21551 Doc McDuffie Rd, Foley, AL 36535, USA",30.390202,-87.656869
Mix 1528311,ec36yw9a,36535,Baldwin County,"21551 Doc McDuffie Rd, Foley, AL 36535, USA",30.390202,-87.656869
Mix 1528393,ec38kq6n,36535,Baldwin County,"21551 Doc McDuffie Rd, Foley, AL 36535, USA",30.390202,-87.656869
Mix 1528623,ec3prqch,36535,Baldwin County,"21551 Doc McDuffie Rd, Foley, AL 36535, USA",30.390202,-87.656869
Mix 1528347,ec3j9764,36535,Baldwin County,"21551 Doc McDuffie Rd, Foley, AL 36535, USA",30.390202,-87.656869
Mix 1528610,ec3uqans,36535,Baldwin County,"21551 Doc McDuffie Rd, Foley, AL 36535, USA",30.390202,-87.656869
Mix 1528617,ec3ac604,36535,Baldwin County,"21551 Doc McDuffie Rd, Foley, AL 36535, USA",30.390202,-87.656869
Mix 1528464,ec3591jr,36535,Baldwin County,"21551 Doc McDuffie Rd, Foley, AL 36535, USA",30.390202,-87.656869
Mix 1528834,ec35e3m5,36535,Baldwin County,"21551 Doc McDuffie Rd, Foley, AL 36535, USA",30.390202,-87.656869
Mix 1529168,ec3furpz,36535,Baldwin County,"21551 Doc McDuffie Rd, Foley, AL 36535, USA",30.390202,-87.656869
Mix 1528815,ec3thy4n,36535,Baldwin County,"21551 Doc McDuffie Rd, Foley, AL 36535, USA",30.390202,-87.656869
Mix 1581734,ec33kqzb,36535,Baldwin County,"21551 Doc McDuffie Rd, Foley, AL 36535, USA",30.390202,-87.656869
Mix 1591116,ec3hhe03,36535,Baldwin County,"21551 Doc McDuffie Rd, Foley, AL 36535, USA",30.390202,-87.656869
Mix 1616901,ec312395,36535,Baldwin County,"21551 Doc McDuffie Rd, Foley, AL 36535, USA",30.390202,-87.656869
Mix 1614601,ec3xjmym,36535,Baldwin County,"21551 Doc McDuffie Rd, Foley, AL 36535, USA",30.390202,-87.656869
Mix 1622580,ec3ytr9e,36535,Baldwin County,"21551 Doc McDuffie Rd, Foley, AL 36535, USA",30.390202,-87.656869
Mix 1621434,ec31p9wh,36535,Baldwin County,"21551 Doc McDuffie Rd, Foley, AL 36535, USA",30.390202,-87.656869
Mix 1528691,ec3jpsuh,36535,Baldwin County,"21551 Doc McDuffie Rd, Foley, AL 36535, USA",30.390202,-87.656869
Mix 1531873,ec3jj823,36117,Montgomery County,"11400 Wares Ferry Rd, Montgomery, AL 36117, USA",32.3974956,-86.10835540000001
Mix 1531868,ec35xxw0,36117,Montgomery County,"11400 Wares Ferry Rd, Montgomery, AL 36117, USA",32.3974956,-86.10835540000001
Mix 1531865,ec33sfqm,36117,Montgomery County,"11400 Wares Ferry Rd, Montgomery, AL 36117, USA",32.3974956,-86.10835540000001
Mix 1531869,ec30245n,36117,Montgomery County,"11400 Wares Ferry Rd, Montgomery, AL 36117, USA",32.3974956,-86.10835540000001
Mix 1531914,ec32m7ap,36117,Montgomery County,"11400 Wares Ferry Rd, Montgomery, AL 36117, USA",32.3974956,-86.10835540000001
Mix 1531876,ec334nq1,36117,Montgomery County,"11400 Wares Ferry Rd, Montgomery, AL 36117, USA",32.3974956,-86.10835540000001
Mix 1526522,ec3akqxf,36117,Montgomery County,"11400 Wares Ferry Rd, Montgomery, AL 36117, USA",32.3974956,-86.10835540000001
Mix 1526500,ec3q5yr0,36117,Montgomery County,"11400 Wares Ferry Rd, Montgomery, AL 36117, USA",32.3974956,-86.10835540000001
Mix 1531872,ec3s5y5k,36117,Montgomery County,"11400 Wares Ferry Rd, Montgomery, AL 36117, USA",32.3974956,-86.10835540000001
Mix 1531899,ec3ydynh,36117,Montgomery County,"11400 Wares Ferry Rd, Montgomery, AL 36117, USA",32.3974956,-86.10835540000001
Mix 1567975,ec35gp3h,36117,Montgomery County,"11400 Wares Ferry Rd, Montgomery, AL 36117, USA",32.3974956,-86.10835540000001
Mix 1531901,ec3h47ky,36117,Montgomery County,"11400 Wares Ferry Rd, Montgomery, AL 36117, USA",32.3974956,-86.10835540000001
Mix 1620331,ec33qzmm,36117,Montgomery County,"11400 Wares Ferry Rd, Montgomery, AL 36117, USA",32.3974956,-86.10835540000001
Mix 1618916,ec3dcw4u,36117,Montgomery County,"11400 Wares Ferry Rd, Montgomery, AL 36117, USA",32.3974956,-86.10835540000001
Mix 1531930,ec33yb7j,36117,Montgomery County,"11400 Wares Ferry Rd, Montgomery, AL 36117, USA",32.3974956,-86.10835540000001
Mix 1531924,ec3txj8w,36117,Montgomery County,"11400 Wares Ferry Rd, Montgomery, AL 36117, USA",32.3974956,-86.10835540000001
Mix 1531863,ec3gbhxu,36804,Lee County,"2101 Poplar St, Opelika, AL 36804, USA",32.6270395,-85.37598799999999
Mix 1526522,ec3ac1k4,36804,Lee County,"2101 Poplar St, Opelika, AL 36804, USA",32.6270395,-85.37598799999999
Mix 1531868,ec3ejmtr,36804,Lee County,"2101 Poplar St, Opelika, AL 36804, USA",32.6270395,-85.37598799999999
Mix 1531879,ec3x9jmg,36804,Lee County,"2101 Poplar St, Opelika, AL 36804, USA",32.6270395,-85.37598799999999
Mix 1531914,ec36wtm1,36804,Lee County,"2101 Poplar St, Opelika, AL 36804, USA",32.6270395,-85.37598799999999
Mix 1531889,ec3j5kfy,36804,Lee County,"2101 Poplar St, Opelika, AL 36804, USA",32.6270395,-85.37598799999999
Mix 1532018,ec3nnp6g,36804,Lee County,"2101 Poplar St, Opelika, AL 36804, USA",32.6270395,-85.37598799999999
Mix 1531901,ec3w0y8t,36804,Lee County,"2101 Poplar St, Opelika, AL 36804, USA",32.6270395,-85.37598799999999
Mix 1531973,ec3srbmb,36804,Lee County,"2101 Poplar St, Opelika, AL 36804, USA",32.6270395,-85.37598799999999
Mix 1532020,ec31fs5m,36804,Lee County,"2101 Poplar St, Opelika, AL 36804, USA",32.6270395,-85.37598799999999
Mix 1532250,ec38wety,36804,Lee County,"2101 Poplar St, Opelika, AL 36804, USA",32.6270395,-85.37598799999999
Mix 1532040,ec38059s,36804,Lee County,"2101 Poplar St, Opelika, AL 36804, USA",32.6270395,-85.37598799999999
Mix 1532005,ec39cmwf,36804,Lee County,"2101 Poplar St, Opelika, AL 36804, USA",32.6270395,-85.37598799999999
Mix 1617627,ec3wz0ea,36804,Lee County,"2101 Poplar St, Opelika, AL 36804, USA",32.6270395,-85.37598799999999
Mix 1532796,ec3mn6uq,36804,Lee County,"2101 Poplar St, Opelika, AL 36804, USA",32.6270395,-85.37598799999999
Mix 1621528,ec3m5sff,36804,Lee County,"2101 Poplar St, Opelika, AL 36804, USA",32.6270395,-85.37598799999999
Mix 1623331,ec3gjr13,36804,Lee County,"2101 Poplar St, Opelika, AL 36804, USA",32.6270395,-85.37598799999999
CarbonBuiltCMU,ec3ue69r,35014,Talladega County,"Carr Rd, Alpine, AL 35014, USA",33.4073945,-86.2886821
Mix 1526059,ec35yxjw,35207,Jefferson County,"4590 F L Shuttlesworth Dr, Birmingham, AL 35207, USA",33.5696959,-86.7893782
Mix 1526186,ec3nxbed,35207,Jefferson County,"4590 F L Shuttlesworth Dr, Birmingham, AL 35207, USA",33.5696959,-86.7893782
Mix 1526060,ec3c1e43,35207,Jefferson County,"4590 F L Shuttlesworth Dr, Birmingham, AL 35207, USA",33.5696959,-86.7893782
Mix 1526143,ec3bh664,35207,Jefferson County,"4590 F L Shuttlesworth Dr, Birmingham, AL 35207, USA",33.5696959,-86.7893782
Mix 1526185,ec306qgp,35207,Jefferson County,"4590 F L Shuttlesworth Dr, Birmingham, AL 35207, USA",33.5696959,-86.7893782
Mix 1526280,ec3s6yfg,35207,Jefferson County,"4590 F L Shuttlesworth Dr, Birmingham, AL 35207, USA",33.5696959,-86.7893782
Mix 1526228,ec3xzy6p,35207,Jefferson County,"4590 F L Shuttlesworth Dr, Birmingham, AL 35207, USA",33.5696959,-86.7893782
Mix 1572527,ec3s9w2x,35207,Jefferson County,"4590 F L Shuttlesworth Dr, Birmingham, AL 35207, USA",33.5696959,-86.7893782
Mix 1530965,ec3kmjq9,35207,Jefferson County,"4590 F L Shuttlesworth Dr, Birmingham, AL 35207, USA",33.5696959,-86.7893782
Mix 1526240,ec3rpwuy,35207,Jefferson County,"4590 F L Shuttlesworth Dr, Birmingham, AL 35207, USA",33.5696959,-86.7893782
Mix 1616229,ec3dp2pf,35207,Jefferson County,"4590 F L Shuttlesworth Dr, Birmingham, AL 35207, USA",33.5696959,-86.7893782
Mix 1526520,ec3p755s,35207,Jefferson County,"4590 F L Shuttlesworth Dr, Birmingham, AL 35207, USA",33.5696959,-86.7893782
Mix 1621789,ec3jbd90,35207,Jefferson County,"4590 F L Shuttlesworth Dr, Birmingham, AL 35207, USA",33.5696959,-86.7893782
Mix 1620900,ec3b6r5x,35207,Jefferson County,"4590 F L Shuttlesworth Dr, Birmingham, AL 35207, USA",33.5696959,-86.7893782
Mix 1620331,ec3bu3g9,35207,Jefferson County,"4590 F L Shuttlesworth Dr, Birmingham, AL 35207, USA",33.5696959,-86.7893782
Mix 1620194,ec3e3qe1,35207,Jefferson County,"4590 F L Shuttlesworth Dr, Birmingham, AL 35207, USA",33.5696959,-86.7893782
Mix 1592095,ec3eturm,35401,Tuscaloosa County,"3150 15th St, Tuscaloosa, AL 35401, USA",33.2014752,-87.5760985
Mix 1526520,ec3f3p9e,36081,Pike County,"212 Montgomery St, Troy, AL 36081, USA",31.8064464,-85.9922422
Mix 1531499,ec3b4rmt,36081,Pike County,"212 Montgomery St, Troy, AL 36081, USA",31.8064464,-85.9922422
Mix 1531471,ec383177,36081,Pike County,"212 Montgomery St, Troy, AL 36081, USA",31.8064464,-85.9922422
Mix 1528826,ec3r3b4r,36081,Pike County,"212 Montgomery St, Troy, AL 36081, USA",31.8064464,-85.9922422
Mix 1526171,ec3s2pbm,35401,Tuscaloosa County,"3150 15th St, Tuscaloosa, AL 35401, USA",33.2014752,-87.5760985
Mix 1526284,ec39rkgf,36081,Pike County,"212 Montgomery St, Troy, AL 36081, USA",31.8064464,-85.9922422
Mix 1531467,ec3h5upn,36081,Pike County,"212 Montgomery St, Troy, AL 36081, USA",31.8064464,-85.9922422
Mix 1529499,ec3xqhzx,36081,Pike County,"212 Montgomery St, Troy, AL 36081, USA",31.8064464,-85.9922422
Mix 1558628,ec3f6669,36081,Pike County,"212 Montgomery St, Troy, AL 36081, USA",31.8064464,-85.9922422
Mix 1531498,ec31rctn,36081,Pike County,"212 Montgomery St, Troy, AL 36081, USA",31.8064464,-85.9922422
Mix 1531500,ec3k3khh,36081,Pike County,"212 Montgomery St, Troy, AL 36081, USA",31.8064464,-85.9922422
Mix 1526146,ec3jd2yb,35401,Tuscaloosa County,"3150 15th St, Tuscaloosa, AL 35401, USA",33.2014752,-87.5760985
Mix 1526186,ec39u0sa,35401,Tuscaloosa County,"3150 15th St, Tuscaloosa, AL 35401, USA",33.2014752,-87.5760985
Mix 1526522,ec3j9jnr,36081,Pike County,"212 Montgomery St, Troy, AL 36081, USA",31.8064464,-85.9922422
Mix 1526500,ec389a0u,36081,Pike County,"212 Montgomery St, Troy, AL 36081, USA",31.8064464,-85.9922422
Mix 1527907,ec366djp,36081,Pike County,"212 Montgomery St, Troy, AL 36081, USA",31.8064464,-85.9922422
Mix 1526591,ec3yy7um,36081,Pike County,"212 Montgomery St, Troy, AL 36081, USA",31.8064464,-85.9922422
Mix 1529085,ec3x8wea,36081,Pike County,"212 Montgomery St, Troy, AL 36081, USA",31.8064464,-85.9922422
Mix 1532828,ec3g29hx,36081,Pike County,"212 Montgomery St, Troy, AL 36081, USA",31.8064464,-85.9922422
Mix 1584099,ec3gm02u,36081,Pike County,"212 Montgomery St, Troy, AL 36081, USA",31.8064464,-85.9922422
Mix 1603054,ec31fnsq,36081,Pike County,"212 Montgomery St, Troy, AL 36081, USA",31.8064464,-85.9922422
Mix 1526059,ec3tt8hy,35401,Tuscaloosa County,"3150 15th St, Tuscaloosa, AL 35401, USA",33.2014752,-87.5760985
Mix 1526143,ec3n641g,35401,Tuscaloosa County,"3150 15th St, Tuscaloosa, AL 35401, USA",33.2014752,-87.5760985
Mix 1526137,ec3bphc7,35401,Tuscaloosa County,"3150 15th St, Tuscaloosa, AL 35401, USA",33.2014752,-87.5760985
Mix 1526203,ec3rzeq3,35401,Tuscaloosa County,"3150 15th St, Tuscaloosa, AL 35401, USA",33.2014752,-87.5760985
Mix 1526148,ec33ccuk,35401,Tuscaloosa County,"3150 15th St, Tuscaloosa, AL 35401, USA",33.2014752,-87.5760985
Mix 1526139,ec3qny6p,35401,Tuscaloosa County,"3150 15th St, Tuscaloosa, AL 35401, USA",33.2014752,-87.5760985
Mix 1556003,ec3t9785,35401,Tuscaloosa County,"3150 15th St, Tuscaloosa, AL 35401, USA",33.2014752,-87.5760985
Mix 1526240,ec3fy092,35401,Tuscaloosa County,"3150 15th St, Tuscaloosa, AL 35401, USA",33.2014752,-87.5760985
Mix 1592429,ec30404k,35401,Tuscaloosa County,"3150 15th St, Tuscaloosa, AL 35401, USA",33.2014752,-87.5760985
Mix 1526280,ec36fycj,35401,Tuscaloosa County,"3150 15th St, Tuscaloosa, AL 35401, USA",33.2014752,-87.5760985
Mix 1620331,ec3gnqmn,35401,Tuscaloosa County,"3150 15th St, Tuscaloosa, AL 35401, USA",33.2014752,-87.5760985
Mix 1530965,ec348wqd,35401,Tuscaloosa County,"3150 15th St, Tuscaloosa, AL 35401, USA",33.2014752,-87.5760985
USG Sheetrock® Brand EcoSmart Panels Mold Tough® Firecode® X,ec3njmu6,35740,Jackson,"100 D.J. Nootens Drive, Bridgeport, AL 35740",34.96334,-85.72804
251127R20S,ec3gnqf5,35094,Jefferson County,"8732 Parkway Dr, Leeds, AL 35094, USA",33.54463,-86.522565
251127S,ec32r6cj,35094,Jefferson County,"8732 Parkway Dr, Leeds, AL 35094, USA",33.54463,-86.522565
370827,ec3cm0rt,35094,Jefferson County,"8732 Parkway Dr, Leeds, AL 35094, USA",33.54463,-86.522565
250827R20,ec33txcq,35094,Jefferson County,"8732 Parkway Dr, Leeds, AL 35094, USA",33.54463,-86.522565
251127R20,ec3c0wb2,35094,Jefferson County,"8732 Parkway Dr, Leeds, AL 35094, USA",33.54463,-86.522565
191527R20,ec3xzc1m,35094,Jefferson County,"8732 Parkway Dr, Leeds, AL 35094, USA",33.54463,-86.522565
Jet Stream® Ultra Blowing Wool Insulation (Lanett),ec34chpf,36863,Chambers County,"Lanett, AL 36863, USA",32.86873910000001,-85.1904971
952227,ec3sgt1p,35094,Jefferson County,"8732 Parkway Dr, Leeds, AL 35094, USA",33.54463,-86.522565
5000508,ec3ft65s,35210,Jefferson County,"2653 Ruffner Rd, Birmingham, AL 35210, USA",33.5790464,-86.6676012
5000578,ec3zspmy,35210,Jefferson County,"2653 Ruffner Rd, Birmingham, AL 35210, USA",33.5790464,-86.6676012
Mix 1589202,ec31c1fk,35749,Madison,"5679 Highway 53, Harvest, AL 35749",34.8403,-86.70974
UltraPlyTM TPO Membrane 45 mils,ec3dcrd2,35674,Colbert County,"393 Denton Rd, Tuscumbia, AL 35674, USA",34.6910337,-87.6579134
5000597,ec3ezauz,35210,Jefferson County,"2653 Ruffner Rd, Birmingham, AL 35210, USA",33.5790464,-86.6676012
Mix 1603417,ec350rup,35749,Madison,"5679 Highway 53, Harvest, AL 35749",34.8403,-86.70974
Mix 1589805,ec3xqp1q,35749,Madison,"5679 Highway 53, Harvest, AL 35749",34.8403,-86.70974
Mix 1589047,ec3zj6pa,35749,Madison,"5679 Highway 53, Harvest, AL 35749",34.8403,-86.70974
Mix 1589804,ec3ak7dj,35749,Madison,"5679 Highway 53, Harvest, AL 35749",34.8403,-86.70974
Mix 1590324,ec3xhd4j,35749,Madison,"5679 Highway 53, Harvest, AL 35749",34.8403,-86.70974
Mix 1562206,ec3swsrx,35749,Madison,"5679 Highway 53, Harvest, AL 35749",34.8403,-86.70974
Mix 1599337,ec3mx27f,35749,Madison,"5679 Highway 53, Harvest, AL 35749",34.8403,-86.70974
Mix 1589806,ec3ugmcb,35749,Madison,"5679 Highway 53, Harvest, AL 35749",34.8403,-86.70974
Mix 1617328,ec3c71xw,35749,Madison,"5679 Highway 53, Harvest, AL 35749",34.8403,-86.70974
Mix 1588850,ec37zaay,35749,Madison,"5679 Highway 53, Harvest, AL 35749",34.8403,-86.70974
Mix 1526650,ec3zp5nd,35749,Madison,"5679 Highway 53, Harvest, AL 35749",34.8403,-86.70974
Mix 1589397,ec3jd1gm,35749,Madison,"5679 Highway 53, Harvest, AL 35749",34.8403,-86.70974
5000700,ec3kncsp,35401,Tuscaloosa County,"3150 15th St, Tuscaloosa, AL 35401, USA",33.2014752,-87.5760985
1555354,ec37aqn7,35601,Morgan County,"3788 State Hwy 20, Decatur, AL 35601, USA",34.62174,-87.081895
Advanced High Strength Steel (AHSS) Products STRENX® & HARDOX®,ec3ue4ae,36505,Mobile,"Highway 43 North, Axis, AL 36505",30.95283,-88.02622
Hot Rolled Steel Coil,ec3xar3h,36505,Mobile,"Highway 43 North, Axis, AL 36505",30.95283,-88.02622
Steel Plate,ec3zb64h,36505,Mobile,"Highway 43 North, Axis, AL 36505",30.95283,-88.02622
ALLEY WRAP™ B,ec3cjm1s,,,,,
1531875,ec33ffqg,36804,Lee County,"2101 Poplar St, Opelika, AL 36804, USA",32.6270395,-85.37598799999999
1532021,ec3wabs1,36804,Lee County,"2101 Poplar St, Opelika, AL 36804, USA",32.6270395,-85.37598799999999
GH-0161-21,ec3q5ha9,35806,Madison County,"6150 Stringfield Rd NW, Huntsville, AL 35806, USA",34.77869099999999,-86.64146459999999
GH-0108-21,ec3x63wz,35806,Madison County,"6150 Stringfield Rd NW, Huntsville, AL 35806, USA",34.77869099999999,-86.64146459999999
"1/2"" Private",ec3802dj,35806,Madison County,"6150 Stringfield Rd NW, Huntsville, AL 35806, USA",34.77869099999999,-86.64146459999999
"1"" Private",ec3fx5cq,35806,Madison County,"6150 Stringfield Rd NW, Huntsville, AL 35806, USA",34.77869099999999,-86.64146459999999
424 3/4” Binder,ec3c64my,36303,Houston County,"645 Twitchell Rd, Dothan, AL 36303, USA",31.2500881,-85.3999996
424 1/2” Private,ec37pmgt,36303,Houston County,"645 Twitchell Rd, Dothan, AL 36303, USA",31.2500881,-85.3999996
M4270613,ec3dptk9,36582,Mobile County,"3151 Hamilton Blvd, Theodore, AL 36582, USA",30.54916059999999,-88.11330269999999
M42B0614,ec3kyeau,36582,Mobile County,"3151 Hamilton Blvd, Theodore, AL 36582, USA",30.54916059999999,-88.11330269999999
M4250614,ec3f9h87,36582,Mobile County,"3151 Hamilton Blvd, Theodore, AL 36582, USA",30.54916059999999,-88.11330269999999
M44B0613,ec3931t2,36582,Mobile County,"3151 Hamilton Blvd, Theodore, AL 36582, USA",30.54916059999999,-88.11330269999999
Mix 1592578,ec37gc98,35210,Jefferson County,"2653 Ruffner Rd, Birmingham, AL 35210, USA",33.5790464,-86.6676012
5000025,ec3d42g1,35674,Colbert County,"1176 US-72, Tuscumbia, AL 35674, USA",34.7116639,-87.7152701
Mix 5000173,ec3hws5s,35210,Jefferson County,"2653 Ruffner Rd, Birmingham, AL 35210, USA",33.5790464,-86.6676012
Mix 4000316,ec300gss,35749,Madison,"5679 Highway 53, Harvest, AL 35749",34.8403,-86.70974
Mix 4000360,ec3fwu3y,35749,Madison,"5679 Highway 53, Harvest, AL 35749",34.8403,-86.70974
Mix 4000232,ec3qpwhf,35749,Madison,"5679 Highway 53, Harvest, AL 35749",34.8403,-86.70974
Mix 4000340,ec38xb1r,35749,Madison,"5679 Highway 53, Harvest, AL 35749",34.8403,-86.70974
Mix 1528815,ec3c576x,36502,Escambia County,"1730 AL-21, Atmore, AL 36502, USA",31.0487807,-87.49295819999999
Mix 1528356,ec32td57,36502,Escambia County,"1730 AL-21, Atmore, AL 36502, USA",31.0487807,-87.49295819999999
Mix 1531863,ec3xe6z8,36830,Lee County,"140 Lewis Ln, Auburn, AL 36830, USA",32.5397015,-85.5328406
Mix 1528464,ec34c9t3,36502,Escambia County,"1730 AL-21, Atmore, AL 36502, USA",31.0487807,-87.49295819999999
Mix 1596004,ec3j5p4x,36830,Lee County,"140 Lewis Ln, Auburn, AL 36830, USA",32.5397015,-85.5328406
Mix 1539122,ec3ewwmw,35007,Shelby County,"2486 Simmsville Rd, Alabaster, AL 35007, USA",33.266777,-86.78945759999999
Mix 1152536,ec3rhfd6,36420,Covington County,"2620 E 3 Notch St, Andalusia, AL 36420, USA",31.317334,-86.461899
Mix 1152539,ec36gbcu,36420,Covington County,"2620 E 3 Notch St, Andalusia, AL 36420, USA",31.317334,-86.461899
Mix 1526500,ec3r6ggs,36420,Covington County,"2620 E 3 Notch St, Andalusia, AL 36420, USA",31.317334,-86.461899
Mix 1526284,ec31s8he,36420,Covington County,"2620 E 3 Notch St, Andalusia, AL 36420, USA",31.317334,-86.461899
Mix 1526062,ec33wu04,36420,Covington County,"2620 E 3 Notch St, Andalusia, AL 36420, USA",31.317334,-86.461899
Mix 1526146,ec3gy5wq,36420,Covington County,"2620 E 3 Notch St, Andalusia, AL 36420, USA",31.317334,-86.461899
Mix 1526291,ec3gm2j6,36420,Covington County,"2620 E 3 Notch St, Andalusia, AL 36420, USA",31.317334,-86.461899
Mix 1526665,ec3qupy4,36420,Covington County,"2620 E 3 Notch St, Andalusia, AL 36420, USA",31.317334,-86.461899
Mix 1528736,ec3fs8wj,36420,Covington County,"2620 E 3 Notch St, Andalusia, AL 36420, USA",31.317334,-86.461899
Mix 1526531,ec3qfa16,36420,Covington County,"2620 E 3 Notch St, Andalusia, AL 36420, USA",31.317334,-86.461899
Mix 1399883,ec3df298,36420,Covington County,"2620 E 3 Notch St, Andalusia, AL 36420, USA",31.317334,-86.461899
Mix 1526661,ec35e16c,36420,Covington County,"2620 E 3 Notch St, Andalusia, AL 36420, USA",31.317334,-86.461899
Mix 1526522,ec3tnb5a,36420,Covington County,"2620 E 3 Notch St, Andalusia, AL 36420, USA",31.317334,-86.461899
Mix 1528743,ec3eakxp,36420,Covington County,"2620 E 3 Notch St, Andalusia, AL 36420, USA",31.317334,-86.461899
Mix 1528269,ec3hmrb0,36420,Covington County,"2620 E 3 Notch St, Andalusia, AL 36420, USA",31.317334,-86.461899
Mix 1527907,ec3qxn3y,36420,Covington County,"2620 E 3 Notch St, Andalusia, AL 36420, USA",31.317334,-86.461899
Mix 1528815,ec362tb4,36420,Covington County,"2620 E 3 Notch St, Andalusia, AL 36420, USA",31.317334,-86.461899
Mix 1528826,ec3nqzrk,36420,Covington County,"2620 E 3 Notch St, Andalusia, AL 36420, USA",31.317334,-86.461899
Mix 1533769,ec3hq88u,36420,Covington County,"2620 E 3 Notch St, Andalusia, AL 36420, USA",31.317334,-86.461899
Mix 1531459,ec3art3w,36420,Covington County,"2620 E 3 Notch St, Andalusia, AL 36420, USA",31.317334,-86.461899
Mix 1531471,ec3qr4pr,36420,Covington County,"2620 E 3 Notch St, Andalusia, AL 36420, USA",31.317334,-86.461899
Mix 1531489,ec3x7uhe,36420,Covington County,"2620 E 3 Notch St, Andalusia, AL 36420, USA",31.317334,-86.461899
Mix 1529499,ec34udgu,36420,Covington County,"2620 E 3 Notch St, Andalusia, AL 36420, USA",31.317334,-86.461899
Mix 1531496,ec3jg9k1,36420,Covington County,"2620 E 3 Notch St, Andalusia, AL 36420, USA",31.317334,-86.461899
Mix 1530984,ec3bjuny,36420,Covington County,"2620 E 3 Notch St, Andalusia, AL 36420, USA",31.317334,-86.461899
Mix 1531500,ec30pzb4,36420,Covington County,"2620 E 3 Notch St, Andalusia, AL 36420, USA",31.317334,-86.461899
Mix 1531495,ec3n5534,36420,Covington County,"2620 E 3 Notch St, Andalusia, AL 36420, USA",31.317334,-86.461899
Mix 1533773,ec3wauc8,36420,Covington County,"2620 E 3 Notch St, Andalusia, AL 36420, USA",31.317334,-86.461899
Mix 1531498,ec3wqqjq,36420,Covington County,"2620 E 3 Notch St, Andalusia, AL 36420, USA",31.317334,-86.461899
Mix 1560549,ec3d5qet,36420,Covington County,"2620 E 3 Notch St, Andalusia, AL 36420, USA",31.317334,-86.461899
Mix 1531497,ec31urwd,36420,Covington County,"2620 E 3 Notch St, Andalusia, AL 36420, USA",31.317334,-86.461899
Mix 1531502,ec3q5zt1,36420,Covington County,"2620 E 3 Notch St, Andalusia, AL 36420, USA",31.317334,-86.461899
Mix 1588483,ec38yu2y,36420,Covington County,"2620 E 3 Notch St, Andalusia, AL 36420, USA",31.317334,-86.461899
Mix 1531499,ec3m9fpb,36420,Covington County,"2620 E 3 Notch St, Andalusia, AL 36420, USA",31.317334,-86.461899
Mix 1531928,ec3h43fs,36420,Covington County,"2620 E 3 Notch St, Andalusia, AL 36420, USA",31.317334,-86.461899
Mix 1531466,ec3655rg,36420,Covington County,"2620 E 3 Notch St, Andalusia, AL 36420, USA",31.317334,-86.461899
Mix 1572723,ec32uwjr,36420,Covington County,"2620 E 3 Notch St, Andalusia, AL 36420, USA",31.317334,-86.461899
Mix 1531490,ec3yxzu1,36420,Covington County,"2620 E 3 Notch St, Andalusia, AL 36420, USA",31.317334,-86.461899
Mix 1572692,ec34d2x8,36420,Covington County,"2620 E 3 Notch St, Andalusia, AL 36420, USA",31.317334,-86.461899
Mix 1531492,ec3qkh42,36420,Covington County,"2620 E 3 Notch St, Andalusia, AL 36420, USA",31.317334,-86.461899
Mix 1531483,ec3crzay,36420,Covington County,"2620 E 3 Notch St, Andalusia, AL 36420, USA",31.317334,-86.461899
Mix 1623303,ec3bj1mt,36420,Covington County,"2620 E 3 Notch St, Andalusia, AL 36420, USA",31.317334,-86.461899
Mix 1532828,ec30za8m,36420,Covington County,"2620 E 3 Notch St, Andalusia, AL 36420, USA",31.317334,-86.461899
Mix 1532827,ec34xyxx,36420,Covington County,"2620 E 3 Notch St, Andalusia, AL 36420, USA",31.317334,-86.461899
Mix 1535568,ec3z7wbr,36420,Covington County,"2620 E 3 Notch St, Andalusia, AL 36420, USA",31.317334,-86.461899
Mix 1527818,ec3ubyfg,35611,Limestone County,"1283 Frazier St, Athens, AL 35611, USA",34.8160904,-86.965948
Mix 1536523,ec3psqm6,35611,Limestone County,"1283 Frazier St, Athens, AL 35611, USA",34.8160904,-86.965948
Mix 1588854,ec3zbb19,35611,Limestone County,"1283 Frazier St, Athens, AL 35611, USA",34.8160904,-86.965948
Mix 1528037,ec3x3rhp,35611,Limestone County,"1283 Frazier St, Athens, AL 35611, USA",34.8160904,-86.965948
Mix 1531296,ec33mt02,35611,Limestone County,"1283 Frazier St, Athens, AL 35611, USA",34.8160904,-86.965948
Mix 1562674,ec3rqm79,36420,Covington County,"2620 E 3 Notch St, Andalusia, AL 36420, USA",31.317334,-86.461899
Mix 1530273,ec3g55yk,35611,Limestone County,"1283 Frazier St, Athens, AL 35611, USA",34.8160904,-86.965948
Mix 1527816,ec338k09,35611,Limestone County,"1283 Frazier St, Athens, AL 35611, USA",34.8160904,-86.965948
Mix 1588852,ec33rhww,35611,Limestone County,"1283 Frazier St, Athens, AL 35611, USA",34.8160904,-86.965948
Mix 1526653,ec33z801,35611,Limestone County,"1283 Frazier St, Athens, AL 35611, USA",34.8160904,-86.965948
Mix 1590323,ec3pjp4q,35611,Limestone County,"1283 Frazier St, Athens, AL 35611, USA",34.8160904,-86.965948
Mix 1588926,ec3q27zp,35611,Limestone County,"1283 Frazier St, Athens, AL 35611, USA",34.8160904,-86.965948
Mix 1527813,ec3g3dr3,35611,Limestone County,"1283 Frazier St, Athens, AL 35611, USA",34.8160904,-86.965948
Mix 1527906,ec3m81x9,35611,Limestone County,"1283 Frazier St, Athens, AL 35611, USA",34.8160904,-86.965948
Mix 1589198,ec3ea7dq,35611,Limestone County,"1283 Frazier St, Athens, AL 35611, USA",34.8160904,-86.965948
Mix 1589200,ec3pjbtt,35611,Limestone County,"1283 Frazier St, Athens, AL 35611, USA",34.8160904,-86.965948
Mix 1588855,ec3w477p,35611,Limestone County,"1283 Frazier St, Athens, AL 35611, USA",34.8160904,-86.965948
Mix 1621358,ec36m5tm,35611,Limestone County,"1283 Frazier St, Athens, AL 35611, USA",34.8160904,-86.965948
Mix 1588851,ec34y963,35611,Limestone County,"1283 Frazier St, Athens, AL 35611, USA",34.8160904,-86.965948
Mix 1588848,ec35jkeh,35611,Limestone County,"1283 Frazier St, Athens, AL 35611, USA",34.8160904,-86.965948
Mix 1589213,ec35rtqt,35611,Limestone County,"1283 Frazier St, Athens, AL 35611, USA",34.8160904,-86.965948
Mix 1526307,ec3h5apf,35611,Limestone County,"1283 Frazier St, Athens, AL 35611, USA",34.8160904,-86.965948
Mix 1592696,ec3pw9fx,35611,Limestone County,"1283 Frazier St, Athens, AL 35611, USA",34.8160904,-86.965948
Mix 1526284,ec3wgfy2,36502,Escambia County,"1730 AL-21, Atmore, AL 36502, USA",31.0487807,-87.49295819999999
Mix 1527815,ec39n1eg,35611,Limestone County,"1283 Frazier St, Athens, AL 35611, USA",34.8160904,-86.965948
Mix 1589806,ec3k0gj1,35611,Limestone County,"1283 Frazier St, Athens, AL 35611, USA",34.8160904,-86.965948
Mix 1588890,ec301sj3,35611,Limestone County,"1283 Frazier St, Athens, AL 35611, USA",34.8160904,-86.965948
Mix 1528303,ec381p93,36502,Escambia County,"1730 AL-21, Atmore, AL 36502, USA",31.0487807,-87.49295819999999
Mix 1528266,ec35jqr4,36502,Escambia County,"1730 AL-21, Atmore, AL 36502, USA",31.0487807,-87.49295819999999
Mix 1588850,ec3guatc,35611,Limestone County,"1283 Frazier St, Athens, AL 35611, USA",34.8160904,-86.965948
Mix 1589805,ec34y9qe,35611,Limestone County,"1283 Frazier St, Athens, AL 35611, USA",34.8160904,-86.965948
Mix 1595394,ec301ua3,35611,Limestone County,"1283 Frazier St, Athens, AL 35611, USA",34.8160904,-86.965948
Mix 1528268,ec3uks27,36502,Escambia County,"1730 AL-21, Atmore, AL 36502, USA",31.0487807,-87.49295819999999
Mix 1528273,ec3k08fd,36502,Escambia County,"1730 AL-21, Atmore, AL 36502, USA",31.0487807,-87.49295819999999
Mix 1528271,ec3kdgac,36502,Escambia County,"1730 AL-21, Atmore, AL 36502, USA",31.0487807,-87.49295819999999
Mix 1592697,ec3kpbmf,35611,Limestone County,"1283 Frazier St, Athens, AL 35611, USA",34.8160904,-86.965948
Mix 1589804,ec3bz4b7,35611,Limestone County,"1283 Frazier St, Athens, AL 35611, USA",34.8160904,-86.965948
Mix 1589212,ec32s118,35611,Limestone County,"1283 Frazier St, Athens, AL 35611, USA",34.8160904,-86.965948
Mix 1589209,ec30dgjb,35611,Limestone County,"1283 Frazier St, Athens, AL 35611, USA",34.8160904,-86.965948
Mix 1528306,ec34c38w,36502,Escambia County,"1730 AL-21, Atmore, AL 36502, USA",31.0487807,-87.49295819999999
Mix 1528497,ec38pky4,36502,Escambia County,"1730 AL-21, Atmore, AL 36502, USA",31.0487807,-87.49295819999999
Mix 1528288,ec3uf3c2,36502,Escambia County,"1730 AL-21, Atmore, AL 36502, USA",31.0487807,-87.49295819999999
Mix 1528270,ec3q0g5a,36502,Escambia County,"1730 AL-21, Atmore, AL 36502, USA",31.0487807,-87.49295819999999
Mix 1528321,ec3rbsrj,36502,Escambia County,"1730 AL-21, Atmore, AL 36502, USA",31.0487807,-87.49295819999999
Mix 1589215,ec327edr,35611,Limestone County,"1283 Frazier St, Athens, AL 35611, USA",34.8160904,-86.965948
Mix 1526511,ec3d68gt,36502,Escambia County,"1730 AL-21, Atmore, AL 36502, USA",31.0487807,-87.49295819999999
Mix 1528346,ec33784c,36502,Escambia County,"1730 AL-21, Atmore, AL 36502, USA",31.0487807,-87.49295819999999
Mix 1528336,ec3cuff2,36502,Escambia County,"1730 AL-21, Atmore, AL 36502, USA",31.0487807,-87.49295819999999
Mix 1528467,ec3w71dm,36502,Escambia County,"1730 AL-21, Atmore, AL 36502, USA",31.0487807,-87.49295819999999
Mix 1528301,ec3p2nqs,36502,Escambia County,"1730 AL-21, Atmore, AL 36502, USA",31.0487807,-87.49295819999999
Mix 1528311,ec3q37e5,36502,Escambia County,"1730 AL-21, Atmore, AL 36502, USA",31.0487807,-87.49295819999999
Mix 1528267,ec3ue1cc,36502,Escambia County,"1730 AL-21, Atmore, AL 36502, USA",31.0487807,-87.49295819999999
Mix 1526062,ec32jn90,36502,Escambia County,"1730 AL-21, Atmore, AL 36502, USA",31.0487807,-87.49295819999999
Mix 1537957,ec3nz8fr,36502,Escambia County,"1730 AL-21, Atmore, AL 36502, USA",31.0487807,-87.49295819999999
Mix 1528330,ec3sxc9f,36502,Escambia County,"1730 AL-21, Atmore, AL 36502, USA",31.0487807,-87.49295819999999
Mix 1528460,ec34txxg,36502,Escambia County,"1730 AL-21, Atmore, AL 36502, USA",31.0487807,-87.49295819999999
Mix 1526500,ec3aq7af,36502,Escambia County,"1730 AL-21, Atmore, AL 36502, USA",31.0487807,-87.49295819999999
Mix 1528322,ec3c2cnj,36502,Escambia County,"1730 AL-21, Atmore, AL 36502, USA",31.0487807,-87.49295819999999
Mix 1528269,ec3uke4m,36502,Escambia County,"1730 AL-21, Atmore, AL 36502, USA",31.0487807,-87.49295819999999
Mix 1526750,ec3as3r9,36502,Escambia County,"1730 AL-21, Atmore, AL 36502, USA",31.0487807,-87.49295819999999
Mix 1529168,ec3cm4b8,36502,Escambia County,"1730 AL-21, Atmore, AL 36502, USA",31.0487807,-87.49295819999999
Mix 1531830,ec3e1gtm,36502,Escambia County,"1730 AL-21, Atmore, AL 36502, USA",31.0487807,-87.49295819999999
Mix 1528646,ec315u64,36502,Escambia County,"1730 AL-21, Atmore, AL 36502, USA",31.0487807,-87.49295819999999
Mix 1528374,ec3m0y9a,36502,Escambia County,"1730 AL-21, Atmore, AL 36502, USA",31.0487807,-87.49295819999999
Mix 1528314,ec3bfkxx,36502,Escambia County,"1730 AL-21, Atmore, AL 36502, USA",31.0487807,-87.49295819999999
Mix 1528818,ec3f6z2h,36502,Escambia County,"1730 AL-21, Atmore, AL 36502, USA",31.0487807,-87.49295819999999
Mix 1526520,ec3ft6dg,36830,Lee County,"140 Lewis Ln, Auburn, AL 36830, USA",32.5397015,-85.5328406
Mix 1528269,ec3sk37f,36830,Lee County,"140 Lewis Ln, Auburn, AL 36830, USA",32.5397015,-85.5328406
Mix 1528825,ec31pmku,36502,Escambia County,"1730 AL-21, Atmore, AL 36502, USA",31.0487807,-87.49295819999999
Mix 1551239,ec37jxuz,36502,Escambia County,"1730 AL-21, Atmore, AL 36502, USA",31.0487807,-87.49295819999999
Mix 1622987,ec3n07r5,36502,Escambia County,"1730 AL-21, Atmore, AL 36502, USA",31.0487807,-87.49295819999999
Mix 1624408,ec3qr70m,36502,Escambia County,"1730 AL-21, Atmore, AL 36502, USA",31.0487807,-87.49295819999999
Mix 1531860,ec3p98p4,36830,Lee County,"140 Lewis Ln, Auburn, AL 36830, USA",32.5397015,-85.5328406
Mix 1624816,ec30fzcs,36502,Escambia County,"1730 AL-21, Atmore, AL 36502, USA",31.0487807,-87.49295819999999
Mix 1531870,ec39wudz,36830,Lee County,"140 Lewis Ln, Auburn, AL 36830, USA",32.5397015,-85.5328406
Mix 1619883,ec3ze7wb,36502,Escambia County,"1730 AL-21, Atmore, AL 36502, USA",31.0487807,-87.49295819999999
Mix 1570870,ec3rce5b,36502,Escambia County,"1730 AL-21, Atmore, AL 36502, USA",31.0487807,-87.49295819999999
Mix 1532006,ec3pq621,36830,Lee County,"140 Lewis Ln, Auburn, AL 36830, USA",32.5397015,-85.5328406
Mix 1531483,ec3gp2dp,36502,Escambia County,"1730 AL-21, Atmore, AL 36502, USA",31.0487807,-87.49295819999999
Mix 1532250,ec3nk7xt,36830,Lee County,"140 Lewis Ln, Auburn, AL 36830, USA",32.5397015,-85.5328406
Mix 1531874,ec3a4hsb,36830,Lee County,"140 Lewis Ln, Auburn, AL 36830, USA",32.5397015,-85.5328406
Mix 1528386,ec3d98pb,36502,Escambia County,"1730 AL-21, Atmore, AL 36502, USA",31.0487807,-87.49295819999999
Mix 1526500,ec3xbzhb,36830,Lee County,"140 Lewis Ln, Auburn, AL 36830, USA",32.5397015,-85.5328406
Mix 1532007,ec34gshg,36830,Lee County,"140 Lewis Ln, Auburn, AL 36830, USA",32.5397015,-85.5328406
Mix 1531866,ec30chy4,36830,Lee County,"140 Lewis Ln, Auburn, AL 36830, USA",32.5397015,-85.5328406
Mix 1531869,ec3hdj47,36830,Lee County,"140 Lewis Ln, Auburn, AL 36830, USA",32.5397015,-85.5328406
Mix 1531891,ec344342,36830,Lee County,"140 Lewis Ln, Auburn, AL 36830, USA",32.5397015,-85.5328406
Mix 1567973,ec318hcc,36830,Lee County,"140 Lewis Ln, Auburn, AL 36830, USA",32.5397015,-85.5328406
Mix 1526522,ec3w77hr,36830,Lee County,"140 Lewis Ln, Auburn, AL 36830, USA",32.5397015,-85.5328406
Mix 1531876,ec3zgfxf,36830,Lee County,"140 Lewis Ln, Auburn, AL 36830, USA",32.5397015,-85.5328406
Mix 1531875,ec3u3486,36830,Lee County,"140 Lewis Ln, Auburn, AL 36830, USA",32.5397015,-85.5328406
Mix 1531901,ec3tuqf9,36830,Lee County,"140 Lewis Ln, Auburn, AL 36830, USA",32.5397015,-85.5328406
Mix 1531992,ec3yprxq,36830,Lee County,"140 Lewis Ln, Auburn, AL 36830, USA",32.5397015,-85.5328406
Mix 1567975,ec3ehbcs,36830,Lee County,"140 Lewis Ln, Auburn, AL 36830, USA",32.5397015,-85.5328406
Mix 1593333,ec3f8c3n,36502,Escambia County,"1730 AL-21, Atmore, AL 36502, USA",31.0487807,-87.49295819999999
Mix 1531974,ec3r7gjm,36830,Lee County,"140 Lewis Ln, Auburn, AL 36830, USA",32.5397015,-85.5328406
Mix 1531871,ec3gagur,36830,Lee County,"140 Lewis Ln, Auburn, AL 36830, USA",32.5397015,-85.5328406
Mix 1531867,ec3n0tfz,36830,Lee County,"140 Lewis Ln, Auburn, AL 36830, USA",32.5397015,-85.5328406
Mix 1623866,ec39er07,36830,Lee County,"140 Lewis Ln, Auburn, AL 36830, USA",32.5397015,-85.5328406
Mix 1531836,ec3twxkc,36830,Lee County,"140 Lewis Ln, Auburn, AL 36830, USA",32.5397015,-85.5328406
Mix 1623331,ec3jj2d1,36830,Lee County,"140 Lewis Ln, Auburn, AL 36830, USA",32.5397015,-85.5328406
Mix 1544425,ec3em90f,36830,Lee County,"140 Lewis Ln, Auburn, AL 36830, USA",32.5397015,-85.5328406
Mix 1531868,ec3gt739,36830,Lee County,"140 Lewis Ln, Auburn, AL 36830, USA",32.5397015,-85.5328406
Mix 1531879,ec36sc1k,36830,Lee County,"140 Lewis Ln, Auburn, AL 36830, USA",32.5397015,-85.5328406
Mix 1532218,ec3mzqtm,36830,Lee County,"140 Lewis Ln, Auburn, AL 36830, USA",32.5397015,-85.5328406
Mix 1532200,ec36qe08,36830,Lee County,"140 Lewis Ln, Auburn, AL 36830, USA",32.5397015,-85.5328406
Mix 1531865,ec38whyy,36830,Lee County,"140 Lewis Ln, Auburn, AL 36830, USA",32.5397015,-85.5328406
Mix 1623887,ec3x5673,36830,Lee County,"140 Lewis Ln, Auburn, AL 36830, USA",32.5397015,-85.5328406
Mix 1623891,ec3p8jak,36830,Lee County,"140 Lewis Ln, Auburn, AL 36830, USA",32.5397015,-85.5328406
Mix 1532238,ec3d64sa,36830,Lee County,"140 Lewis Ln, Auburn, AL 36830, USA",32.5397015,-85.5328406
Mix 1618782,ec3qcyug,36830,Lee County,"140 Lewis Ln, Auburn, AL 36830, USA",32.5397015,-85.5328406
Mix 1531872,ec3jfkkp,36830,Lee County,"140 Lewis Ln, Auburn, AL 36830, USA",32.5397015,-85.5328406
Mix 1532796,ec3y0a8y,36830,Lee County,"140 Lewis Ln, Auburn, AL 36830, USA",32.5397015,-85.5328406
Mix 1617627,ec344xgt,36830,Lee County,"140 Lewis Ln, Auburn, AL 36830, USA",32.5397015,-85.5328406
Mix 1531973,ec364tt1,36830,Lee County,"140 Lewis Ln, Auburn, AL 36830, USA",32.5397015,-85.5328406
Mix 1623888,ec3htgc1,36830,Lee County,"140 Lewis Ln, Auburn, AL 36830, USA",32.5397015,-85.5328406
Mix 1617565,ec30nsy5,36830,Lee County,"140 Lewis Ln, Auburn, AL 36830, USA",32.5397015,-85.5328406
Mix 1545421,ec3sxmb2,36830,Lee County,"140 Lewis Ln, Auburn, AL 36830, USA",32.5397015,-85.5328406
Mix 1531975,ec3z6z5m,36830,Lee County,"140 Lewis Ln, Auburn, AL 36830, USA",32.5397015,-85.5328406
Mix 1528269,ec3dmme8,36303,Houston County,"269 Twitchell Rd, Dothan, AL 36303, USA",31.2446095,-85.3982731
Mix 1590022,ec3q5y35,35802,Madison County,"2020 Vermont Rd SW, Huntsville, AL 35802, USA",34.672278,-86.5931972
Mix 1590324,ec3gy00z,35802,Madison County,"2020 Vermont Rd SW, Huntsville, AL 35802, USA",34.672278,-86.5931972
Mix 1557057,ec3t1gc6,35802,Madison County,"2020 Vermont Rd SW, Huntsville, AL 35802, USA",34.672278,-86.5931972
Mix 1539122,ec37qhd7,35210,Jefferson County,"2653 Ruffner Rd, Birmingham, AL 35210, USA",33.5790464,-86.6676012
Mix 1596919,ec3xdb9j,35210,Jefferson County,"2653 Ruffner Rd, Birmingham, AL 35210, USA",33.5790464,-86.6676012
Mix 1588850,ec30335q,35802,Madison County,"2020 Vermont Rd SW, Huntsville, AL 35802, USA",34.672278,-86.5931972
Mix 1526064,ec3bgkt8,35210,Jefferson County,"2653 Ruffner Rd, Birmingham, AL 35210, USA",33.5790464,-86.6676012
Mix 1526059,ec3h3eu4,35210,Jefferson County,"2653 Ruffner Rd, Birmingham, AL 35210, USA",33.5790464,-86.6676012
Mix 1539122,ec3pzrya,35221,Jefferson County,"911 Wenonah Rd, Birmingham, AL 35221, USA",33.4330148,-86.9042697
Mix 5000010,ec35yc5d,35654,Franklin County,"14765 AL-243, Russellville, AL 35654, USA",34.4699398,-87.71862780000001
Mix 5000012,ec3xzdne,35654,Franklin County,"14765 AL-243, Russellville, AL 35654, USA",34.4699398,-87.71862780000001
Mix 5000029,ec3mupxr,35654,Franklin County,"14765 AL-243, Russellville, AL 35654, USA",34.4699398,-87.71862780000001
Mix 5000047,ec3n30uu,35654,Franklin County,"14765 AL-243, Russellville, AL 35654, USA",34.4699398,-87.71862780000001
Mix 5000079,ec3r3x9t,35654,Franklin County,"14765 AL-243, Russellville, AL 35654, USA",34.4699398,-87.71862780000001
Mix 5000055,ec31g1fk,35654,Franklin County,"14765 AL-243, Russellville, AL 35654, USA",34.4699398,-87.71862780000001
Mix 5000025,ec30dbuy,35654,Franklin County,"14765 AL-243, Russellville, AL 35654, USA",34.4699398,-87.71862780000001
Mix 5000023,ec3k3z02,35654,Franklin County,"14765 AL-243, Russellville, AL 35654, USA",34.4699398,-87.71862780000001
Mix 5000078,ec3k18tr,35654,Franklin County,"14765 AL-243, Russellville, AL 35654, USA",34.4699398,-87.71862780000001
Mix 5000043,ec3fbm3q,35654,Franklin County,"14765 AL-243, Russellville, AL 35654, USA",34.4699398,-87.71862780000001
Mix 5000057,ec337e72,35654,Franklin County,"14765 AL-243, Russellville, AL 35654, USA",34.4699398,-87.71862780000001
Mix 5000072,ec3khceg,35654,Franklin County,"14765 AL-243, Russellville, AL 35654, USA",34.4699398,-87.71862780000001
Mix 5000061,ec30p0ah,35654,Franklin County,"14765 AL-243, Russellville, AL 35654, USA",34.4699398,-87.71862780000001
Mix 5000108,ec3z3eat,35654,Franklin County,"14765 AL-243, Russellville, AL 35654, USA",34.4699398,-87.71862780000001
Mix 5000056,ec3mcz1e,35654,Franklin County,"14765 AL-243, Russellville, AL 35654, USA",34.4699398,-87.71862780000001
Mix 5000081,ec3x23h8,35654,Franklin County,"14765 AL-243, Russellville, AL 35654, USA",34.4699398,-87.71862780000001
Mix 5000046,ec34m65n,35654,Franklin County,"14765 AL-243, Russellville, AL 35654, USA",34.4699398,-87.71862780000001
Mix 5000074,ec3nk101,35654,Franklin County,"14765 AL-243, Russellville, AL 35654, USA",34.4699398,-87.71862780000001
Mix 5000070,ec3jqejc,35654,Franklin County,"14765 AL-243, Russellville, AL 35654, USA",34.4699398,-87.71862780000001
Mix 5000118,ec34qr3d,35654,Franklin County,"14765 AL-243, Russellville, AL 35654, USA",34.4699398,-87.71862780000001
Mix 5000131,ec3wkhg5,35654,Franklin County,"14765 AL-243, Russellville, AL 35654, USA",34.4699398,-87.71862780000001
Mix 5000217,ec3m54sx,35654,Franklin County,"14765 AL-243, Russellville, AL 35654, USA",34.4699398,-87.71862780000001
Mix 5000174,ec3cheh1,35654,Franklin County,"14765 AL-243, Russellville, AL 35654, USA",34.4699398,-87.71862780000001
Mix 5000230,ec3mw2qe,35654,Franklin County,"14765 AL-243, Russellville, AL 35654, USA",34.4699398,-87.71862780000001
Mix 5000180,ec3yz6ua,35654,Franklin County,"14765 AL-243, Russellville, AL 35654, USA",34.4699398,-87.71862780000001
Mix 5000121,ec3m63bm,35654,Franklin County,"14765 AL-243, Russellville, AL 35654, USA",34.4699398,-87.71862780000001
Mix 5000077,ec3pxhux,35654,Franklin County,"14765 AL-243, Russellville, AL 35654, USA",34.4699398,-87.71862780000001
Mix 5000235,ec3eaatn,35654,Franklin County,"14765 AL-243, Russellville, AL 35654, USA",34.4699398,-87.71862780000001
Mix 5000071,ec3dwtpx,35654,Franklin County,"14765 AL-243, Russellville, AL 35654, USA",34.4699398,-87.71862780000001
Mix 5000242,ec3zp8cw,35654,Franklin County,"14765 AL-243, Russellville, AL 35654, USA",34.4699398,-87.71862780000001
Mix 5000115,ec3hn4mc,35654,Franklin County,"14765 AL-243, Russellville, AL 35654, USA",34.4699398,-87.71862780000001
Mix 5000054,ec3170kh,35654,Franklin County,"14765 AL-243, Russellville, AL 35654, USA",34.4699398,-87.71862780000001
Mix 5000159,ec3j2j48,35654,Franklin County,"14765 AL-243, Russellville, AL 35654, USA",34.4699398,-87.71862780000001
Mix 5000011,ec35zjbg,35654,Franklin County,"14765 AL-243, Russellville, AL 35654, USA",34.4699398,-87.71862780000001
Mix 5000107,ec35q0dw,35654,Franklin County,"14765 AL-243, Russellville, AL 35654, USA",34.4699398,-87.71862780000001
Mix 5000149,ec3fsz2f,35654,Franklin County,"14765 AL-243, Russellville, AL 35654, USA",34.4699398,-87.71862780000001
Mix 5000239,ec3bff4c,35654,Franklin County,"14765 AL-243, Russellville, AL 35654, USA",34.4699398,-87.71862780000001
Mix 5000191,ec3p5azb,35654,Franklin County,"14765 AL-243, Russellville, AL 35654, USA",34.4699398,-87.71862780000001
Mix 5000024,ec340t8h,35654,Franklin County,"14765 AL-243, Russellville, AL 35654, USA",34.4699398,-87.71862780000001
Mix 5000185,ec39cjan,35654,Franklin County,"14765 AL-243, Russellville, AL 35654, USA",34.4699398,-87.71862780000001
Mix 5000271,ec3ufb3u,35654,Franklin County,"14765 AL-243, Russellville, AL 35654, USA",34.4699398,-87.71862780000001
Mix 5000080,ec3pj9mg,35654,Franklin County,"14765 AL-243, Russellville, AL 35654, USA",34.4699398,-87.71862780000001
Mix 5000042,ec3434wm,35654,Franklin County,"14765 AL-243, Russellville, AL 35654, USA",34.4699398,-87.71862780000001
Mix 5000231,ec3cym50,35654,Franklin County,"14765 AL-243, Russellville, AL 35654, USA",34.4699398,-87.71862780000001
Mix 1526145,ec35us3a,,Tuscaloosa County,"Cottondale, AL, USA",33.189202,-87.4565956
Mix 1526279,ec3s0xh7,,Tuscaloosa County,"Cottondale, AL, USA",33.189202,-87.4565956
Mix 1528288,ec3q20w0,,Tuscaloosa County,"Cottondale, AL, USA",33.189202,-87.4565956
Mix 1526203,ec3a7dqg,,Tuscaloosa County,"Cottondale, AL, USA",33.189202,-87.4565956
Mix 1526665,ec3u26ur,,Tuscaloosa County,"Cottondale, AL, USA",33.189202,-87.4565956
Mix 1526143,ec37ap6d,,Tuscaloosa County,"Cottondale, AL, USA",33.189202,-87.4565956
Mix 1592095,ec3ujfks,,Tuscaloosa County,"Cottondale, AL, USA",33.189202,-87.4565956
Mix 1526280,ec3ac33j,,Tuscaloosa County,"Cottondale, AL, USA",33.189202,-87.4565956
Mix 1526148,ec3uwjc6,,Tuscaloosa County,"Cottondale, AL, USA",33.189202,-87.4565956
Mix 1526231,ec3zm03j,,Tuscaloosa County,"Cottondale, AL, USA",33.189202,-87.4565956
Mix 1526511,ec3qwf92,,Tuscaloosa County,"Cottondale, AL, USA",33.189202,-87.4565956
Mix 1620330,ec3akz12,,Tuscaloosa County,"Cottondale, AL, USA",33.189202,-87.4565956
Mix 1526185,ec3bthdj,,Tuscaloosa County,"Cottondale, AL, USA",33.189202,-87.4565956
Mix 1526250,ec3y6nzu,,Tuscaloosa County,"Cottondale, AL, USA",33.189202,-87.4565956
Mix 1622575,ec32wwg0,,Tuscaloosa County,"Cottondale, AL, USA",33.189202,-87.4565956
Mix 1620901,ec3yzxah,,Tuscaloosa County,"Cottondale, AL, USA",33.189202,-87.4565956
Mix 1526163,ec3njt1t,,Tuscaloosa County,"Cottondale, AL, USA",33.189202,-87.4565956
Mix 1620561,ec33t21j,,Tuscaloosa County,"Cottondale, AL, USA",33.189202,-87.4565956
Mix 1623012,ec38x6bp,,Tuscaloosa County,"Cottondale, AL, USA",33.189202,-87.4565956
Mix 1588905,ec3c18n2,,Tuscaloosa County,"Cottondale, AL, USA",33.189202,-87.4565956
Mix 1603050,ec3b125w,,Tuscaloosa County,"Cottondale, AL, USA",33.189202,-87.4565956
Mix 1526060,ec3771xp,,Tuscaloosa County,"Cottondale, AL, USA",33.189202,-87.4565956
Mix 1526137,ec3zyzpc,,Tuscaloosa County,"Cottondale, AL, USA",33.189202,-87.4565956
Mix 1526224,ec35b434,,Tuscaloosa County,"Cottondale, AL, USA",33.189202,-87.4565956
Mix 1620562,ec3mh170,,Tuscaloosa County,"Cottondale, AL, USA",33.189202,-87.4565956
Mix 1622966,ec3x90bx,,Tuscaloosa County,"Cottondale, AL, USA",33.189202,-87.4565956
251131,ec3paj66,35094,Jefferson County,"8732 Parkway Dr, Leeds, AL 35094, USA",33.54463,-86.522565
630731,ec3h9662,35094,Jefferson County,"8732 Parkway Dr, Leeds, AL 35094, USA",33.54463,-86.522565
GH-0161-21,ec3sa1z1,35806,Madison County,"6150 Stringfield Rd NW, Huntsville, AL 35806, USA",34.77869099999999,-86.64146459999999
Mix 1549807,ec3tz90k,35470,Sumter County,"1320 N Washington St, Livingston, AL 35470, USA",32.611419,-88.182417
Mix 1526500,ec3y29mg,35010,Tallapoosa County,"346 US-280, Alexander City, AL 35010, USA",32.9610803,-86.0064866
Mix 1626567,ec3yskjm,35010,Tallapoosa County,"346 US-280, Alexander City, AL 35010, USA",32.9610803,-86.0064866
Mix 1626554,ec30j0p5,35022,Jefferson County,"1190 Powder Plant Rd, Bessemer, AL 35022, USA",33.3682594,-87.0111429
Mix 1622932,ec3ws39r,35022,Jefferson County,"1190 Powder Plant Rd, Bessemer, AL 35022, USA",33.3682594,-87.0111429
Mix 1618101,ec32mjdc,36426,Escambia County,"725 Industrial Park Dr, Brewton, AL 36426, USA",31.0913484,-87.1109063
Mix 1526060,ec3xf6cb,35007,Shelby County,"2486 Simmsville Rd, Alabaster, AL 35007, USA",33.266777,-86.78945759999999
Mix 1152539,ec3mkfzn,35010,Tallapoosa County,"346 US-280, Alexander City, AL 35010, USA",32.9610803,-86.0064866
Mix 1526520,ec39m2ja,35010,Tallapoosa County,"346 US-280, Alexander City, AL 35010, USA",32.9610803,-86.0064866
Mix 1526522,ec3ns4ne,35010,Tallapoosa County,"346 US-280, Alexander City, AL 35010, USA",32.9610803,-86.0064866
Mix 1526664,ec3bqmmt,35010,Tallapoosa County,"346 US-280, Alexander City, AL 35010, USA",32.9610803,-86.0064866
Mix 1531830,ec3dsmy0,35010,Tallapoosa County,"346 US-280, Alexander City, AL 35010, USA",32.9610803,-86.0064866
Mix 1531858,ec3xebs8,35010,Tallapoosa County,"346 US-280, Alexander City, AL 35010, USA",32.9610803,-86.0064866
Mix 1531827,ec3t3cdm,35010,Tallapoosa County,"346 US-280, Alexander City, AL 35010, USA",32.9610803,-86.0064866
Mix 1531863,ec3bafmq,35010,Tallapoosa County,"346 US-280, Alexander City, AL 35010, USA",32.9610803,-86.0064866
Mix 1526531,ec3g6um6,35010,Tallapoosa County,"346 US-280, Alexander City, AL 35010, USA",32.9610803,-86.0064866
Mix 1531865,ec33fp25,35010,Tallapoosa County,"346 US-280, Alexander City, AL 35010, USA",32.9610803,-86.0064866
Mix 1531874,ec3bcm69,35010,Tallapoosa County,"346 US-280, Alexander City, AL 35010, USA",32.9610803,-86.0064866
Mix 1531914,ec324mga,35010,Tallapoosa County,"346 US-280, Alexander City, AL 35010, USA",32.9610803,-86.0064866
Mix 1531866,ec3s5udz,35010,Tallapoosa County,"346 US-280, Alexander City, AL 35010, USA",32.9610803,-86.0064866
Mix 1531497,ec32eucy,35010,Tallapoosa County,"346 US-280, Alexander City, AL 35010, USA",32.9610803,-86.0064866
Mix 1531875,ec37x4h4,35010,Tallapoosa County,"346 US-280, Alexander City, AL 35010, USA",32.9610803,-86.0064866
Mix 1528269,ec3ngg01,35010,Tallapoosa County,"346 US-280, Alexander City, AL 35010, USA",32.9610803,-86.0064866
Mix 1531876,ec3kk627,35010,Tallapoosa County,"346 US-280, Alexander City, AL 35010, USA",32.9610803,-86.0064866
Mix 1531870,ec3ju8hh,35010,Tallapoosa County,"346 US-280, Alexander City, AL 35010, USA",32.9610803,-86.0064866
Mix 1531877,ec3cn0s2,35010,Tallapoosa County,"346 US-280, Alexander City, AL 35010, USA",32.9610803,-86.0064866
Mix 1531920,ec3kpr9f,35010,Tallapoosa County,"346 US-280, Alexander City, AL 35010, USA",32.9610803,-86.0064866
Mix 1531879,ec3y1bxa,35010,Tallapoosa County,"346 US-280, Alexander City, AL 35010, USA",32.9610803,-86.0064866
Mix 1531880,ec3mrj3z,35010,Tallapoosa County,"346 US-280, Alexander City, AL 35010, USA",32.9610803,-86.0064866
Mix 1531929,ec3mw97w,35010,Tallapoosa County,"346 US-280, Alexander City, AL 35010, USA",32.9610803,-86.0064866
Mix 1531905,ec3k494r,35010,Tallapoosa County,"346 US-280, Alexander City, AL 35010, USA",32.9610803,-86.0064866
Mix 1531911,ec3c8g28,35010,Tallapoosa County,"346 US-280, Alexander City, AL 35010, USA",32.9610803,-86.0064866
Mix 1531924,ec30yptg,35010,Tallapoosa County,"346 US-280, Alexander City, AL 35010, USA",32.9610803,-86.0064866
Mix 1531927,ec3f6s17,35010,Tallapoosa County,"346 US-280, Alexander City, AL 35010, USA",32.9610803,-86.0064866
Mix 1531899,ec37mppb,35010,Tallapoosa County,"346 US-280, Alexander City, AL 35010, USA",32.9610803,-86.0064866
Mix 1531923,ec36npbc,35010,Tallapoosa County,"346 US-280, Alexander City, AL 35010, USA",32.9610803,-86.0064866
Mix 1531915,ec3md57s,35010,Tallapoosa County,"346 US-280, Alexander City, AL 35010, USA",32.9610803,-86.0064866
Mix 1545673,ec3beh77,35010,Tallapoosa County,"346 US-280, Alexander City, AL 35010, USA",32.9610803,-86.0064866
Mix 1531930,ec3j6y8p,35010,Tallapoosa County,"346 US-280, Alexander City, AL 35010, USA",32.9610803,-86.0064866
Mix 1531934,ec30s39m,35010,Tallapoosa County,"346 US-280, Alexander City, AL 35010, USA",32.9610803,-86.0064866
Mix 1531928,ec3shs4p,35010,Tallapoosa County,"346 US-280, Alexander City, AL 35010, USA",32.9610803,-86.0064866
Mix 1531901,ec35k62z,35010,Tallapoosa County,"346 US-280, Alexander City, AL 35010, USA",32.9610803,-86.0064866
Mix 1532020,ec3cq594,35010,Tallapoosa County,"346 US-280, Alexander City, AL 35010, USA",32.9610803,-86.0064866
Mix 1625511,ec3qje8e,35010,Tallapoosa County,"346 US-280, Alexander City, AL 35010, USA",32.9610803,-86.0064866
Mix 1620331,ec3dhm5y,35010,Tallapoosa County,"346 US-280, Alexander City, AL 35010, USA",32.9610803,-86.0064866
Mix 1567975,ec3ysbu0,35010,Tallapoosa County,"346 US-280, Alexander City, AL 35010, USA",32.9610803,-86.0064866
Mix 1620546,ec3xafrr,35010,Tallapoosa County,"346 US-280, Alexander City, AL 35010, USA",32.9610803,-86.0064866
Mix 1620133,ec3sgn48,35010,Tallapoosa County,"346 US-280, Alexander City, AL 35010, USA",32.9610803,-86.0064866
Mix 1526511,ec358tbh,35022,Jefferson County,"1190 Powder Plant Rd, Bessemer, AL 35022, USA",33.3682594,-87.0111429
Mix 1531871,ec34dwby,35010,Tallapoosa County,"346 US-280, Alexander City, AL 35010, USA",32.9610803,-86.0064866
Mix 1526203,ec3n4upb,35022,Jefferson County,"1190 Powder Plant Rd, Bessemer, AL 35022, USA",33.3682594,-87.0111429
Mix 1585608,ec3az7z7,35022,Jefferson County,"1190 Powder Plant Rd, Bessemer, AL 35022, USA",33.3682594,-87.0111429
Mix 1591770,ec3zxw77,35022,Jefferson County,"1190 Powder Plant Rd, Bessemer, AL 35022, USA",33.3682594,-87.0111429
Mix 1526167,ec32fysg,35022,Jefferson County,"1190 Powder Plant Rd, Bessemer, AL 35022, USA",33.3682594,-87.0111429
Mix 1586987,ec37qg93,35022,Jefferson County,"1190 Powder Plant Rd, Bessemer, AL 35022, USA",33.3682594,-87.0111429
Mix 1530965,ec3d5gad,35022,Jefferson County,"1190 Powder Plant Rd, Bessemer, AL 35022, USA",33.3682594,-87.0111429
Mix 1603050,ec33hfh3,35022,Jefferson County,"1190 Powder Plant Rd, Bessemer, AL 35022, USA",33.3682594,-87.0111429
Mix 1589112,ec3ph4my,35022,Jefferson County,"1190 Powder Plant Rd, Bessemer, AL 35022, USA",33.3682594,-87.0111429
Mix 1615388,ec39qpez,35022,Jefferson County,"1190 Powder Plant Rd, Bessemer, AL 35022, USA",33.3682594,-87.0111429
Mix 1526280,ec3bwk1d,35022,Jefferson County,"1190 Powder Plant Rd, Bessemer, AL 35022, USA",33.3682594,-87.0111429
Mix 1587766,ec3ws6hg,35022,Jefferson County,"1190 Powder Plant Rd, Bessemer, AL 35022, USA",33.3682594,-87.0111429
Mix 1621789,ec3an80a,35022,Jefferson County,"1190 Powder Plant Rd, Bessemer, AL 35022, USA",33.3682594,-87.0111429
Mix 1622930,ec3juxgf,35022,Jefferson County,"1190 Powder Plant Rd, Bessemer, AL 35022, USA",33.3682594,-87.0111429
Mix 1626319,ec3cf288,35022,Jefferson County,"1190 Powder Plant Rd, Bessemer, AL 35022, USA",33.3682594,-87.0111429
Mix 1626317,ec3mb4fe,35022,Jefferson County,"1190 Powder Plant Rd, Bessemer, AL 35022, USA",33.3682594,-87.0111429
Mix 1620561,ec3tatmj,35022,Jefferson County,"1190 Powder Plant Rd, Bessemer, AL 35022, USA",33.3682594,-87.0111429
Mix 1626234,ec332syp,35022,Jefferson County,"1190 Powder Plant Rd, Bessemer, AL 35022, USA",33.3682594,-87.0111429
Mix 1618963,ec35rscx,35022,Jefferson County,"1190 Powder Plant Rd, Bessemer, AL 35022, USA",33.3682594,-87.0111429
Mix 1619756,ec3ma4n5,35022,Jefferson County,"1190 Powder Plant Rd, Bessemer, AL 35022, USA",33.3682594,-87.0111429
Mix 1626552,ec3xuyfn,35022,Jefferson County,"1190 Powder Plant Rd, Bessemer, AL 35022, USA",33.3682594,-87.0111429
Mix 1622575,ec3xw3ek,35022,Jefferson County,"1190 Powder Plant Rd, Bessemer, AL 35022, USA",33.3682594,-87.0111429
Mix 1626703,ec3xw0u3,35022,Jefferson County,"1190 Powder Plant Rd, Bessemer, AL 35022, USA",33.3682594,-87.0111429
Mix 1620330,ec3hn7j1,35022,Jefferson County,"1190 Powder Plant Rd, Bessemer, AL 35022, USA",33.3682594,-87.0111429
Mix 1028081,ec3fspth,36426,Escambia County,"725 Industrial Park Dr, Brewton, AL 36426, USA",31.0913484,-87.1109063
Mix 1528291,ec37eb38,36426,Escambia County,"725 Industrial Park Dr, Brewton, AL 36426, USA",31.0913484,-87.1109063
Mix 1528322,ec3c09kp,36426,Escambia County,"725 Industrial Park Dr, Brewton, AL 36426, USA",31.0913484,-87.1109063
Mix 1526499,ec3hfdde,36426,Escambia County,"725 Industrial Park Dr, Brewton, AL 36426, USA",31.0913484,-87.1109063
Mix 1528324,ec397ak9,36426,Escambia County,"725 Industrial Park Dr, Brewton, AL 36426, USA",31.0913484,-87.1109063
Mix 1528288,ec32bu36,36426,Escambia County,"725 Industrial Park Dr, Brewton, AL 36426, USA",31.0913484,-87.1109063
Mix 1551239,ec3p2yub,36426,Escambia County,"725 Industrial Park Dr, Brewton, AL 36426, USA",31.0913484,-87.1109063
Mix 1531830,ec3rsekx,36426,Escambia County,"725 Industrial Park Dr, Brewton, AL 36426, USA",31.0913484,-87.1109063
Mix 1528269,ec3j4rht,36426,Escambia County,"725 Industrial Park Dr, Brewton, AL 36426, USA",31.0913484,-87.1109063
Mix 1624816,ec3xrq0w,36426,Escambia County,"725 Industrial Park Dr, Brewton, AL 36426, USA",31.0913484,-87.1109063
Mix 1526500,ec32qd0q,36426,Escambia County,"725 Industrial Park Dr, Brewton, AL 36426, USA",31.0913484,-87.1109063
Mix 1537957,ec31c64j,36426,Escambia County,"725 Industrial Park Dr, Brewton, AL 36426, USA",31.0913484,-87.1109063
Mix 1528306,ec3kgagh,36426,Escambia County,"725 Industrial Park Dr, Brewton, AL 36426, USA",31.0913484,-87.1109063
Mix 1596525,ec3scx0w,35470,Sumter County,"1320 N Washington St, Livingston, AL 35470, USA",32.611419,-88.182417
Mix 5001520,ec35zh9b,35210,Jefferson County,"2653 Ruffner Rd, Birmingham, AL 35210, USA",33.5790464,-86.6676012
Mix 5000325,ec3ppjzt,35210,Jefferson County,"2653 Ruffner Rd, Birmingham, AL 35210, USA",33.5790464,-86.6676012
Mix 5000471,ec3ne69j,35210,Jefferson County,"2653 Ruffner Rd, Birmingham, AL 35210, USA",33.5790464,-86.6676012
Mix 5000664,ec36ktbf,35210,Jefferson County,"2653 Ruffner Rd, Birmingham, AL 35210, USA",33.5790464,-86.6676012
Mix 5000565,ec3d0eh6,35210,Jefferson County,"2653 Ruffner Rd, Birmingham, AL 35210, USA",33.5790464,-86.6676012
Mix 5000780,ec3qx9jk,35210,Jefferson County,"2653 Ruffner Rd, Birmingham, AL 35210, USA",33.5790464,-86.6676012
Mix 5001531,ec3tg2yr,35210,Jefferson County,"2653 Ruffner Rd, Birmingham, AL 35210, USA",33.5790464,-86.6676012
Mix 5001501,ec3kea22,35210,Jefferson County,"2653 Ruffner Rd, Birmingham, AL 35210, USA",33.5790464,-86.6676012
Mix 5001523,ec32hkdp,35210,Jefferson County,"2653 Ruffner Rd, Birmingham, AL 35210, USA",33.5790464,-86.6676012
Mix 5001542,ec3n58eg,35210,Jefferson County,"2653 Ruffner Rd, Birmingham, AL 35210, USA",33.5790464,-86.6676012
Mix 5000606,ec33ss4q,35210,Jefferson County,"2653 Ruffner Rd, Birmingham, AL 35210, USA",33.5790464,-86.6676012
Mix 1526148,ec3yejdm,35210,Jefferson County,"2653 Ruffner Rd, Birmingham, AL 35210, USA",33.5790464,-86.6676012
Mix 5001510,ec3c2mp0,35210,Jefferson County,"2653 Ruffner Rd, Birmingham, AL 35210, USA",33.5790464,-86.6676012
Mix 1589112,ec3pgapn,35210,Jefferson County,"2653 Ruffner Rd, Birmingham, AL 35210, USA",33.5790464,-86.6676012
Mix 5001522,ec3s9uwb,35210,Jefferson County,"2653 Ruffner Rd, Birmingham, AL 35210, USA",33.5790464,-86.6676012
Mix 5001543,ec3mpj4s,35210,Jefferson County,"2653 Ruffner Rd, Birmingham, AL 35210, USA",33.5790464,-86.6676012
Mix 5001530,ec3w1n1f,35210,Jefferson County,"2653 Ruffner Rd, Birmingham, AL 35210, USA",33.5790464,-86.6676012
Mix 5001524,ec3wx476,35210,Jefferson County,"2653 Ruffner Rd, Birmingham, AL 35210, USA",33.5790464,-86.6676012
Mix 5001532,ec3zzhm9,35210,Jefferson County,"2653 Ruffner Rd, Birmingham, AL 35210, USA",33.5790464,-86.6676012
Mix 5001521,ec3n5swa,35210,Jefferson County,"2653 Ruffner Rd, Birmingham, AL 35210, USA",33.5790464,-86.6676012
Mix 5001540,ec36erf3,35210,Jefferson County,"2653 Ruffner Rd, Birmingham, AL 35210, USA",33.5790464,-86.6676012
Mix 1526136,ec3xf1uz,35470,Sumter County,"1320 N Washington St, Livingston, AL 35470, USA",32.611419,-88.182417
Mix 1622386,ec3hsawf,35470,Sumter County,"1320 N Washington St, Livingston, AL 35470, USA",32.611419,-88.182417
Mix 1526062,ec3az11t,35470,Sumter County,"1320 N Washington St, Livingston, AL 35470, USA",32.611419,-88.182417
Mix 1526279,ec309mdc,35470,Sumter County,"1320 N Washington St, Livingston, AL 35470, USA",32.611419,-88.182417
Mix 1526138,ec3a8u1r,35470,Sumter County,"1320 N Washington St, Livingston, AL 35470, USA",32.611419,-88.182417
Mix 1526226,ec359n2m,35470,Sumter County,"1320 N Washington St, Livingston, AL 35470, USA",32.611419,-88.182417
Mix 1526347,ec3tcqef,35470,Sumter County,"1320 N Washington St, Livingston, AL 35470, USA",32.611419,-88.182417
Mix 1526360,ec310b2g,35470,Sumter County,"1320 N Washington St, Livingston, AL 35470, USA",32.611419,-88.182417
Mix 1526284,ec3beaqe,35470,Sumter County,"1320 N Washington St, Livingston, AL 35470, USA",32.611419,-88.182417
Mix 1526499,ec319mmq,35470,Sumter County,"1320 N Washington St, Livingston, AL 35470, USA",32.611419,-88.182417
Mix 1526351,ec3hs9ns,35470,Sumter County,"1320 N Washington St, Livingston, AL 35470, USA",32.611419,-88.182417
Mix 1620191,ec3f9anp,35470,Sumter County,"1320 N Washington St, Livingston, AL 35470, USA",32.611419,-88.182417
Mix 1620190,ec39791x,35470,Sumter County,"1320 N Washington St, Livingston, AL 35470, USA",32.611419,-88.182417
Mix 1530977,ec3em89u,35470,Sumter County,"1320 N Washington St, Livingston, AL 35470, USA",32.611419,-88.182417
Mix 1550169,ec3aktp5,35470,Sumter County,"1320 N Washington St, Livingston, AL 35470, USA",32.611419,-88.182417
Mix 1531827,ec3pweqn,35470,Sumter County,"1320 N Washington St, Livingston, AL 35470, USA",32.611419,-88.182417
Mix 1546442,ec312jbr,35470,Sumter County,"1320 N Washington St, Livingston, AL 35470, USA",32.611419,-88.182417
Mix 1534518,ec3gbzuk,35470,Sumter County,"1320 N Washington St, Livingston, AL 35470, USA",32.611419,-88.182417
Mix 1528269,ec30tx41,36460,Monroe County,"1434 AL-21, Monroeville, AL 36460, USA",31.4574096,-87.36539409999999
Mix 1526511,ec33ctn0,36460,Monroe County,"1434 AL-21, Monroeville, AL 36460, USA",31.4574096,-87.36539409999999
Mix 1528267,ec3e1ahf,36460,Monroe County,"1434 AL-21, Monroeville, AL 36460, USA",31.4574096,-87.36539409999999
Mix 1528271,ec356gxb,36460,Monroe County,"1434 AL-21, Monroeville, AL 36460, USA",31.4574096,-87.36539409999999
Mix 1528273,ec30cy37,36460,Monroe County,"1434 AL-21, Monroeville, AL 36460, USA",31.4574096,-87.36539409999999
Mix 1528268,ec37xjjz,36460,Monroe County,"1434 AL-21, Monroeville, AL 36460, USA",31.4574096,-87.36539409999999
Mix 1528270,ec34rj02,36460,Monroe County,"1434 AL-21, Monroeville, AL 36460, USA",31.4574096,-87.36539409999999
Mix 1528322,ec3hyy2y,36460,Monroe County,"1434 AL-21, Monroeville, AL 36460, USA",31.4574096,-87.36539409999999
Mix 1528274,ec3kxew6,36460,Monroe County,"1434 AL-21, Monroeville, AL 36460, USA",31.4574096,-87.36539409999999
Mix 1528330,ec3sbx8r,36460,Monroe County,"1434 AL-21, Monroeville, AL 36460, USA",31.4574096,-87.36539409999999
Mix 1528295,ec3y8684,36460,Monroe County,"1434 AL-21, Monroeville, AL 36460, USA",31.4574096,-87.36539409999999
Mix 1528346,ec30cbx8,36460,Monroe County,"1434 AL-21, Monroeville, AL 36460, USA",31.4574096,-87.36539409999999
Mix 1528314,ec3cmhx1,36460,Monroe County,"1434 AL-21, Monroeville, AL 36460, USA",31.4574096,-87.36539409999999
Mix 1528301,ec3ymxn9,36460,Monroe County,"1434 AL-21, Monroeville, AL 36460, USA",31.4574096,-87.36539409999999
Mix 1526530,ec3ddg24,36460,Monroe County,"1434 AL-21, Monroeville, AL 36460, USA",31.4574096,-87.36539409999999
Mix 1528306,ec3mjs0q,36460,Monroe County,"1434 AL-21, Monroeville, AL 36460, USA",31.4574096,-87.36539409999999
Mix 1528386,ec3rabyy,36460,Monroe County,"1434 AL-21, Monroeville, AL 36460, USA",31.4574096,-87.36539409999999
Mix 1528363,ec30hn3g,36460,Monroe County,"1434 AL-21, Monroeville, AL 36460, USA",31.4574096,-87.36539409999999
Mix 1528369,ec34ssz9,36460,Monroe County,"1434 AL-21, Monroeville, AL 36460, USA",31.4574096,-87.36539409999999
Mix 1528374,ec336jas,36460,Monroe County,"1434 AL-21, Monroeville, AL 36460, USA",31.4574096,-87.36539409999999
Mix 1528356,ec3z76w6,36460,Monroe County,"1434 AL-21, Monroeville, AL 36460, USA",31.4574096,-87.36539409999999
Mix 1526284,ec3kqbxa,36460,Monroe County,"1434 AL-21, Monroeville, AL 36460, USA",31.4574096,-87.36539409999999
Mix 1529168,ec3mpx85,36460,Monroe County,"1434 AL-21, Monroeville, AL 36460, USA",31.4574096,-87.36539409999999
Mix 1528584,ec3wsz9x,36460,Monroe County,"1434 AL-21, Monroeville, AL 36460, USA",31.4574096,-87.36539409999999
Mix 1526500,ec3np87w,36460,Monroe County,"1434 AL-21, Monroeville, AL 36460, USA",31.4574096,-87.36539409999999
Mix 1528646,ec3umswd,36460,Monroe County,"1434 AL-21, Monroeville, AL 36460, USA",31.4574096,-87.36539409999999
Mix 1528645,ec35zpq5,36460,Monroe County,"1434 AL-21, Monroeville, AL 36460, USA",31.4574096,-87.36539409999999
Mix 1528467,ec3jn8j6,36460,Monroe County,"1434 AL-21, Monroeville, AL 36460, USA",31.4574096,-87.36539409999999
Mix 1528825,ec38wypq,36460,Monroe County,"1434 AL-21, Monroeville, AL 36460, USA",31.4574096,-87.36539409999999
Mix 1528815,ec3jfnje,36460,Monroe County,"1434 AL-21, Monroeville, AL 36460, USA",31.4574096,-87.36539409999999
Mix 1616901,ec3qwc82,36460,Monroe County,"1434 AL-21, Monroeville, AL 36460, USA",31.4574096,-87.36539409999999
Mix 1537957,ec3knd89,36460,Monroe County,"1434 AL-21, Monroeville, AL 36460, USA",31.4574096,-87.36539409999999
Mix 1626464,ec3b9p0g,36460,Monroe County,"1434 AL-21, Monroeville, AL 36460, USA",31.4574096,-87.36539409999999
Mix 1526351,ec368ewc,36784,Clarke County,"2222 Bashi Rd, Thomasville, AL 36784, USA",31.9375416,-87.75793929999999
Mix 1526168,ec3bdjq8,36784,Clarke County,"2222 Bashi Rd, Thomasville, AL 36784, USA",31.9375416,-87.75793929999999
Mix 1526167,ec33e9ta,36784,Clarke County,"2222 Bashi Rd, Thomasville, AL 36784, USA",31.9375416,-87.75793929999999
Mix 1526136,ec3rkkx2,36784,Clarke County,"2222 Bashi Rd, Thomasville, AL 36784, USA",31.9375416,-87.75793929999999
Mix 1526350,ec3qurhh,36784,Clarke County,"2222 Bashi Rd, Thomasville, AL 36784, USA",31.9375416,-87.75793929999999
Mix 1526279,ec34zemg,36784,Clarke County,"2222 Bashi Rd, Thomasville, AL 36784, USA",31.9375416,-87.75793929999999
Mix 1526148,ec3wb4mb,36784,Clarke County,"2222 Bashi Rd, Thomasville, AL 36784, USA",31.9375416,-87.75793929999999
Mix 1526365,ec38ymup,36784,Clarke County,"2222 Bashi Rd, Thomasville, AL 36784, USA",31.9375416,-87.75793929999999
Mix 1526499,ec3patr8,36784,Clarke County,"2222 Bashi Rd, Thomasville, AL 36784, USA",31.9375416,-87.75793929999999
Mix 1528011,ec32fsb1,36784,Clarke County,"2222 Bashi Rd, Thomasville, AL 36784, USA",31.9375416,-87.75793929999999
Mix 1530977,ec3cybb4,36784,Clarke County,"2222 Bashi Rd, Thomasville, AL 36784, USA",31.9375416,-87.75793929999999
Mix 1526360,ec3544t9,36784,Clarke County,"2222 Bashi Rd, Thomasville, AL 36784, USA",31.9375416,-87.75793929999999
Mix 1534518,ec3wdaat,36784,Clarke County,"2222 Bashi Rd, Thomasville, AL 36784, USA",31.9375416,-87.75793929999999
Mix 1528504,ec3qnsg7,36784,Clarke County,"2222 Bashi Rd, Thomasville, AL 36784, USA",31.9375416,-87.75793929999999
Mix 1531830,ec3bqypm,36784,Clarke County,"2222 Bashi Rd, Thomasville, AL 36784, USA",31.9375416,-87.75793929999999
Mix 1534516,ec323bes,36784,Clarke County,"2222 Bashi Rd, Thomasville, AL 36784, USA",31.9375416,-87.75793929999999
Mix 1619982,ec3f3dnz,36784,Clarke County,"2222 Bashi Rd, Thomasville, AL 36784, USA",31.9375416,-87.75793929999999
Mix 1560549,ec3u1xjh,36784,Clarke County,"2222 Bashi Rd, Thomasville, AL 36784, USA",31.9375416,-87.75793929999999
Mix 1549807,ec3df0pa,36784,Clarke County,"2222 Bashi Rd, Thomasville, AL 36784, USA",31.9375416,-87.75793929999999
Mix 1596525,ec32hdt4,36784,Clarke County,"2222 Bashi Rd, Thomasville, AL 36784, USA",31.9375416,-87.75793929999999
Mix 1616166,ec3ju6zj,36784,Clarke County,"2222 Bashi Rd, Thomasville, AL 36784, USA",31.9375416,-87.75793929999999
Mix 1594310,ec3zuj88,36784,Clarke County,"2222 Bashi Rd, Thomasville, AL 36784, USA",31.9375416,-87.75793929999999
Mix 1620191,ec3c5urm,36784,Clarke County,"2222 Bashi Rd, Thomasville, AL 36784, USA",31.9375416,-87.75793929999999
Mix 1620190,ec3u90dq,36784,Clarke County,"2222 Bashi Rd, Thomasville, AL 36784, USA",31.9375416,-87.75793929999999
Mix 1621100,ec3m3ew6,36784,Clarke County,"2222 Bashi Rd, Thomasville, AL 36784, USA",31.9375416,-87.75793929999999
Mix 1546442,ec3p8z10,36784,Clarke County,"2222 Bashi Rd, Thomasville, AL 36784, USA",31.9375416,-87.75793929999999
Mix 1603050,ec3zyj3t,36784,Clarke County,"2222 Bashi Rd, Thomasville, AL 36784, USA",31.9375416,-87.75793929999999
Mix 1620921,ec3ga479,36784,Clarke County,"2222 Bashi Rd, Thomasville, AL 36784, USA",31.9375416,-87.75793929999999
Mix 1526511,ec3jhafs,36784,Clarke County,"2222 Bashi Rd, Thomasville, AL 36784, USA",31.9375416,-87.75793929999999
Mix 1620546,ec3day61,36784,Clarke County,"2222 Bashi Rd, Thomasville, AL 36784, USA",31.9375416,-87.75793929999999
Fabricated Hollow structural steel sections (average),ec32aeek,,,,,
Mix 5001587,ec3f84dn,35210,Jefferson County,"2653 Ruffner Rd, Birmingham, AL 35210, USA",33.5790464,-86.6676012
Mix 5001577,ec3g9ss4,35210,Jefferson County,"2653 Ruffner Rd, Birmingham, AL 35210, USA",33.5790464,-86.6676012
Mix 1591770,ec3jatt0,36916,Choctaw County,"298 Ida Dr, Pennington, AL 36916, USA",32.210971,-88.04739099999999
Mix 5000126,ec3btemc,35594,Marion County,"700 Blue Ridge Rd, Winfield, AL 35594, USA",33.9491643,-87.783366
Mix 5000217,ec33nsuh,35594,Marion County,"700 Blue Ridge Rd, Winfield, AL 35594, USA",33.9491643,-87.783366
Mix 1526279,ec3ezmj1,36916,Choctaw County,"298 Ida Dr, Pennington, AL 36916, USA",32.210971,-88.04739099999999
Mix 1526138,ec3220s4,36916,Choctaw County,"298 Ida Dr, Pennington, AL 36916, USA",32.210971,-88.04739099999999
Mix 1526284,ec3hp41x,36916,Choctaw County,"298 Ida Dr, Pennington, AL 36916, USA",32.210971,-88.04739099999999
Mix 5000171,ec3stc6a,35594,Marion County,"700 Blue Ridge Rd, Winfield, AL 35594, USA",33.9491643,-87.783366
Mix 1530977,ec3ke001,36916,Choctaw County,"298 Ida Dr, Pennington, AL 36916, USA",32.210971,-88.04739099999999
Mix 1526351,ec3c8czw,36916,Choctaw County,"298 Ida Dr, Pennington, AL 36916, USA",32.210971,-88.04739099999999
Mix 1549807,ec3gsdss,36916,Choctaw County,"298 Ida Dr, Pennington, AL 36916, USA",32.210971,-88.04739099999999
Mix 1526360,ec3y1j8a,36916,Choctaw County,"298 Ida Dr, Pennington, AL 36916, USA",32.210971,-88.04739099999999
Mix 1528297,ec3wdtj8,36916,Choctaw County,"298 Ida Dr, Pennington, AL 36916, USA",32.210971,-88.04739099999999
Mix 1530976,ec399bp7,36916,Choctaw County,"298 Ida Dr, Pennington, AL 36916, USA",32.210971,-88.04739099999999
Mix 1528068,ec3mje48,36916,Choctaw County,"298 Ida Dr, Pennington, AL 36916, USA",32.210971,-88.04739099999999
Mix 1530945,ec3wk2ph,36916,Choctaw County,"298 Ida Dr, Pennington, AL 36916, USA",32.210971,-88.04739099999999
Mix 1526348,ec3nue6y,36916,Choctaw County,"298 Ida Dr, Pennington, AL 36916, USA",32.210971,-88.04739099999999
Mix 5000019,ec3nw7b7,35674,Colbert County,"1176 US-72, Tuscumbia, AL 35674, USA",34.7116639,-87.7152701
Mix 5000023,ec388ey5,35674,Colbert County,"1176 US-72, Tuscumbia, AL 35674, USA",34.7116639,-87.7152701
Mix 5000015,ec3afmj8,35674,Colbert County,"1176 US-72, Tuscumbia, AL 35674, USA",34.7116639,-87.7152701
Mix 5000058,ec3pfqq6,35674,Colbert County,"1176 US-72, Tuscumbia, AL 35674, USA",34.7116639,-87.7152701
Mix 5000072,ec3e482e,35674,Colbert County,"1176 US-72, Tuscumbia, AL 35674, USA",34.7116639,-87.7152701
Mix 1596919,ec36f3bm,35401,Tuscaloosa County,"3150 15th St, Tuscaloosa, AL 35401, USA",33.2014752,-87.5760985
Mix 5000055,ec333a5u,35674,Colbert County,"1176 US-72, Tuscumbia, AL 35674, USA",34.7116639,-87.7152701
Mix 5000043,ec3xzqem,35674,Colbert County,"1176 US-72, Tuscumbia, AL 35674, USA",34.7116639,-87.7152701
Mix 5000139,ec3e2k2e,35674,Colbert County,"1176 US-72, Tuscumbia, AL 35674, USA",34.7116639,-87.7152701
Mix 5000146,ec37sa4q,35674,Colbert County,"1176 US-72, Tuscumbia, AL 35674, USA",34.7116639,-87.7152701
Mix 5000012,ec3qdx5f,35674,Colbert County,"1176 US-72, Tuscumbia, AL 35674, USA",34.7116639,-87.7152701
Mix 5000096,ec3r2apk,35674,Colbert County,"1176 US-72, Tuscumbia, AL 35674, USA",34.7116639,-87.7152701
Mix 5000061,ec3fg5cn,35674,Colbert County,"1176 US-72, Tuscumbia, AL 35674, USA",34.7116639,-87.7152701
Mix 5000170,ec3u9wru,35674,Colbert County,"1176 US-72, Tuscumbia, AL 35674, USA",34.7116639,-87.7152701
Mix 5000177,ec3yc4u6,35674,Colbert County,"1176 US-72, Tuscumbia, AL 35674, USA",34.7116639,-87.7152701
Mix 5000060,ec3agrq5,35674,Colbert County,"1176 US-72, Tuscumbia, AL 35674, USA",34.7116639,-87.7152701
Mix 5000239,ec35rjyc,35674,Colbert County,"1176 US-72, Tuscumbia, AL 35674, USA",34.7116639,-87.7152701
Mix 5000010,ec34wjhr,35674,Colbert County,"1176 US-72, Tuscumbia, AL 35674, USA",34.7116639,-87.7152701
Mix 5000151,ec35yd7h,35674,Colbert County,"1176 US-72, Tuscumbia, AL 35674, USA",34.7116639,-87.7152701
Mix 5000047,ec3ms7nx,35674,Colbert County,"1176 US-72, Tuscumbia, AL 35674, USA",34.7116639,-87.7152701
Mix 5000235,ec3c9jp0,35674,Colbert County,"1176 US-72, Tuscumbia, AL 35674, USA",34.7116639,-87.7152701
Mix 5000025,ec3p00z0,35674,Colbert County,"1176 US-72, Tuscumbia, AL 35674, USA",34.7116639,-87.7152701
Mix 5000078,ec3e7apn,35674,Colbert County,"1176 US-72, Tuscumbia, AL 35674, USA",34.7116639,-87.7152701
Mix 5000081,ec32u0q1,35674,Colbert County,"1176 US-72, Tuscumbia, AL 35674, USA",34.7116639,-87.7152701
Mix 5000112,ec3qdqr3,35674,Colbert County,"1176 US-72, Tuscumbia, AL 35674, USA",34.7116639,-87.7152701
Mix 5000231,ec3cuzje,35674,Colbert County,"1176 US-72, Tuscumbia, AL 35674, USA",34.7116639,-87.7152701
Mix 5000180,ec3fbugz,35674,Colbert County,"1176 US-72, Tuscumbia, AL 35674, USA",34.7116639,-87.7152701
Mix 5000130,ec3ah7zc,35674,Colbert County,"1176 US-72, Tuscumbia, AL 35674, USA",34.7116639,-87.7152701
Mix 5000032,ec3sp5zr,35674,Colbert County,"1176 US-72, Tuscumbia, AL 35674, USA",34.7116639,-87.7152701
Mix 5000074,ec38aw5n,35674,Colbert County,"1176 US-72, Tuscumbia, AL 35674, USA",34.7116639,-87.7152701
Mix 5000163,ec328sak,35674,Colbert County,"1176 US-72, Tuscumbia, AL 35674, USA",34.7116639,-87.7152701
Mix 5000149,ec39rga3,35674,Colbert County,"1176 US-72, Tuscumbia, AL 35674, USA",34.7116639,-87.7152701
Mix 5000191,ec3d6szb,35674,Colbert County,"1176 US-72, Tuscumbia, AL 35674, USA",34.7116639,-87.7152701
Mix 5000079,ec3uzq15,35674,Colbert County,"1176 US-72, Tuscumbia, AL 35674, USA",34.7116639,-87.7152701
Mix 5000250,ec3n2b35,35674,Colbert County,"1176 US-72, Tuscumbia, AL 35674, USA",34.7116639,-87.7152701
Mix 5000213,ec3fmj57,35674,Colbert County,"1176 US-72, Tuscumbia, AL 35674, USA",34.7116639,-87.7152701
Mix 5000160,ec3jdq39,35674,Colbert County,"1176 US-72, Tuscumbia, AL 35674, USA",34.7116639,-87.7152701
Mix 5000137,ec35gzw5,35674,Colbert County,"1176 US-72, Tuscumbia, AL 35674, USA",34.7116639,-87.7152701
Mix 5000201,ec316f07,35674,Colbert County,"1176 US-72, Tuscumbia, AL 35674, USA",34.7116639,-87.7152701
Mix 5000193,ec3rjn72,35674,Colbert County,"1176 US-72, Tuscumbia, AL 35674, USA",34.7116639,-87.7152701
Mix 5000108,ec3jb70m,35674,Colbert County,"1176 US-72, Tuscumbia, AL 35674, USA",34.7116639,-87.7152701
Mix 5000212,ec3kq7r4,35674,Colbert County,"1176 US-72, Tuscumbia, AL 35674, USA",34.7116639,-87.7152701
Mix 5000070,ec3c5m8w,35594,Marion County,"700 Blue Ridge Rd, Winfield, AL 35594, USA",33.9491643,-87.783366
Mix 5000152,ec36ug3x,35674,Colbert County,"1176 US-72, Tuscumbia, AL 35674, USA",34.7116639,-87.7152701
Mix 5000185,ec330z23,35674,Colbert County,"1176 US-72, Tuscumbia, AL 35674, USA",34.7116639,-87.7152701
Mix 5000077,ec315eej,35594,Marion County,"700 Blue Ridge Rd, Winfield, AL 35594, USA",33.9491643,-87.783366
Mix 5000071,ec3xd0kn,35594,Marion County,"700 Blue Ridge Rd, Winfield, AL 35594, USA",33.9491643,-87.783366
Mix 5000055,ec3z8jqe,35594,Marion County,"700 Blue Ridge Rd, Winfield, AL 35594, USA",33.9491643,-87.783366
Mix 5000042,ec317nx8,35594,Marion County,"700 Blue Ridge Rd, Winfield, AL 35594, USA",33.9491643,-87.783366
Mix 5000061,ec3hn5sk,35594,Marion County,"700 Blue Ridge Rd, Winfield, AL 35594, USA",33.9491643,-87.783366
Mix 5000108,ec39anzd,35594,Marion County,"700 Blue Ridge Rd, Winfield, AL 35594, USA",33.9491643,-87.783366
Mix 5000118,ec3d3bce,35594,Marion County,"700 Blue Ridge Rd, Winfield, AL 35594, USA",33.9491643,-87.783366
Mix 5000057,ec372htw,35594,Marion County,"700 Blue Ridge Rd, Winfield, AL 35594, USA",33.9491643,-87.783366
Mix 5000041,ec3g8n8b,35594,Marion County,"700 Blue Ridge Rd, Winfield, AL 35594, USA",33.9491643,-87.783366
Mix 5000149,ec32292h,35594,Marion County,"700 Blue Ridge Rd, Winfield, AL 35594, USA",33.9491643,-87.783366
Mix 5000058,ec36ju5h,35594,Marion County,"700 Blue Ridge Rd, Winfield, AL 35594, USA",33.9491643,-87.783366
Mix 5000074,ec3nurhk,35594,Marion County,"700 Blue Ridge Rd, Winfield, AL 35594, USA",33.9491643,-87.783366
Mix 5000144,ec39q338,35594,Marion County,"700 Blue Ridge Rd, Winfield, AL 35594, USA",33.9491643,-87.783366
Mix 5000167,ec37p72r,35594,Marion County,"700 Blue Ridge Rd, Winfield, AL 35594, USA",33.9491643,-87.783366
Mix 5000029,ec3eyznh,35594,Marion County,"700 Blue Ridge Rd, Winfield, AL 35594, USA",33.9491643,-87.783366
Mix 5000109,ec3kfqe5,35594,Marion County,"700 Blue Ridge Rd, Winfield, AL 35594, USA",33.9491643,-87.783366
Mix 5000096,ec34psxq,35594,Marion County,"700 Blue Ridge Rd, Winfield, AL 35594, USA",33.9491643,-87.783366
Mix 5000125,ec3jgrjx,35594,Marion County,"700 Blue Ridge Rd, Winfield, AL 35594, USA",33.9491643,-87.783366
Mix 5000025,ec3cjpk0,35594,Marion County,"700 Blue Ridge Rd, Winfield, AL 35594, USA",33.9491643,-87.783366
Mix 5000115,ec30jdpn,35594,Marion County,"700 Blue Ridge Rd, Winfield, AL 35594, USA",33.9491643,-87.783366
Mix 5000156,ec3ur6h5,35594,Marion County,"700 Blue Ridge Rd, Winfield, AL 35594, USA",33.9491643,-87.783366
Mix 5000290,ec3negwu,35594,Marion County,"700 Blue Ridge Rd, Winfield, AL 35594, USA",33.9491643,-87.783366
Mix 5000080,ec3r8p5a,35594,Marion County,"700 Blue Ridge Rd, Winfield, AL 35594, USA",33.9491643,-87.783366
Mix 5000207,ec3jcfj9,35594,Marion County,"700 Blue Ridge Rd, Winfield, AL 35594, USA",33.9491643,-87.783366
Mix 5000184,ec38nxch,35594,Marion County,"700 Blue Ridge Rd, Winfield, AL 35594, USA",33.9491643,-87.783366
Mix 5000240,ec3666jk,35594,Marion County,"700 Blue Ridge Rd, Winfield, AL 35594, USA",33.9491643,-87.783366
Mix 5000210,ec3bfbh0,35594,Marion County,"700 Blue Ridge Rd, Winfield, AL 35594, USA",33.9491643,-87.783366
Mix 5000183,ec3wngh6,35594,Marion County,"700 Blue Ridge Rd, Winfield, AL 35594, USA",33.9491643,-87.783366
Mix 5000157,ec33a4xa,35594,Marion County,"700 Blue Ridge Rd, Winfield, AL 35594, USA",33.9491643,-87.783366
Mix 5000078,ec33k2zm,35594,Marion County,"700 Blue Ridge Rd, Winfield, AL 35594, USA",33.9491643,-87.783366
Mix 5000194,ec3mbfz5,35594,Marion County,"700 Blue Ridge Rd, Winfield, AL 35594, USA",33.9491643,-87.783366
Mix 5000242,ec3yhfmk,35594,Marion County,"700 Blue Ridge Rd, Winfield, AL 35594, USA",33.9491643,-87.783366
Mix 5000188,ec3rm71c,35594,Marion County,"700 Blue Ridge Rd, Winfield, AL 35594, USA",33.9491643,-87.783366
Mix 5000180,ec3br3fj,35594,Marion County,"700 Blue Ridge Rd, Winfield, AL 35594, USA",33.9491643,-87.783366
Mix 5000231,ec3ua0u0,35594,Marion County,"700 Blue Ridge Rd, Winfield, AL 35594, USA",33.9491643,-87.783366
Mix 5000081,ec3edh5d,35594,Marion County,"700 Blue Ridge Rd, Winfield, AL 35594, USA",33.9491643,-87.783366
Mix 5000043,ec30rr4y,35594,Marion County,"700 Blue Ridge Rd, Winfield, AL 35594, USA",33.9491643,-87.783366
Mix 5000104,ec3w2kqj,35594,Marion County,"700 Blue Ridge Rd, Winfield, AL 35594, USA",33.9491643,-87.783366
Mix 5000234,ec3b6tyu,35594,Marion County,"700 Blue Ridge Rd, Winfield, AL 35594, USA",33.9491643,-87.783366
Mix 5000146,ec3hc32g,35594,Marion County,"700 Blue Ridge Rd, Winfield, AL 35594, USA",33.9491643,-87.783366
Light Guage Steel Track and Stud Framing,ec3gez2c,35906,Etowah,"1217 West Grand Avenue, Rainbow City, AL 35906",33.98046,-86.0647
"1"" Private",ec3g97y6,35806,Madison County,"6150 Stringfield Rd NW, Huntsville, AL 35806, USA",34.77869099999999,-86.64146459999999
"424 1/2"" Surface PG76-22 GH-0214-23 W- ACE XP Fiber",ec3nxja0,36303,Houston County,"645 Twitchell Rd, Dothan, AL 36303, USA",31.2500881,-85.3999996
"424 1/2"" Surface Esal E PG67-22 GH-0212-23",ec3s67gd,36303,Houston County,"645 Twitchell Rd, Dothan, AL 36303, USA",31.2500881,-85.3999996
"424 1/2"" Surface PG76-22 GH-0213-23 W- Anova 1815",ec3k4amk,36303,Houston County,"645 Twitchell Rd, Dothan, AL 36303, USA",31.2500881,-85.3999996
"424 3/4"" Binde ABCDE PG67-22 GH-0207-23",ec3316bq,36303,Houston County,"645 Twitchell Rd, Dothan, AL 36303, USA",31.2500881,-85.3999996
GH-0161-21,ec3xeabe,35806,Madison County,"6150 Stringfield Rd NW, Huntsville, AL 35806, USA",34.77869099999999,-86.64146459999999
"424 1/2"" Binder PG76-22 GH-0208-23",ec38rf95,36303,Houston County,"645 Twitchell Rd, Dothan, AL 36303, USA",31.2500881,-85.3999996
211135,ec35k6ms,36303,Houston County,"645 Twitchell Rd, Dothan, AL 36303, USA",31.2500881,-85.3999996
GH-0108-21,ec39dh1y,35806,Madison County,"6150 Stringfield Rd NW, Huntsville, AL 35806, USA",34.77869099999999,-86.64146459999999
211155,ec3dmtwf,36303,Houston County,"645 Twitchell Rd, Dothan, AL 36303, USA",31.2500881,-85.3999996
"1/2"" Private",ec3r1nju,35806,Madison County,"6150 Stringfield Rd NW, Huntsville, AL 35806, USA",34.77869099999999,-86.64146459999999
"424 1/2"" Surface PG76-22 GH-0211-23",ec3kendp,36303,Houston County,"645 Twitchell Rd, Dothan, AL 36303, USA",31.2500881,-85.3999996
"424 1/2"" Surface PG76-22 GH-0210-23 W- Evotherm",ec3eus12,36303,Houston County,"645 Twitchell Rd, Dothan, AL 36303, USA",31.2500881,-85.3999996
"424 1"" Binder ABCDE PG67-22 GH-0062-22",ec3q97zy,36303,Houston County,"645 Twitchell Rd, Dothan, AL 36303, USA",31.2500881,-85.3999996
"424 1/2"" Surface Esal E PG67-22 GH-0209-23",ec35q8r8,36303,Houston County,"645 Twitchell Rd, Dothan, AL 36303, USA",31.2500881,-85.3999996
211145,ec3t2sbf,36303,Houston County,"645 Twitchell Rd, Dothan, AL 36303, USA",31.2500881,-85.3999996
"1"" Binder A/B C/D E",ec39je3z,36303,Houston County,"645 Twitchell Rd, Dothan, AL 36303, USA",31.2500881,-85.3999996
"1/2"" Leveling A/B C/D",ec3mnurf,36303,Houston County,"645 Twitchell Rd, Dothan, AL 36303, USA",31.2500881,-85.3999996
M326STLT,ec3yn376,36582,Mobile County,"3151 Hamilton Blvd, Theodore, AL 36582, USA",30.54916059999999,-88.11330269999999
Quarry Tile,ec39pfaf,35555,Fayette County,"1470 County Rd 21 S, Fayette, AL 35555, USA",33.6983125,-87.8749375
Quarry Tile,ec3jcmuy,35555,Fayette County,"1470 County Rd 21 S, Fayette, AL 35555, USA",33.6982972,-87.87492139999999
1/2 in. (12.7 mm) Sheetrock® Brand Glass-Mat Panels Mold Tough®,ec32pye8,,,,,
3/8 in. (9.5 mm) Sheetrock® Brand Gypsum Panels,ec35z4af,,,,,
5/8 in. (15.9 mm) Securock® Brand UltraLight Coated and Uncoated Glass-Mat Roof Board,ec39fr42,,,,,
1/4 in. (6.35 mm) Securock® Brand UltraLight Coated and Uncoated Glass-Mat Roof Board,ec3fmjtz,,,,,
5/8 in. (15.9mm) Sheetrock Brand EcoSmart Panels Mold Tough Firecode X,ec36e1fe,,,,,
"1"" Binder",ec3qaz3k,35217,Jefferson County,"2201 Pinson Valley Pkwy, Birmingham, AL 35217, USA",33.5911562,-86.76290279999999
Vulcraft Fabricated Steel and Floor Deck,ec3src6x,,Dekalb County,"Fort Payne, AL, USA",34.4442547,-85.7196893
Hot-Rolled Sheet,ec3a646t,35673,Morgan,"Iverson Boulevard, Trinity, AL 35673",34.63177,-87.09501
Unfabricated hollow structural sections (average),ec3a0yq6,,,,,
951631,ec373q02,35094,Jefferson County,"8732 Parkway Dr, Leeds, AL 35094, USA",33.54463,-86.522565
191631,ec325ahq,35094,Jefferson County,"8732 Parkway Dr, Leeds, AL 35094, USA",33.54463,-86.522565
371531,ec32grmg,35094,Jefferson County,"8732 Parkway Dr, Leeds, AL 35094, USA",33.54463,-86.522565
Fabricated hollow structural sections (average),ec3wmhtc,,,,,
Levelrock® Brand 2500 Floor Underlayment,ec3jshxn,,,,,
120933R201BStaff,ec3rakgn,,Jefferson County,"Birmingham, AL, USA",33.5185892,-86.8103567
190333R20,ec36gs2g,,Jefferson County,"Birmingham, AL, USA",33.5185892,-86.8103567
370433,ec3n0tq5,,Jefferson County,"Birmingham, AL, USA",33.5185892,-86.8103567
250633,ec3aqqzf,,Jefferson County,"Birmingham, AL, USA",33.5185892,-86.8103567
190333Staff,ec3bg28c,,Jefferson County,"Birmingham, AL, USA",33.5185892,-86.8103567
120933R20Staff,ec32gwu9,,Jefferson County,"Birmingham, AL, USA",33.5185892,-86.8103567
250133R20,ec388897,,Jefferson County,"Birmingham, AL, USA",33.5185892,-86.8103567
190233R20Oaks,ec395fdm,,Jefferson County,"Birmingham, AL, USA",33.5185892,-86.8103567
190233Oaks,ec3wydzz,,Jefferson County,"Birmingham, AL, USA",33.5185892,-86.8103567
250133R20Oaks,ec3cq9d8,,Jefferson County,"Birmingham, AL, USA",33.5185892,-86.8103567
120933Staff,ec30d8db,,Jefferson County,"Birmingham, AL, USA",33.5185892,-86.8103567
250133,ec3qwprh,,Jefferson County,"Birmingham, AL, USA",33.5185892,-86.8103567
1209331BStaff,ec3711qj,,Jefferson County,"Birmingham, AL, USA",33.5185892,-86.8103567
120933R20,ec3mnbub,,Jefferson County,"Birmingham, AL, USA",33.5185892,-86.8103567
190333,ec31k1bf,,Jefferson County,"Birmingham, AL, USA",33.5185892,-86.8103567
251531,ec3xzgum,35094,Jefferson County,"8732 Parkway Dr, Leeds, AL 35094, USA",33.54463,-86.522565
120833R20,ec3a9w2t,,Jefferson County,"Birmingham, AL, USA",33.5185892,-86.8103567
190233R20,ec35jqq6,,Jefferson County,"Birmingham, AL, USA",33.5185892,-86.8103567
120933,ec3pquf3,,Jefferson County,"Birmingham, AL, USA",33.5185892,-86.8103567
952031,ec3mhk9d,35094,Jefferson County,"8732 Parkway Dr, Leeds, AL 35094, USA",33.54463,-86.522565
190233,ec3qp0er,,Jefferson County,"Birmingham, AL, USA",33.5185892,-86.8103567
120833,ec3pbk0j,,Jefferson County,"Birmingham, AL, USA",33.5185892,-86.8103567
630231,ec3xw7jh,35094,Jefferson County,"8732 Parkway Dr, Leeds, AL 35094, USA",33.54463,-86.522565
191327R20,ec364r8s,35094,Jefferson County,"8732 Parkway Dr, Leeds, AL 35094, USA",33.54463,-86.522565
250827,ec3dfgsh,35094,Jefferson County,"8732 Parkway Dr, Leeds, AL 35094, USA",33.54463,-86.522565
121627,ec35p79h,35094,Jefferson County,"8732 Parkway Dr, Leeds, AL 35094, USA",33.54463,-86.522565
191327,ec332tam,35094,Jefferson County,"8732 Parkway Dr, Leeds, AL 35094, USA",33.54463,-86.522565
121427L,ec3ucw8p,35094,Jefferson County,"8732 Parkway Dr, Leeds, AL 35094, USA",33.54463,-86.522565
121427R20L,ec3z36jr,35094,Jefferson County,"8732 Parkway Dr, Leeds, AL 35094, USA",33.54463,-86.522565
121627R20,ec3d929k,35094,Jefferson County,"8732 Parkway Dr, Leeds, AL 35094, USA",33.54463,-86.522565
951233R20,ec3wgkzc,,Jefferson County,"Birmingham, AL, USA",33.5185892,-86.8103567
121427,ec3zq2aw,35094,Jefferson County,"8732 Parkway Dr, Leeds, AL 35094, USA",33.54463,-86.522565
951133,ec3190d5,,Jefferson County,"Birmingham, AL, USA",33.5185892,-86.8103567
951133R20,ec3mahu8,,Jefferson County,"Birmingham, AL, USA",33.5185892,-86.8103567
950733R20TL Staff,ec3gugmn,,Jefferson County,"Birmingham, AL, USA",33.5185892,-86.8103567
121427R20,ec3wnzrp,35094,Jefferson County,"8732 Parkway Dr, Leeds, AL 35094, USA",33.54463,-86.522565
951233,ec3e9sst,,Jefferson County,"Birmingham, AL, USA",33.5185892,-86.8103567
950733R20,ec3ef5nb,,Jefferson County,"Birmingham, AL, USA",33.5185892,-86.8103567
950733Oaks,ec32ncs4,,Jefferson County,"Birmingham, AL, USA",33.5185892,-86.8103567
950733,ec3x35fp,,Jefferson County,"Birmingham, AL, USA",33.5185892,-86.8103567
371127S,ec3kg1zr,35094,Jefferson County,"8732 Parkway Dr, Leeds, AL 35094, USA",33.54463,-86.522565
371127R30,ec359u7n,35094,Jefferson County,"8732 Parkway Dr, Leeds, AL 35094, USA",33.54463,-86.522565
370827R20,ec3mnuj3,35094,Jefferson County,"8732 Parkway Dr, Leeds, AL 35094, USA",33.54463,-86.522565
371127R20,ec3py0jb,35094,Jefferson County,"8732 Parkway Dr, Leeds, AL 35094, USA",33.54463,-86.522565
370827R20S,ec3z7pmm,35094,Jefferson County,"8732 Parkway Dr, Leeds, AL 35094, USA",33.54463,-86.522565
251127,ec37pbb9,35094,Jefferson County,"8732 Parkway Dr, Leeds, AL 35094, USA",33.54463,-86.522565
370827S,ec3mmtg5,35094,Jefferson County,"8732 Parkway Dr, Leeds, AL 35094, USA",33.54463,-86.522565
370827R30S,ec3cd1f2,35094,Jefferson County,"8732 Parkway Dr, Leeds, AL 35094, USA",33.54463,-86.522565
371127R30S,ec3942j5,35094,Jefferson County,"8732 Parkway Dr, Leeds, AL 35094, USA",33.54463,-86.522565
371127,ec30nqkj,35094,Jefferson County,"8732 Parkway Dr, Leeds, AL 35094, USA",33.54463,-86.522565
952127R20,ec3eju8u,35094,Jefferson County,"8732 Parkway Dr, Leeds, AL 35094, USA",33.54463,-86.522565
371127R20S,ec3b3hfp,35094,Jefferson County,"8732 Parkway Dr, Leeds, AL 35094, USA",33.54463,-86.522565
370827R30,ec3m1w8g,35094,Jefferson County,"8732 Parkway Dr, Leeds, AL 35094, USA",33.54463,-86.522565
952227R20,ec3xgskk,35094,Jefferson County,"8732 Parkway Dr, Leeds, AL 35094, USA",33.54463,-86.522565
952527R20,ec3cuegh,35094,Jefferson County,"8732 Parkway Dr, Leeds, AL 35094, USA",33.54463,-86.522565
630627,ec3sxdhm,35094,Jefferson County,"8732 Parkway Dr, Leeds, AL 35094, USA",33.54463,-86.522565
952127,ec32qwbw,35094,Jefferson County,"8732 Parkway Dr, Leeds, AL 35094, USA",33.54463,-86.522565
952127TL,ec3uww3a,35094,Jefferson County,"8732 Parkway Dr, Leeds, AL 35094, USA",33.54463,-86.522565
952527,ec3cn880,35094,Jefferson County,"8732 Parkway Dr, Leeds, AL 35094, USA",33.54463,-86.522565
630527,ec371k96,35094,Jefferson County,"8732 Parkway Dr, Leeds, AL 35094, USA",33.54463,-86.522565
950433,ec350d5h,,Jefferson County,"Birmingham, AL, USA",33.5185892,-86.8103567
630633R20,ec38hz9u,,Jefferson County,"Birmingham, AL, USA",33.5185892,-86.8103567
950433Grav,ec3472z2,,Jefferson County,"Birmingham, AL, USA",33.5185892,-86.8103567
630633R20Oaks,ec32yzj6,,Jefferson County,"Birmingham, AL, USA",33.5185892,-86.8103567
370833R30,ec3t993u,,Jefferson County,"Birmingham, AL, USA",33.5185892,-86.8103567
630633Oaks,ec3bey1u,,Jefferson County,"Birmingham, AL, USA",33.5185892,-86.8103567
370833,ec35ayum,,Jefferson County,"Birmingham, AL, USA",33.5185892,-86.8103567
250133Oaks,ec3tgh19,,Jefferson County,"Birmingham, AL, USA",33.5185892,-86.8103567
190333R20Staff,ec3ggtkw,,Jefferson County,"Birmingham, AL, USA",33.5185892,-86.8103567
250633R20,ec3wwjxc,,Jefferson County,"Birmingham, AL, USA",33.5185892,-86.8103567
370833R20,ec3qc392,,Jefferson County,"Birmingham, AL, USA",33.5185892,-86.8103567
630733,ec3kchu4,,Jefferson County,"Birmingham, AL, USA",33.5185892,-86.8103567
630633,ec389ndy,,Jefferson County,"Birmingham, AL, USA",33.5185892,-86.8103567
950433R20,ec3krkta,,Jefferson County,"Birmingham, AL, USA",33.5185892,-86.8103567
10004368,ec3www1c,35217,Jefferson County,"1020 Pinson Valley Pkwy, Birmingham, AL 35217, USA",33.579203,-86.77977399999999
630527R20,ec3a3x7c,35094,Jefferson County,"8732 Parkway Dr, Leeds, AL 35094, USA",33.54463,-86.522565
10004543,ec3wb2cu,35217,Jefferson County,"1020 Pinson Valley Pkwy, Birmingham, AL 35217, USA",33.579203,-86.77977399999999
10004906,ec3natjf,35217,Jefferson County,"1020 Pinson Valley Pkwy, Birmingham, AL 35217, USA",33.579203,-86.77977399999999
RM3021,ec3bc8fy,36203,Calhoun County,"221 Industrial Dr, Oxford, AL 36203, USA",33.6092193,-85.79991179999999
RM4035,ec3nbfb3,36203,Calhoun County,"221 Industrial Dr, Oxford, AL 36203, USA",33.6092193,-85.79991179999999
RM4020,ec3rkah3,36203,Calhoun County,"221 Industrial Dr, Oxford, AL 36203, USA",33.6092193,-85.79991179999999
RM4520,ec3691am,36203,Calhoun County,"221 Industrial Dr, Oxford, AL 36203, USA",33.6092193,-85.79991179999999
10004908,ec36z4g8,35217,Jefferson County,"1020 Pinson Valley Pkwy, Birmingham, AL 35217, USA",33.579203,-86.77977399999999
10004909,ec31kfk8,35217,Jefferson County,"1020 Pinson Valley Pkwy, Birmingham, AL 35217, USA",33.579203,-86.77977399999999
10004910,ec3z23tp,35217,Jefferson County,"1020 Pinson Valley Pkwy, Birmingham, AL 35217, USA",33.579203,-86.77977399999999
10004911,ec3pwc1f,35217,Jefferson County,"1020 Pinson Valley Pkwy, Birmingham, AL 35217, USA",33.579203,-86.77977399999999
"1/2"" ALDOT Seal",ec3x7wh8,35217,Jefferson County,"2201 Pinson Valley Pkwy, Birmingham, AL 35217, USA",33.5911562,-86.76290279999999
10004368,ec3d9d1a,35094,Jefferson County,"8732 Parkway Dr, Leeds, AL 35094, USA",33.544647,-86.522567
10004368,ec3uyqjn,35115,Shelby County,"6824 AL-25, Montevallo, AL 35115, USA",33.0918378,-86.8167974
10004543,ec3dsqkx,35094,Jefferson County,"8732 Parkway Dr, Leeds, AL 35094, USA",33.544647,-86.522567
10004910,ec3urkqd,35094,Jefferson County,"8732 Parkway Dr, Leeds, AL 35094, USA",33.544647,-86.522567
10004910,ec3r7j0f,35094,Jefferson County,"8732 Parkway Dr, Leeds, AL 35094, USA",33.544647,-86.522567
10004908,ec3m3mdg,35094,Jefferson County,"8732 Parkway Dr, Leeds, AL 35094, USA",33.544647,-86.522567
5/8 in. (15.9 mm) Sheetrock® Brand Mold Tough® Panels Firecode® X,ec3n80q1,,,,,
Steel Concrete Reinforcing Bar and Merchant Bar Products-Birmingham (AL) Unfabricated,ec3w2gt3,35234,Jefferson,"F.L. Shuttlesworth Drive, Birmingham, AL 35234",33.54748,-86.80924
Mix 5000010 • HARVEST - HIGHWAY 53 - LAFARGE Plant,ec3uskgp,35749,Madison County,"5679 AL-53, Harvest, AL 35749, USA",34.8402605,-86.70974439999999
Mix 4000222,ec3eqkxk,35749,Madison,"5679 Highway 53, Harvest, AL 35749",34.8403,-86.70974
Mix 4001418,ec3phfp0,35749,Madison County,"5679 AL-53, Harvest, AL 35749, USA",34.8402605,-86.70974439999999
Mix 4000314 • HARVEST - HIGHWAY 53 - LAFARGE,ec3w5g3b,35749,Madison County,"5679 AL-53, Harvest, AL 35749, USA",34.8402605,-86.70974439999999
Mix 4000338 • HARVEST - HIGHWAY 53 - LAFARGE Plant,ec382z55,35749,Madison County,"5679 AL-53, Harvest, AL 35749, USA",34.8402605,-86.70974439999999
Mix 4000323,ec30eq7j,35749,Madison County,"5679 AL-53, Harvest, AL 35749, USA",34.8402605,-86.70974439999999
Mix 4000153,ec3zx4ds,35749,Madison,"5679 Highway 53, Harvest, AL 35749",34.8403,-86.70974
Fabricated Construction Grade Steel Plate,ec3x76uf,35404,Tuscaloosa,"1700 Holt Road Northeast, Tuscaloosa, AL 35404",33.23752,-87.50597
424 1” Meta,ec3wmn9s,36303,Houston County,"645 Twitchell Rd, Dothan, AL 36303, USA",31.2500881,-85.3999996
424 1/2” Meta,ec3f3fxe,36303,Houston County,"645 Twitchell Rd, Dothan, AL 36303, USA",31.2500881,-85.3999996
424 3/4” Meta,ec3s7fy0,36303,Houston County,"645 Twitchell Rd, Dothan, AL 36303, USA",31.2500881,-85.3999996
"424 3/4"" Meta",ec33dadu,36108,Montgomery County,"1761 Hunter Loop Rd, Montgomery, AL 36108, USA",32.3866433,-86.3983423
424 1/2” Meta Permanent,ec3btpa6,36108,Montgomery County,"1761 Hunter Loop Rd, Montgomery, AL 36108, USA",32.3866433,-86.3983423
424 1” Meta Permanent,ec3p4wtt,36108,Montgomery County,"1761 Hunter Loop Rd, Montgomery, AL 36108, USA",32.3866433,-86.3983423
424 3/4” Meta Permanent,ec3baa4u,36108,Montgomery County,"1761 Hunter Loop Rd, Montgomery, AL 36108, USA",32.3866433,-86.3983423
5/8 in. (15.9 mm) Sheetrock Brand EcoSmart Panels Mold Tough Firecode X,ec3s66qr,35740,Jackson,"100 D.J. Nootens Drive, Bridgeport, AL 35740",34.96334,-85.72804
THHN/THWN Type Electrical Cable (14 SOL Circuit),ec3zxspc,,,,,
EnviroFlex™ Rubber Sheet & Tile,ec32dpwz,35674,Colbert,"1401 East 6th Street, Tuscumbia, AL 35674",34.73076,-87.68155
Tuflex® Force® Premium Engineered Sports Flooring,ec3tgbut,35674,Colbert,"1401 East 6th Street, Tuscumbia, AL 35674",34.73076,-87.68155
Solid Vinyl & ESD Vinyl Tile,ec3y5wg3,35674,Colbert,"1401 East 6th Street, Tuscumbia, AL 35674",34.73076,-87.68155
"Unfabricated Hollow Structural Sections (HSS) - Birmingham, AL - Average Steel Supply Mix",ec3cy492,35217,Jefferson County,"171 Cleage Dr, Birmingham, AL 35217, USA",33.6280724,-86.73928
Distinct Designs Rubber Flooring,ec38xkmu,35674,Colbert,"1401 East 6th Street, Tuscumbia, AL 35674",34.73076,-87.68155
Gallant Multi-Use Rubber Tile,ec3q2mc6,35674,Colbert County,"1401 E 6th St, Tuscumbia, AL 35674, USA",34.7316121,-87.68167799999999
Envire® Rubber Sheet & Tile,ec3jyskb,35674,Colbert County,"1401 E 6th St, Tuscumbia, AL 35674, USA",34.7316121,-87.68167799999999
Tuflex® Spartus Multi-Use Rubber Tile,ec3byc2b,35674,Colbert County,"1401 E 6th St, Tuscumbia, AL 35674, USA",34.7316121,-87.68167799999999
Solid Vinyl & ESD Static Control Vinyl Tile,ec3s1jbe,35674,Colbert County,"1401 E 6th St, Tuscumbia, AL 35674, USA",34.7316121,-87.68167799999999
501104,ec385xe0,36108,Montgomery County,"3710 West Blvd, Montgomery, AL 36108, USA",32.3293512,-86.35095419999999
Mix 405144,ec300y0e,36108,Montgomery County,"3710 West Blvd, Montgomery, AL 36108, USA",32.3293512,-86.35095419999999
Mix 505144,ec3hntjg,36108,Montgomery County,"3710 West Blvd, Montgomery, AL 36108, USA",32.3293512,-86.35095419999999
5000 PSI F ASH NA,ec3y3thb,36108,Montgomery County,"3710 West Blvd, Montgomery, AL 36108, USA",32.3293512,-86.35095419999999
405144,ec3ckfrs,36108,Montgomery County,"3710 West Blvd, Montgomery, AL 36108, USA",32.3293512,-86.35095419999999
402104,ec3kwbuf,36108,Montgomery County,"3710 West Blvd, Montgomery, AL 36108, USA",32.3293512,-86.35095419999999
501106-2,ec3mhteb,36108,Montgomery County,"3710 West Blvd, Montgomery, AL 36108, USA",32.3293512,-86.35095419999999
Thermoplastic Rubber Wall Base,ec36xq1n,35674,Colbert,"1401 East 6th Street, Tuscumbia, AL 35674",34.73076,-87.68155
Vinyl Wall Base & Accessories,ec31z24p,35674,Colbert,"1401 East 6th Street, Tuscumbia, AL 35674",34.73076,-87.68155
Merchant Bar and Light Structural Shapes,ec32buw1,35212,Jefferson County,"101 50th St S, Birmingham, AL 35212, USA",33.5340123,-86.7573503
JM TPO 80 mils fleece-backed,ec33fyne,,Russell County,"Phenix City, AL, USA",32.4709761,-85.0007653
JM TPO 80 mils,ec3ad206,,Russell County,"Phenix City, AL, USA",32.4709761,-85.0007653
JM TPO 60 mils fleece-backed,ec3k7rqs,,Russell County,"Phenix City, AL, USA",32.4709761,-85.0007653
#not_an_epd M3270013,ec3mjptb,36582,Mobile County,"3151 Hamilton Blvd, Theodore, AL 36582, USA",30.54916059999999,-88.11330269999999
JM TPO 60 mils,ec349abq,,Russell County,"Phenix City, AL, USA",32.4709761,-85.0007653
